CDSCode,NCESDist,NCESSchool,StatusType,County,District,School,Street,StreetAbr,City,Zip,State,MailStreet,MailStrAbr,MailCity,MailZip,MailState,Phone,Ext,WebSite,OpenDate,ClosedDate,Charter,CharterNum,FundingType,DOC,DOCType,SOC,SOCType,EdOpsCode,EdOpsName,EILCode,EILName,GSoffered,GSserved,Virtual,Magnet,Latitude,Longitude,AdmFName1,AdmLName1,AdmEmail1,AdmFName2,AdmLName2,AdmEmail2,AdmFName3,AdmLName3,AdmEmail3,LastUpDate,school_code
19642121930056,601620,00010,Active,Los Angeles,ABC Unified,Cerritos High,12500 East 183rd Street,12500 East 183rd St.,Cerritos,90703-8450,CA,12500 East 183rd Street,12500 East 183rd St.,Cerritos,90703-8450,CA,(562) 229-7715,No Data,No Data,07/01/1980,No Data,N,No Data,No Data,54,Unified School District,66,High Schools (Public),TRAD,Traditional,HS,High School,9-12,9-12,C,N,33.865464,-118.06478999999999,Patrick,Walker,patrick.walker@abcusd.us,No Data,No Data,No Data,No Data,No Data,No Data,01/18/2017,1930056
19642121930361,601620,00002,Active,Los Angeles,ABC Unified,Artesia High,12108 East Del Amo Boulevard,12108 East Del Amo Blvd.,Lakewood,90715-1516,CA,12108 East Del Amo Boulevard,12108 East Del Amo Blvd.,Lakewood,90715-1516,CA,(562) 229-7700,No Data,www.artesiahs.us/,07/01/1980,No Data,N,No Data,No Data,54,Unified School District,66,High Schools (Public),TRAD,Traditional,HS,High School,9-12,9-12,C,Y,33.845962,-118.0744,Sergio,Garcia,sergio.garcia@abcusd.us,No Data,No Data,No Data,No Data,No Data,No Data,07/19/2018,1930361
19642121931880,601620,00029,Active,Los Angeles,ABC Unified,Whitney (Gretchen) High,16800 Shoemaker Avenue,16800 Shoemaker Ave.,Cerritos,90703-1244,CA,16800 Shoemaker Avenue,16800 Shoemaker Ave.,Cerritos,90703-1244,CA,(562) 229-7745,No Data,No Data,07/01/1980,No Data,N,No Data,No Data,54,Unified School District,66,High Schools (Public),TRAD,Traditional,HS,High School,7-12,7-12,C,N,33.878999,-118.05511000000001,John,Briquelet,john.briquelet@abcusd.us,No Data,No Data,No Data,No Data,No Data,No Data,01/18/2017,1931880
19642121933159,601620,00014,Active,Los Angeles,ABC Unified,Gahr (Richard) High,11111 Artesia Boulevard,11111 Artesia Blvd.,Cerritos,90703-2533,CA,11111 Artesia Boulevard,11111 Artesia Blvd.,Cerritos,90703-2533,CA,(562) 229-7730,No Data,No Data,07/01/1980,No Data,N,No Data,No Data,54,Unified School District,66,High Schools (Public),TRAD,Traditional,HS,High School,9-12,9-12,C,N,33.873114,-118.09725,Crechena,Wise,crechena.wise@abcusd.us,No Data,No Data,No Data,No Data,No Data,No Data,07/19/2018,1933159
19642460100081,602820,11346,Active,Los Angeles,Antelope Valley Union High,William J. (Pete) Knight High,37423 70th Street East,37423 70th St. East,Palmdale,93552-4800,CA,37423 70th Street East,37423 70th St. East,Palmdale,93552-4800,CA,(661) 533-9000,No Data,www.khshawks.org,09/02/2003,No Data,N,No Data,No Data,56,High School District,66,High Schools (Public),TRAD,Traditional,HS,High School,9-12,9-12,N,N,34.56145,-118.00828,Will,Laird,wlaird@avhsd.org,No Data,No Data,No Data,No Data,No Data,No Data,08/07/2018,100081
19642460108407,602820,10823,Active,Los Angeles,Antelope Valley Union High,Eastside High,3200 East Avenue J-8,3200 East Ave. J-8,Lancaster,93535-5827,CA,3200 East Avenue J-8,3200 East Ave. J-8,Lancaster,93535-5827,CA,(661) 946-3800,No Data,www.eastsidehigh.org,08/22/2005,No Data,N,No Data,No Data,56,High School District,66,High Schools (Public),TRAD,Traditional,HS,High School,9-12,9-12,N,N,34.682501,-118.07325,Charles,Dunn,cdunn@avhsd.org,No Data,No Data,No Data,No Data,No Data,No Data,08/16/2017,108407
19642460126003,602820,13154,Active,Los Angeles,Antelope Valley Union High,Academies of the Antelope Valley,6300 West Avenue L,6300 West Avenue L,Quartz Hill,93536-4540,CA,6300 West Avenue L,6300 West Avenue L,Quartz Hill,93536-4540,CA,(661) 948-7655,230,www.avdistrict.org,08/13/2012,No Data,Y,1415,Locally funded,56,High School District,66,High Schools (Public),TRAD,Traditional,HS,High School,7-12,7-12,C,N,34.660140000000006,-118.24103999999998,Matt,Berryman,mberryman@avhsd.org,No Data,No Data,No Data,No Data,No Data,No Data,08/07/2018,126003
19642461930213,602820,00203,Active,Los Angeles,Antelope Valley Union High,Antelope Valley High,44900 North Division Street,44900 North Division St.,Lancaster,93535-2538,CA,44900 North Division Street,44900 North Division St.,Lancaster,93535-2538,CA,(661) 948-8552,No Data,www.avhs.org,07/01/1912,No Data,N,No Data,No Data,56,High School District,66,High Schools (Public),TRAD,Traditional,HS,High School,9-12,9-12,N,Y,34.69911,-118.13033999999999,Jodie,Radford,jradford@avhsd.org,No Data,No Data,No Data,No Data,No Data,No Data,06/18/2015,1930213
19642461936624,602820,00205,Active,Los Angeles,Antelope Valley Union High,Palmdale High,2137 East Avenue R,2137 East Avenue R,Palmdale,93550-5415,CA,2137 East Avenue R,2137 East Avenue R,Palmdale,93550-5415,CA,(661) 273-3181,No Data,www.phsfalcons.org,07/01/1957,No Data,N,No Data,No Data,56,High School District,66,High Schools (Public),TRAD,Traditional,HS,High School,9-12,9-12,N,N,34.572775,-118.09194,Robert,Harris,rharris@avhsd.org,No Data,No Data,No Data,No Data,No Data,No Data,11/01/2018,1936624
19642461937051,602820,00206,Active,Los Angeles,Antelope Valley Union High,Quartz Hill High,6040 West Avenue L,6040 West Avenue L,Quartz Hill,93536-4501,CA,6040 West Avenue L,6040 West Avenue L,Quartz Hill,93536-4501,CA,(661) 718-3100,No Data,www.qhhs.org,07/01/1964,No Data,N,No Data,No Data,56,High School District,66,High Schools (Public),TRAD,Traditional,HS,High School,9-12,9-12,N,N,34.660109000000006,-118.24003,Zach,Mercier,zmercier@avhsd.org,No Data,No Data,No Data,No Data,No Data,No Data,08/07/2018,1937051
19642461995398,602820,09515,Active,Los Angeles,Antelope Valley Union High,Highland High,39055 25th Street West,39055 25th St. West,Palmdale,93551-4164,CA,39055 25th Street West,39055 25th St. West,Palmdale,93551-4164,CA,(661) 538-0304,No Data,www.highlandhs.org,07/01/1990,No Data,N,No Data,No Data,56,High School District,66,High Schools (Public),TRAD,Traditional,HS,High School,9-12,9-12,N,Y,34.585226,-118.174,Chris,Grado,cgrado@avhsd.org,No Data,No Data,No Data,No Data,No Data,No Data,08/16/2017,1995398
19642461995406,602820,09516,Active,Los Angeles,Antelope Valley Union High,Littlerock High,10833 East Avenue R,10833 East Avenue R,Littlerock,93543-4106,CA,10833 East Avenue R,10833 East Avenue R,Littlerock,93543,CA,(661) 944-5209,No Data,www.lhslobos.org,07/01/1990,No Data,N,No Data,No Data,56,High School District,66,High Schools (Public),TRAD,Traditional,HS,High School,9-12,9-12,N,N,34.572721,-117.93595,Jose,Barajas,jbarajas@avhsd.org,No Data,No Data,No Data,No Data,No Data,No Data,08/16/2017,1995406
19642461995844,602820,04582,Active,Los Angeles,Antelope Valley Union High,Lancaster High,44701 32nd Street West,44701 32nd St. West,Lancaster,93536-7023,CA,44701 32nd Street West,44701 32nd St. West,Lancaster,93536-7023,CA,(661) 726-7649,No Data,www.lnhs.org,09/07/1995,No Data,N,No Data,No Data,56,High School District,66,High Schools (Public),TRAD,Traditional,HS,High School,9-12,9-12,N,N,34.694853,-118.18835,Kristen,Tepper,ktepper@avhsd.org,No Data,No Data,No Data,No Data,No Data,No Data,04/11/2018,1995844
19642461996537,602820,08714,Active,Los Angeles,Antelope Valley Union High,Desert Sands Charter,44130 20th Street West,44130 20th St. West,Lancaster,93534-4045,CA,177 Holston Drive,177 Holston Dr.,Lancaster,93535,CA,(661) 942-3357,No Data,www.dschs.org,09/04/2001,No Data,Y,0411,Directly funded,56,High School District,66,High Schools (Public),TRAD,Traditional,HS,High School,9-12,9-12,N,N,34.684768,-118.16417,Taera,Childers,principal@dschs.org,No Data,No Data,No Data,No Data,No Data,No Data,01/17/2019,1996537
19642611930288,602970,00223,Active,Los Angeles,Arcadia Unified,Arcadia High,180 Campus Drive,180 Campus Dr.,Arcadia,91007-6958,CA,180 Campus Drive,180 Campus Dr.,Arcadia,91007-6958,CA,(626) 821-1711,No Data,No Data,07/01/1980,No Data,N,No Data,No Data,54,Unified School District,66,High Schools (Public),TRAD,Traditional,HS,High School,9-12,9-12,C,N,34.130635999999996,-118.03865,Brent,Forsee,bforsee@ausd.net,No Data,No Data,No Data,No Data,No Data,No Data,12/07/2016,1930288
19642791930528,603600,00268,Active,Los Angeles,Azusa Unified,Azusa High,240 North Cerritos Avenue,240 North Cerritos Ave.,Azusa,91702-3733,CA,PO Box 500,PO Box 500,Azusa,91702-0500,CA,(626) 815-3400,No Data,No Data,07/01/1980,No Data,N,No Data,No Data,54,Unified School District,66,High Schools (Public),TRAD,Traditional,HS,High School,9-12,9-12,C,N,34.125392,-117.89936000000002,Martin,Gomez,mgomez4@azusa.org,No Data,No Data,No Data,No Data,No Data,No Data,10/09/2017,1930528
19642791933449,603600,00273,Active,Los Angeles,Azusa Unified,Gladstone High,1340 North Enid,1340 North Enid,Covina,91722-1214,CA,PO Box 500,PO Box 500,Azusa,91702-0500,CA,(626) 815-3600,No Data,No Data,07/01/1980,No Data,N,No Data,No Data,54,Unified School District,66,High Schools (Public),TRAD,Traditional,HS,High School,9-12,9-12,C,N,34.104997,-117.91436000000002,Chris,Silvas,csilvas@azusa.org,No Data,No Data,No Data,No Data,No Data,No Data,03/30/2017,1933449
19642871930601,603690,00324,Active,Los Angeles,Baldwin Park Unified,Baldwin Park High,3900 North Puente Avenue,3900 North Puente Ave.,Baldwin Park,91706-4428,CA,3900 North Puente Avenue,3900 North Puente Ave.,Baldwin Park,91706-4428,CA,(626) 960-5431,No Data,No Data,07/01/1980,No Data,N,No Data,No Data,54,Unified School District,66,High Schools (Public),TRAD,Traditional,HS,High School,9-12,9-12,N,N,34.083315,-117.94995,Gilberto,Rodriguez,grodriguez896@bpusd.net,No Data,No Data,No Data,No Data,No Data,No Data,09/21/2018,1930601
19642871938166,603690,00338,Active,Los Angeles,Baldwin Park Unified,Sierra Vista High,3600 North Frazier Street,3600 North Frazier St.,Baldwin Park,91706-3897,CA,3600 North Frazier Street,3600 North Frazier St.,Baldwin Park,91706-3897,CA,(626) 960-7741,No Data,No Data,07/01/1980,No Data,N,No Data,No Data,54,Unified School District,66,High Schools (Public),TRAD,Traditional,HS,High School,9-12,9-12,N,N,34.076695,-117.98053,Harris,Pratt,hvpratt879@bpusd.net,No Data,No Data,No Data,No Data,No Data,No Data,09/21/2018,1938166
19642871996479,603690,08715,Active,Los Angeles,Baldwin Park Unified,Opportunities for Learning - Baldwin Park,320 North Halstead Street Suite 220,320 North Halstead St. Ste. 220,Pasadena,91107-3147,CA,320 North Halstead Street Suite 220,320 North Halstead St. Ste. 220,Pasadena,91107-3147,CA,(626) 921-8200,No Data,No Data,07/01/2001,No Data,Y,0402,Directly funded,54,Unified School District,65,K-12 Schools (Public),TRAD,Traditional,HS,High School,K-12,7-12,N,N,34.152079,-118.07903,Steven,Lawrence,stevenlawrence@emsofl.com,No Data,No Data,No Data,No Data,No Data,No Data,10/03/2018,1996479
19642951930700,604110,00371,Active,Los Angeles,Bassett Unified,Bassett Senior High,755 Ardilla Avenue,755 Ardilla Ave.,La Puente,91746-2163,CA,904 North Willow Avenue,904 North Willow Ave.,La Puente,91746-1615,CA,(626) 931-2800,No Data,No Data,07/01/1980,No Data,N,No Data,No Data,54,Unified School District,66,High Schools (Public),TRAD,Traditional,HS,High School,9-12,9-12,N,N,34.051475,-117.97641999999999,Gabriel,Fernandez,gfernandez@bassettusd.org,Arin,McDonald,mamcdonald@bassettusd.org,Veronica,Cueva,vcueva@bassettusd.org,07/11/2018,1930700
19643031930775,604440,00396,Active,Los Angeles,Bellflower Unified,Bellflower High,15301 South McNab Avenue,15301 South McNab Ave.,Bellflower,90706-4101,CA,16703 South Clark Avenue,16703 South Clark Ave.,Bellflower,90706,CA,(562) 920-1801,No Data,No Data,07/01/1980,No Data,N,No Data,No Data,54,Unified School District,66,High Schools (Public),TRAD,Traditional,HS,High School,7-12,7-12,C,N,33.894402,-118.1131,Mike,Lundgren,mlundgren@busd.k12.ca.us,No Data,No Data,No Data,No Data,No Data,No Data,11/23/2016,1930775
19643031935618,604440,00402,Active,Los Angeles,Bellflower Unified,Mayfair High,6000 North Woodruff Avenue,6000 North Woodruff Ave.,Lakewood,90713-1124,CA,16703 South Clark Avenue,16703 South Clark Ave.,Bellflower,90706,CA,(562) 925-9981,No Data,No Data,07/01/1980,No Data,N,No Data,No Data,54,Unified School District,66,High Schools (Public),TRAD,Traditional,HS,High School,7-12,7-12,C,N,33.86367,-118.11713999999999,Julie,Stanley,jaadams@busd.k12.ca.us,No Data,No Data,No Data,No Data,No Data,No Data,11/23/2016,1935618
19643111930981,604830,00471,Active,Los Angeles,Beverly Hills Unified,Beverly Hills High,241 Moreno Drive,241 Moreno Dr.,Beverly Hills,90212-3639,CA,241 Moreno Drive,241 Moreno Dr.,Beverly Hills,90212-3639,CA,(310) 229-3685,8300,No Data,07/01/1980,No Data,N,No Data,No Data,54,Unified School District,66,High Schools (Public),TRAD,Traditional,HS,High School,9-12,9-12,N,N,34.06208,-118.41056999999999,Mark,Mead,mmead@bhusd.org,No Data,No Data,No Data,No Data,No Data,No Data,08/16/2017,1930981
19643291931088,605610,00505,Active,Los Angeles,Bonita Unified,Bonita High,3102 D Street,3102 D St.,La Verne,91750-4023,CA,115 West Allen Avenue,115 West Allen Ave.,San Dimas,91773-1437,CA,(909) 971-8220,No Data,No Data,07/01/1980,No Data,N,No Data,No Data,54,Unified School District,66,High Schools (Public),TRAD,Traditional,HS,High School,9-12,9-12,C,N,34.107803999999994,-117.76728999999999,Kenneth,Ritchie,ritchie@bonita.k12.ca.us,No Data,No Data,No Data,No Data,No Data,No Data,06/28/2017,1931088
19643291937739,605610,00514,Active,Los Angeles,Bonita Unified,San Dimas High,800 West Covina Boulevard,800 West Covina Blvd.,San Dimas,91773-1473,CA,115 West Allen Avenue,115 West Allen Ave.,San Dimas,91773-1437,CA,(909) 971-8230,No Data,No Data,07/01/1980,No Data,N,No Data,No Data,54,Unified School District,66,High Schools (Public),TRAD,Traditional,HS,High School,9-12,9-12,C,N,34.099307,-117.82293,Scott,Sparks,ssparks@bonita.k12.ca.us,No Data,No Data,No Data,No Data,No Data,No Data,08/06/2018,1937739
19643371931187,606450,00563,Active,Los Angeles,Burbank Unified,Burbank High,902 North Third Street,902 North Third St.,Burbank,91502-1018,CA,902 North Third Street,902 North Third St.,Burbank,91502-1018,CA,(818) 558-4700,No Data,No Data,07/01/1980,No Data,N,No Data,No Data,54,Unified School District,66,High Schools (Public),TRAD,Traditional,HS,High School,9-12,9-12,N,N,34.188238,-118.31597,Michael,Bertram,michaelbertram@burbankusd.org,No Data,No Data,No Data,No Data,No Data,No Data,06/24/2015,1931187
19643371931237,606450,00564,Active,Los Angeles,Burbank Unified,Burroughs High,1920 Clark Avenue,1920 Clark Ave.,Burbank,91506-1918,CA,1920 Clark Avenue,1920 Clark Ave.,Burbank,91506-1918,CA,(818) 558-4777,No Data,No Data,07/01/1980,No Data,N,No Data,No Data,54,Unified School District,66,High Schools (Public),TRAD,Traditional,HS,High School,9-12,9-12,N,N,34.17046,-118.32713999999999,Deborah,Madrigal,deborahmadrigal@burbankusd.org,No Data,No Data,No Data,No Data,No Data,No Data,06/24/2015,1931237
19643520128488,607920,13705,Active,Los Angeles,Centinela Valley Union High,Family First Charter,4953 Marine Avenue,4953 Marine Ave.,Lawndale,90260-1250,CA,4953 Marine Avenue,4953 Marine Ave.,Lawndale,90260-1250,CA,(310) 946-0379,No Data,No Data,07/01/2013,No Data,Y,1558,Directly funded,56,High School District,66,High Schools (Public),TRAD,Traditional,HS,High School,9-12,9-12,N,N,33.894642,-118.3657,Paul,Guzman,pguzman@newopps.org,No Data,No Data,No Data,No Data,No Data,No Data,02/13/2018,128488
19643521933951,607920,00756,Active,Los Angeles,Centinela Valley Union High,Hawthorne High,4859 West El Segundo Boulevard,4859 West El Segundo Blvd.,Hawthorne,90250-4204,CA,4859 West El Segundo Boulevard,4859 West El Segundo Blvd.,Hawthorne,90250-4204,CA,(310) 263-4400,No Data,No Data,07/01/1980,No Data,N,No Data,No Data,56,High School District,66,High Schools (Public),TRAD,Traditional,HS,High School,9-12,9-12,C,N,33.916456,-118.3629,Vanessa,Landesfeind,landesfeindv@centinela.k12.ca.us,No Data,No Data,No Data,No Data,No Data,No Data,12/07/2016,1933951
19643521934926,607920,07515,Active,Los Angeles,Centinela Valley Union High,Lawndale High,14901 South Inglewood Avenue,14901 South Inglewood Ave.,Lawndale,90260-1251,CA,14901 South Inglewood Avenue,14901 South Inglewood Ave.,Lawndale,90260-1251,CA,(310) 263-3102,No Data,No Data,09/01/1998,No Data,N,No Data,No Data,56,High School District,66,High Schools (Public),TRAD,Traditional,HS,High School,9-12,9-12,C,N,33.896373,-118.36136,Paula,Hart Rodas,rodasp@centinela.k12.ca.us,No Data,No Data,No Data,No Data,No Data,No Data,12/07/2016,1934926
19643521935048,607920,00759,Active,Los Angeles,Centinela Valley Union High,Leuzinger High,4118 West Rosecrans Avenue,4118 West Rosecrans Ave.,Lawndale,90260-1601,CA,4118 West Rosecrans Avenue,4118 West Rosecrans Ave.,Lawndale,90260-1601,CA,(310) 263-2208,No Data,No Data,07/01/1980,No Data,N,No Data,No Data,56,High School District,66,High Schools (Public),TRAD,Traditional,HS,High School,9-12,9-12,C,N,33.90137,-118.34687,Pamela,Brown,brownp@centinela.k12.ca.us,No Data,No Data,No Data,No Data,No Data,No Data,08/15/2017,1935048
19643781931666,608190,00801,Active,Los Angeles,Charter Oak Unified,Charter Oak High,1430 East Covina Boulevard,1430 East Covina Blvd.,Covina,91724-1651,CA,1430 East Covina Boulevard,1430 East Covina Blvd.,Covina,91724-1651,CA,(626) 915-5841,No Data,www.cousd.net,07/01/1980,No Data,N,No Data,No Data,54,Unified School District,66,High Schools (Public),TRAD,Traditional,HS,High School,9-12,9-12,N,N,34.09937,-117.86137,Joey,Strycula,jstrycula@cousd.net,No Data,No Data,No Data,No Data,No Data,No Data,09/20/2018,1931666
19643941931823,608760,00887,Active,Los Angeles,Claremont Unified,Claremont High,1601 North Indian Hill Boulevard,1601 North Indian Hill Blvd.,Claremont,91711-2643,CA,1601 North Indian Hill Boulevard,1601 North Indian Hill Blvd.,Claremont,91711-2643,CA,(909) 624-9053,No Data,No Data,07/01/1980,No Data,N,No Data,No Data,54,Unified School District,66,High Schools (Public),TRAD,Traditional,HS,High School,9-12,9-12,C,N,34.112944,-117.72041000000002,Brett,O'Connor,boconnor@cusd.claremont.edu,No Data,No Data,No Data,No Data,No Data,No Data,09/14/2018,1931823
19644361932086,610050,01093,Active,Los Angeles,Covina-Valley Unified,Covina High,463 South Hollenbeck Avenue,463 South Hollenbeck Ave.,Covina,91723-2955,CA,463 South Hollenbeck Avenue,463 South Hollenbeck Ave.,Covina,91723-2955,CA,(626) 974-6020,No Data,www.covinahigh.net,07/01/1980,No Data,N,No Data,No Data,54,Unified School District,66,High Schools (Public),TRAD,Traditional,HS,High School,9-12,9-12,N,N,34.081555,-117.899,Kenneth,Stratton,kstratton@c-vusd.org,No Data,No Data,No Data,No Data,No Data,No Data,08/16/2017,1932086
19644361936418,610050,01102,Active,Los Angeles,Covina-Valley Unified,Northview High,1016 West Cypress Avenue,1016 West Cypress Ave.,Covina,91722-3145,CA,1016 West Cypress Avenue,1016 West Cypress Ave.,Covina,91722-3145,CA,(626) 974-6120,No Data,www.nhsvikings.org,07/01/1980,No Data,N,No Data,No Data,54,Unified School District,66,High Schools (Public),TRAD,Traditional,HS,High School,9-12,9-12,N,N,34.095751,-117.91103999999999,Manuel,Burciaga,mburciaga@c-vusd.org,No Data,No Data,No Data,No Data,No Data,No Data,08/24/2018,1936418
19644361938372,610050,01105,Active,Los Angeles,Covina-Valley Unified,South Hills High,645 South Barranca Street,645 South Barranca St.,West Covina,91723-0269,CA,645 South Barranca Street,645 South Barranca St.,West Covina,91723-0269,CA,(626) 974-6220,No Data,www.southhillshigh.com,07/01/1980,No Data,N,No Data,No Data,54,Unified School District,66,High Schools (Public),TRAD,Traditional,HS,High School,9-12,9-12,N,N,34.062090000000005,-117.88263,Matt,Dalton,mdalton@c-vusd.org,No Data,No Data,No Data,No Data,No Data,No Data,08/09/2016,1938372
19644441932201,610260,01116,Active,Los Angeles,Culver City Unified,Culver City High,4401 Elenda Street,4401 Elenda St.,Culver City,90230-4101,CA,4401 Elenda Street,4401 Elenda St.,Culver City,90230-4101,CA,(310) 842-4200,No Data,No Data,07/01/1980,No Data,N,No Data,No Data,54,Unified School District,66,High Schools (Public),TRAD,Traditional,HS,High School,9-12,9-12,N,N,34.007671,-118.40207,Lisa,Cooper,lisacooper@ccusd.org,No Data,No Data,No Data,No Data,No Data,No Data,10/08/2015,1932201
19644511932441,611460,01264,Active,Los Angeles,Downey Unified,Downey High,11040 Brookshire Avenue,11040 Brookshire Ave.,Downey,90241-3816,CA,11040 Brookshire Avenue,11040 Brookshire Ave.,Downey,90241-3816,CA,(562) 869-7301,No Data,No Data,07/01/1980,No Data,N,No Data,No Data,54,Unified School District,66,High Schools (Public),TRAD,Traditional,HS,High School,9-12,9-12,N,N,33.939009000000006,-118.12902,Tom,Houts,thouts@dusd.net,No Data,No Data,No Data,No Data,No Data,No Data,06/18/2015,1932441
19644511939164,611460,01278,Active,Los Angeles,Downey Unified,Warren (Earl) High,8141 De Palma Street,8141 De Palma St.,Downey,90241-5102,CA,8141 De Palma Street,8141 De Palma St.,Downey,90241-5102,CA,(562) 869-7306,No Data,No Data,07/01/1980,No Data,N,No Data,No Data,54,Unified School District,66,High Schools (Public),TRAD,Traditional,HS,High School,9-12,9-12,N,N,33.934857,-118.14068999999999,Laura,Rivas,lrivas@dusd.net,No Data,No Data,No Data,No Data,No Data,No Data,07/02/2018,1939164
19644690128736,611520,13697,Active,Los Angeles,Duarte Unified,Opportunities for Learning - Duarte,806 Huntington Drive,806 Huntington Dr.,Monrovia,91016-3616,CA,"320 North Halstead Street, Suite 220","320 North Halstead St., Ste. 220",Pasadena,91107,CA,(626) 921-8200,No Data,www.emsofl.com,07/01/2013,No Data,Y,1599,Directly funded,54,Unified School District,66,High Schools (Public),TRAD,Traditional,HS,High School,7-12,7-12,N,N,34.140182,-118.0173,Steven,Lawrence,stevenlawrence@emsofl.com,No Data,No Data,No Data,No Data,No Data,No Data,08/08/2018,128736
19644690134858,611520,14083,Active,Los Angeles,Duarte Unified,California School of the Arts - San Gabriel Valley,1401 Highland Avenue,1401 Highland Ave.,Duarte,91010-2523,CA,1401 Highland Avenue,1401 Highland Ave.,Duarte,91010-2523,CA,(657) 321-4000,No Data,www.sgv.csarts.net,08/14/2017,No Data,Y,1838,Directly funded,54,Unified School District,66,High Schools (Public),TRAD,Traditional,HS,High School,9-12,9-11,N,N,34.136932,-117.96885,William,Wallace,william.wallace@sgv.csarts.net,No Data,No Data,No Data,No Data,No Data,No Data,09/06/2018,134858
19644691932482,611520,01284,Active,Los Angeles,Duarte Unified,Duarte High,1565 East Central Avenue,1565 East Central Ave.,Duarte,91010-2505,CA,1620 Huntington Drive,1620 Huntington Dr.,Duarte,91010,CA,(626) 599-5700,No Data,No Data,09/09/1958,No Data,N,No Data,No Data,54,Unified School District,66,High Schools (Public),TRAD,Traditional,HS,High School,9-12,9-12,C,N,34.136066,-117.97128000000001,Luis,Haro,lharo@duarteusd.org,No Data,No Data,No Data,No Data,No Data,No Data,07/24/2018,1932482
19645191930320,612120,01363,Active,Los Angeles,El Monte Union High,Arroyo High,4921 North Cedar Avenue,4921 North Cedar Ave.,El Monte,91732-1099,CA,4921 North Cedar Avenue,4921 North Cedar Ave.,El Monte,91732-1099,CA,(626) 444-9201,No Data,www.emuhsd.org/ahs,07/01/1980,No Data,N,No Data,No Data,56,High School District,66,High Schools (Public),TRAD,Traditional,HS,High School,9-12,9-12,N,N,34.093681,-118.02058999999998,Angelita,Gonzales-Hernandez,angelita.gonzales@emuhsd.org,No Data,No Data,No Data,No Data,No Data,No Data,03/02/2018,1930320
19645191932664,612120,01364,Active,Los Angeles,El Monte Union High,El Monte High,3048 North Tyler Avenue,3048 North Tyler Ave.,El Monte,91731-3365,CA,3048 North Tyler Avenue,3048 North Tyler Ave.,El Monte,91731-3365,CA,(626) 444-7701,No Data,www.emuhsd.org/emhs,07/01/1980,No Data,N,No Data,No Data,56,High School District,66,High Schools (Public),TRAD,Traditional,HS,High School,9-12,9-12,N,N,34.064316,-118.03583,Robin,Torres,robin.torres@emuhsd.org,No Data,No Data,No Data,No Data,No Data,No Data,03/02/2018,1932664
19645191932680,612120,01365,Active,Los Angeles,El Monte Union High,Mountain View High,2900 Parkway Drive,2900 Pkwy. Dr.,El Monte,91732-3695,CA,2900 Parkway Drive,2900 Pkwy. Dr.,El Monte,91732-3695,CA,(626) 443-6181,No Data,www.emuhsd.org/mvhs,07/01/1980,No Data,N,No Data,No Data,56,High School District,66,High Schools (Public),TRAD,Traditional,HS,High School,9-12,9-12,N,N,34.053827000000005,-118.0107,Jose,Marquez,jose.marquez@emuhsd.org,No Data,No Data,No Data,No Data,No Data,No Data,03/02/2018,1932680
19645191937481,612120,01366,Active,Los Angeles,El Monte Union High,Rosemead High,9063 East Mission Drive,9063 East Mission Dr.,Rosemead,91770-4411,CA,9063 East Mission Drive,9063 East Mission Dr.,Rosemead,91770-4411,CA,(626) 286-3141,No Data,www.emuhsd.org/rhs,07/01/1980,No Data,N,No Data,No Data,56,High School District,66,High Schools (Public),TRAD,Traditional,HS,High School,9-12,9-12,N,N,34.083794,-118.07156,Brian,Bristol,brian.bristol@emuhsd.org,No Data,No Data,No Data,No Data,No Data,No Data,03/02/2018,1937481
19645191995661,612120,00439,Active,Los Angeles,El Monte Union High,South El Monte High,1001 Durfee Avenue,1001 Durfee Ave.,South El Monte,91733-4409,CA,1001 Durfee Avenue,1001 Durfee Ave.,South El Monte,91733-4409,CA,(626) 258-5600,No Data,www.emuhsd.org/semhs,09/08/1992,No Data,N,No Data,No Data,56,High School District,66,High Schools (Public),TRAD,Traditional,HS,High School,9-12,9-12,N,N,34.035173,-118.0451,Amy,Avina,amy.avina@emuhsd.org,No Data,No Data,No Data,No Data,No Data,No Data,03/02/2018,1995661
19645270133835,612180,13988,Active,Los Angeles,El Rancho Unified,Ellen Ochoa Prep Academy,8110 Paramount Boulevard,8110 Paramount Blvd.,Pico Rivera,90660-4814,CA,8110 Paramount Boulevard,8110 Paramount Blvd.,Pico Rivera,90660-4814,CA,(562) 801-7560,No Data,www.erusd.org,08/17/2016,No Data,N,No Data,No Data,54,Unified School District,66,High Schools (Public),TRAD,Traditional,HS,High School,9-12,9-10,N,Y,33.969865000000006,-118.11276000000001,Kendall,Goyenaga,kgoyenaga@erusd.org,No Data,No Data,No Data,No Data,No Data,No Data,08/15/2018,133835
19645271932706,612180,01372,Active,Los Angeles,El Rancho Unified,El Rancho High,6501 South Passons Boulevard,6501 South Passons Blvd.,Pico Rivera,90660-3373,CA,6501 South Passons Boulevard,6501 South Passons Blvd.,Pico Rivera,90660-3373,CA,(562) 801-7500,No Data,www.erusd.org,07/01/1980,No Data,N,No Data,No Data,54,Unified School District,66,High Schools (Public),TRAD,Traditional,HS,High School,9-12,9-12,C,N,33.984147,-118.08696,Hector,Vasquez,hectorvasquez@erusd.org,No Data,No Data,No Data,No Data,No Data,No Data,03/02/2018,1932706
19645351932763,612210,01388,Active,Los Angeles,El Segundo Unified,El Segundo High,640 Main Street,640 Main St.,El Segundo,90245-3057,CA,641 Sheldon Street,641 Sheldon St.,El Segundo,90245,CA,(310) 615-2661,No Data,No Data,07/01/1980,No Data,N,No Data,No Data,54,Unified School District,66,High Schools (Public),TRAD,Traditional,HS,High School,9-12,9-12,N,N,33.924213,-118.41588,Jennifer,Hawn,jhawn@esusd.k12.ca.us,No Data,No Data,No Data,No Data,No Data,No Data,08/15/2018,1932763
19645681932144,615240,01923,Active,Los Angeles,Glendale Unified,Crescenta Valley High,2900 Community Avenue,2900 Community Ave.,La Crescenta,91214-3471,CA,2900 Community Avenue,2900 Community Ave.,La Crescenta,91214-3471,CA,(818) 249-5871,No Data,No Data,07/01/1980,No Data,N,No Data,No Data,54,Unified School District,66,High Schools (Public),TRAD,Traditional,HS,High School,9-12,9-12,N,N,34.223671,-118.2422,Linda,Junge,ljunge@gusd.net,No Data,No Data,No Data,No Data,No Data,No Data,06/18/2015,1932144
19645681933530,615240,01931,Active,Los Angeles,Glendale Unified,Glendale High,1440 East Broadway,1440 East Broadway,Glendale,91205-1503,CA,1440 East Broadway,1440 East Broadway,Glendale,91205-1503,CA,(818) 242-3161,No Data,No Data,07/01/1980,No Data,N,No Data,No Data,54,Unified School District,66,High Schools (Public),TRAD,Traditional,HS,High School,9-12,9-12,N,N,34.146175,-118.23258999999999,Benjamin,Wolf,bwolf@gusd.net,No Data,No Data,No Data,No Data,No Data,No Data,10/05/2016,1933530
19645681934082,615240,01933,Active,Los Angeles,Glendale Unified,Herbert Hoover High,651 Glenwood Road,651 Glenwood Rd.,Glendale,91202-1552,CA,651 Glenwood Road,651 Glenwood Rd.,Glendale,91202-1552,CA,(818) 242-6801,No Data,No Data,07/01/1980,No Data,N,No Data,No Data,54,Unified School District,66,High Schools (Public),TRAD,Traditional,HS,High School,9-12,9-12,N,N,34.165339,-118.27045,Jennifer,Earl,jearl@gusd.net,No Data,No Data,No Data,No Data,No Data,No Data,06/18/2015,1934082
19645681996131,615240,07518,Active,Los Angeles,Glendale Unified,Anderson W. Clark Magnet High,4747 New York Avenue,4747 New York Ave.,La Crescenta,91214-1841,CA,4747 New York Avenue,4747 New York Ave.,La Crescenta,91214-1841,CA,(818) 248-8324,No Data,No Data,09/08/1998,No Data,N,No Data,No Data,54,Unified School District,66,High Schools (Public),TRAD,Traditional,HS,High School,9-12,9-12,N,Y,34.236926000000004,-118.25305,Lena,Kortoshian,lkortoshian@gusd.net,No Data,No Data,No Data,No Data,No Data,No Data,10/05/2016,1996131
19645761933597,615270,01953,Active,Los Angeles,Glendora Unified,Glendora High,1600 East Foothill Boulevard,1600 East Foothill Blvd.,Glendora,91741-3024,CA,1600 East Foothill Boulevard,1600 East Foothill Blvd.,Glendora,91741-3024,CA,(626) 963-5731,No Data,www.glendora.k12.ca.us/,07/01/1980,No Data,N,No Data,No Data,54,Unified School District,66,High Schools (Public),TRAD,Traditional,HS,High School,9-12,9-12,C,N,34.136125,-117.83549,Paul,Lopez,plopez@glendora.k12.ca.us,No Data,No Data,No Data,No Data,No Data,No Data,01/19/2017,1933597
19646341934231,618390,02254,Active,Los Angeles,Inglewood Unified,Inglewood High,231 South Grevillea Avenue,231 South Grevillea Ave.,Inglewood,90301-2323,CA,231 South Grevillea Avenue,231 South Grevillea Ave.,Inglewood,90301-2323,CA,(310) 680-5200,No Data,http://inglewood.iusd.net/,07/01/1980,No Data,N,No Data,No Data,54,Unified School District,66,High Schools (Public),TRAD,Traditional,HS,High School,9-12,9-12,N,N,33.961275,-118.35507,Debbie,Tate,dtate@inglewood.k12.ca.us,Oscar,Rodriguez,oscar.rodriguez@inglewood.k12.ca.us,Kimberly,Kirkwood,kkirkwood@inglewood.k12.ca.us,01/14/2019,1934231
19646341936046,618390,02260,Active,Los Angeles,Inglewood Unified,Morningside High,10500 South Yukon Avenue,10500 South Yukon Ave.,Inglewood,90303-2003,CA,10500 South Yukon Avenue,10500 South Yukon Ave.,Inglewood,90303-2003,CA,(310) 680-5230,No Data,http://morningside.iusd.net/,07/01/1980,No Data,N,No Data,No Data,54,Unified School District,66,High Schools (Public),TRAD,Traditional,HS,High School,9-12,9-12,N,N,33.940768,-118.33511000000001,Traci,Gholar,traci.gholar@inglewood.k12.ca.us,Wendy,Chaves,wendy.chaves@inglewood.k12.ca.us,Jevon,Davis,jdavis@inglewood.k12.ca.us,01/14/2019,1936046
19646341996529,618390,08716,Active,Los Angeles,Inglewood Unified,City Honors College Preparatory Academy,120 West Regent Street,120 West Regent St.,Inglewood,90301-1225,CA,120 West Regent Street,120 West Regent St.,Inglewood,90301-1225,CA,(310) 680-4880,No Data,http://cityhonors.myiusd.net/,08/27/2001,No Data,N,1242,Locally funded,54,Unified School District,66,High Schools (Public),TRAD,Traditional,HS,High School,9-12,9-12,N,N,33.963561,-118.35618000000001,Marsha,Haskins,marcia.haskins@inglewood.k12.ca.us,No Data,No Data,No Data,No Data,No Data,No Data,01/14/2019,1996529
19646341996586,618390,10538,Active,Los Angeles,Inglewood Unified,Animo Inglewood Charter High,3425 West Manchester Boulevard,3425 West Manchester Blvd.,Inglewood,90305-2101,CA,"1149 South Hill Street, Suite 600","1149 South Hill St., Ste. 600",Los Angeles,90015,CA,(323) 565-2100,No Data,www.greendot.org/inglewood,08/26/2002,No Data,Y,0432,Directly funded,54,Unified School District,66,High Schools (Public),TRAD,Traditional,HS,High School,9-12,9-12,N,N,33.960029,-118.33138000000001,Sue Jean,Hong,shong@animo.org,No Data,No Data,No Data,No Data,No Data,No Data,11/14/2016,1996586
19646591934611,620130,02408,Active,Los Angeles,La Canada Unified,La Canada High,4463 Oak Grove Drive,4463 Oak Grove Dr.,La Canada,91011-3738,CA,4463 Oak Grove Drive,4463 Oak Grove Dr.,La Canada,91011-3738,CA,(818) 952-4205,No Data,www.lchsspartans.net/,07/01/1980,No Data,N,No Data,No Data,54,Unified School District,66,High Schools (Public),TRAD,Traditional,HS,High School,7-12,7-12,C,N,34.18809,-118.179,Jarrett,Gold,jgold@lcusd.net,Jim,Cartnal,jcartnal@lcusd.net,No Data,No Data,No Data,01/08/2019,1934611
19646831930080,621000,02518,Active,Los Angeles,Las Virgenes Unified,Agoura High,28545 West Driver Avenue,28545 West Driver Ave.,Agoura,91301-3335,CA,28545 West Driver Avenue,28545 West Driver Ave.,Agoura,91301-3335,CA,(818) 889-1262,No Data,www.agourahighschool.net,07/01/1980,No Data,N,No Data,No Data,54,Unified School District,66,High Schools (Public),TRAD,Traditional,HS,High School,9-12,9-12,C,N,34.15104,-118.74948,Stephanie,McClay,smcclay@lvusd.org,No Data,No Data,No Data,No Data,No Data,No Data,08/16/2018,1930080
19646831931781,621000,02519,Active,Los Angeles,Las Virgenes Unified,Calabasas High,22855 West Mulholland Highway,22855 West Mulholland Hwy.,Calabasas,91302-2047,CA,22855 West Mulholland Highway,22855 West Mulholland Hwy.,Calabasas,91302-2047,CA,(818) 222-7177,No Data,www.calabasashigh.net,07/01/1980,No Data,N,No Data,No Data,54,Unified School District,66,High Schools (Public),TRAD,Traditional,HS,High School,9-12,9-12,C,N,34.138162,-118.62343,C.,Foss,cfoss@lvusd.org,No Data,No Data,No Data,No Data,No Data,No Data,07/10/2017,1931781
19647250127381,622500,13105,Active,Los Angeles,Long Beach Unified,"Ernest S. McBride, Sr. High",7025 East Parkcrest Street,7025 East Parkcrest St.,Long Beach,90808-2319,CA,7025 East Parkcrest Street,7025 East Parkcrest St.,Long Beach,90808-2319,CA,(562) 425-3539,No Data,No Data,09/01/2013,No Data,N,No Data,No Data,54,Unified School District,66,High Schools (Public),TRAD,Traditional,HS,High School,9-12,9-12,N,Y,33.829473,-118.09678000000001,Steven,Rockenbach,srockenbach@lbschools.net,No Data,No Data,No Data,No Data,No Data,No Data,06/18/2015,127381
19647250131938,622500,13860,Active,Los Angeles,Long Beach Unified,Clear Passage Educational Center,1471 Martin Luther King Junior Avenue,1471 Martin Luther King Jr. Ave.,Long Beach,90813-2162,CA,"4401 Atlantic Avenue, Ste 200","4401 Atlantic Ave., Ste 200",Long Beach,90807-2202,CA,(888) 502-1116,No Data,www.cpecschool.org,09/09/2015,No Data,Y,1682,Directly funded,54,Unified School District,66,High Schools (Public),TRAD,Traditional,HS,High School,9-12,10-12,C,N,33.784521999999996,-118.18093999999999,Vivianna,Trujillo,vtrujillo@cpecschool.org,No Data,No Data,No Data,No Data,No Data,No Data,12/05/2016,131938
19647250132324,622500,13896,Active,Los Angeles,Long Beach Unified,Eunice Sato Academy of Math & Science,1100 Iroquois Avenue,1100 Iroquois Ave.,Long Beach,90815-4649,CA,1100 Iroquois Avenue,1100 Iroquois Ave.,Long Beach,90815-4649,CA,(562) 598-7611,No Data,No Data,08/18/2015,No Data,N,No Data,No Data,54,Unified School District,66,High Schools (Public),TRAD,Traditional,HS,High School,9-12,9-11,N,N,33.780885,-118.10513,Mona,Merlo,mmerlo@lbschools.net,No Data,No Data,No Data,No Data,No Data,No Data,02/11/2016,132324
19647250135525,622500,14120,Active,Los Angeles,Long Beach Unified,Richard D. Browning High,2120 Obispo Avenue,2120 Obispo Ave.,Long Beach,90804,CA,2120 Obispo Avenue,2120 Obispo Ave.,Long Beach,90804,CA,(562) 997-1700,No Data,No Data,08/29/2017,No Data,N,No Data,No Data,54,Unified School District,66,High Schools (Public),TRAD,Traditional,HS,High School,9-12,9,N,N,33.795479,-118.15456999999999,Felicia,Anderson,fanderson@lbschools.net,No Data,No Data,No Data,No Data,No Data,No Data,11/26/2018,135525
19647251930411,622500,07299,Active,Los Angeles,Long Beach Unified,Avalon K-12,200 Falls Canyon Road,200 Falls Canyon Rd.,Santa Catalina,90704-0557,CA,PO Box 557,PO Box 557,Avalon,90704-0557,CA,(310) 510-0790,No Data,No Data,07/01/1980,No Data,N,No Data,No Data,54,Unified School District,65,K-12 Schools (Public),TRAD,Traditional,ELEMHIGH,Elementary-High Combination,K-12,K-12,N,N,33.338840000000005,-118.33255,Christopher,Lounsbery,clounsbery@lbschools.net,No Data,No Data,No Data,No Data,No Data,No Data,07/25/2016,1930411
19647251934470,622500,02728,Active,Los Angeles,Long Beach Unified,Jordan High,6500 Atlantic Avenue,6500 Atlantic Ave.,Long Beach,90805-2304,CA,6500 Atlantic Avenue,6500 Atlantic Ave.,Long Beach,90805-2304,CA,(562) 423-1471,No Data,No Data,07/01/1980,No Data,N,No Data,No Data,54,Unified School District,66,High Schools (Public),TRAD,Traditional,HS,High School,9-12,9-12,N,Y,33.872496999999996,-118.18592,Veronica,Coleman,vcoleman@lbschools.net,No Data,No Data,No Data,No Data,No Data,No Data,07/01/2015,1934470
19647251934678,622500,02733,Active,Los Angeles,Long Beach Unified,Lakewood High,4400 Briercrest Avenue,4400 Briercrest Ave.,Lakewood,90713-2512,CA,4400 Briercrest Avenue,4400 Briercrest Ave.,Lakewood,90713-2512,CA,(562) 425-1281,No Data,No Data,07/01/1980,No Data,N,No Data,No Data,54,Unified School District,66,High Schools (Public),TRAD,Traditional,HS,High School,9-12,9-12,N,Y,33.8379,-118.12318,Shawn,Abbate,sabbate@lbschools.net,Mario,Jimenez,majimenez@lbschools.net,No Data,No Data,No Data,07/01/2015,1934678
19647251935758,622500,02745,Active,Los Angeles,Long Beach Unified,Millikan High,2800 Snowden Avenue,2800 Snowden Ave.,Long Beach,90815-1436,CA,2800 Snowden Avenue,2800 Snowden Ave.,Long Beach,90815-1436,CA,(562) 425-7441,No Data,No Data,09/01/1956,No Data,N,No Data,No Data,54,Unified School District,66,High Schools (Public),TRAD,Traditional,HS,High School,9-12,9-12,N,Y,33.807320000000004,-118.1117,Michael,Navia,mnavia@lbschools.net,Alejandro,Vega,avega@lbschools.net,No Data,No Data,No Data,03/21/2016,1935758
19647251936947,622500,02751,Active,Los Angeles,Long Beach Unified,Polytechnic High,1600 Atlantic Avenue,1600 Atlantic Ave.,Long Beach,90813-2017,CA,1600 Atlantic Avenue,1600 Atlantic Ave.,Long Beach,90813-2017,CA,(562) 591-0581,No Data,No Data,07/01/1980,No Data,N,No Data,No Data,54,Unified School District,66,High Schools (Public),TRAD,Traditional,HS,High School,9-12,9-12,N,Y,33.787163,-118.18496,Quentin,Brown,qbrown@lbschools.net,William,Salas,wsalas@lbschools.net,No Data,No Data,No Data,07/20/2017,1936947
19647251939875,622500,02769,Active,Los Angeles,Long Beach Unified,Wilson High,4400 East Tenth Street,4400 East Tenth St.,Long Beach,90804-4310,CA,4400 East Tenth Street,4400 East Tenth St.,Long Beach,90804-4310,CA,(562) 433-0481,No Data,No Data,07/01/1980,No Data,N,No Data,No Data,54,Unified School District,66,High Schools (Public),TRAD,Traditional,HS,High School,9-12,9-12,N,Y,33.778903,-118.14152,Sandy,Blazer,sblazer@lbschools.net,Gonzalo,Moraga,gmoraga@lbschools.net,No Data,No Data,No Data,06/18/2015,1939875
19647251995539,622500,09901,Active,Los Angeles,Long Beach Unified,California Academy of Mathematics and Science,"1000 East Victoria Street, Building SAC3 rm3117","1000 East Victoria St., Bldg. SAC3 rm3117",Carson,90747-0001,CA,"1000 East Victoria Street, Building SAC3 rm3117","1000 East Victoria St., Bldg. SAC3 rm3117",Carson,90747-0001,CA,(310) 243-2025,No Data,No Data,07/20/1990,No Data,N,No Data,No Data,54,Unified School District,66,High Schools (Public),TRAD,Traditional,HS,High School,9-12,9-12,N,Y,33.867102,-118.25868999999999,Wendy,Poffenberger,wpoffenberger@lbschools.net,No Data,No Data,No Data,No Data,No Data,No Data,07/28/2016,1995539
19647251995935,622500,05870,Active,Los Angeles,Long Beach Unified,Cabrillo High,2001 Santa Fe Avenue,2001 Santa Fe Ave.,Long Beach,90810-4068,CA,2001 Santa Fe Avenue,2001 Santa Fe Ave.,Long Beach,90810-4068,CA,(562) 951-7700,No Data,No Data,09/03/1996,No Data,N,No Data,No Data,54,Unified School District,66,High Schools (Public),TRAD,Traditional,HS,High School,9-12,9-12,N,Y,33.793514,-118.21558999999999,Cheryl,Cornejo,ccornejo@lbschools.net,No Data,No Data,No Data,No Data,No Data,No Data,05/23/2018,1995935
19647330100677,622710,10829,Active,Los Angeles,Los Angeles Unified,High Tech LA,17111 Victory Boulevard,17111 Victory Blvd.,Lake Balboa,91406-5455,CA,17111 Victory Boulevard,17111 Victory Blvd.,Lake Balboa,91406-5455,CA,(818) 609-2640,No Data,http://ht-la.org,09/04/2003,No Data,Y,0537,Directly funded,54,Unified School District,66,High Schools (Public),TRAD,Traditional,HS,High School,9-12,9-12,C,N,34.187307000000004,-118.50588,Mathew,McClenahan,mr.mcclenahan@ht-la.org,No Data,No Data,No Data,No Data,No Data,No Data,11/02/2017,100677
19647330100750,622710,11365,Active,Los Angeles,Los Angeles Unified,Wallis Annenberg High,4000 South Main Street,4000 South Main St.,Los Angeles,90037-1022,CA,4000 South Main Street,4000 South Main St.,Los Angeles,90037-1022,CA,(323) 235-6343,119,http://accelerated.org,09/15/2003,No Data,Y,0538,Directly funded,54,Unified School District,66,High Schools (Public),TRAD,Traditional,HS,High School,9-12,9-12,N,N,34.010434000000004,-118.27393000000001,Rebecca,Handzel,rhandzel@accelerated.org,No Data,No Data,No Data,No Data,No Data,No Data,07/20/2018,100750
19647330100800,622710,11337,Active,Los Angeles,Los Angeles Unified,Central City Value,221 North Westmoreland Avenue,221 North Westmoreland Ave.,Los Angeles,90004-4815,CA,221 North Westmoreland Avenue,221 North Westmoreland Ave.,Los Angeles,90004-4815,CA,(213) 471-4686,No Data,http://valueschools.com,09/22/2003,No Data,Y,0534,Directly funded,54,Unified School District,66,High Schools (Public),TRAD,Traditional,HS,High School,9-12,9-12,N,N,34.074782,-118.2879,Joaquin,Arroyo,jarroyo@valueschools.com,No Data,No Data,No Data,No Data,No Data,No Data,02/13/2018,100800
19647330101196,622710,11358,Active,Los Angeles,Los Angeles Unified,ICEF View Park Preparatory High,5701 South Crenshaw Boulevard,5701 South Crenshaw Blvd.,Los Angeles,90043-2409,CA,3855 West Slauson Avenue,3855 West Slauson Ave.,Los Angeles,90043,CA,(323) 290-6975,No Data,http://icefps.org,09/08/2003,No Data,Y,0543,Directly funded,54,Unified School District,66,High Schools (Public),TRAD,Traditional,HS,High School,9-12,9-12,C,N,33.98972,-118.33107,Charles,Lemle,clemle@icefps.org,No Data,No Data,No Data,No Data,No Data,No Data,11/14/2018,101196
19647330101659,622710,11312,Active,Los Angeles,Los Angeles Unified,"CATCH Prep Charter High, Inc.",4120 11th Avenue,4120 11th Ave.,Los Angeles,90008-3712,CA,PO Box 561752,PO Box 561752,Los Angeles,90023,CA,(323) 293-3917,No Data,http://catchhighschool.com,09/02/2003,No Data,Y,0570,Directly funded,54,Unified School District,66,High Schools (Public),TRAD,Traditional,HS,High School,9-12,9-12,N,N,34.009559,-118.3295,Patricia,Smith,catchcharter@sbcglobal.net,No Data,No Data,No Data,No Data,No Data,No Data,01/25/2018,101659
19647330101675,622710,11313,Active,Los Angeles,Los Angeles Unified,Oscar De La Hoya Animo Charter High,1114 South Lorena Street,1114 South Lorena St.,Los Angeles,90023-2915,CA,"1149 S. Hill Street, Suite 600","1149 S. Hill Street, Ste. 600",Los Angeles,90015,CA,(323) 780-1259,No Data,http://greendot.org/delahoya,08/25/2003,No Data,Y,0581,Directly funded,54,Unified School District,66,High Schools (Public),TRAD,Traditional,HS,High School,9-12,9-12,N,N,34.023419,-118.2037,Kathya,Arriaran-Buono,kathya.arriaranbuono@animo.org,No Data,No Data,No Data,No Data,No Data,No Data,11/14/2017,101675
19647330102541,622710,10840,Active,Los Angeles,Los Angeles Unified,New Designs Charter,2303 South Figueroa Way,2303 South Figueroa Way,Los Angeles,90007-2504,CA,2303 South Figueroa Way,2303 South Figueroa Way,Los Angeles,90007-2504,CA,(213) 765-9084,No Data,http://newdesignscharter.com,09/01/2004,No Data,Y,0601,Directly funded,54,Unified School District,65,K-12 Schools (Public),TRAD,Traditional,ELEMHIGH,Elementary-High Combination,6-12,6-12,N,N,34.030857,-118.27493999999999,Stephen,Gyesaw,stephen.gyesaw@newdesignscharter.net,No Data,No Data,No Data,No Data,No Data,No Data,10/07/2016,102541
19647330102913,622710,10843,Active,Los Angeles,Los Angeles Unified,Middle College High,"1600 West Imperial Hwy, Building 16","1600 West Imperial Hwy, Bldg. 16",Los Angeles,90047-4810,CA,"1600 West Imperial Hwy, Building 16","1600 West Imperial Hwy, Bldg. 16",Los Angeles,90047-4810,CA,(323) 418-4700,No Data,No Data,01/28/2004,No Data,N,No Data,No Data,54,Unified School District,66,High Schools (Public),TRAD,Traditional,HS,High School,9-12,9-12,C,N,33.929466,-118.24622,Betty,Washington,bwash1@lausd.net,No Data,No Data,No Data,No Data,No Data,No Data,12/07/2016,102913
19647330102921,622710,10844,Active,Los Angeles,Los Angeles Unified,Dr. Richard A. Vladovic Harbor Teacher Preparation Academy,1111 Figueroa Place,1111 Figueroa Pl.,Wilmington,90744-2311,CA,1111 Figueroa Place,1111 Figueroa Pl.,Wilmington,90744-2311,CA,(310) 834-3932,No Data,www.lausd.k12.ca.us/harbor_teacher_prep_hs,01/28/2004,No Data,N,No Data,No Data,54,Unified School District,66,High Schools (Public),TRAD,Traditional,HS,High School,9-12,9-12,C,N,33.783613,-118.28126,Jan,Murata,jmurata@lausd.net,No Data,No Data,No Data,No Data,No Data,No Data,06/26/2018,102921
19647330106435,622710,10847,Active,Los Angeles,Los Angeles Unified,Camino Nuevo Charter High,1215 West Miramar Street,1215 West Miramar St.,Los Angeles,90026-6115,CA,1215 West Miramar Street,1215 West Miramar St.,Los Angeles,90026-6115,CA,(213) 240-8700,No Data,http://miramar.caminonuevo.org,09/01/2004,No Data,Y,0635,Directly funded,54,Unified School District,66,High Schools (Public),TRAD,Traditional,HS,High School,9-12,9-12,N,N,34.057982,-118.25793,Marisol,Pineda Conde,marisol.pinedaconde@caminonuevo.org,No Data,No Data,No Data,No Data,No Data,No Data,09/29/2016,106435
19647330106831,622710,10848,Active,Los Angeles,Los Angeles Unified,Animo Venice Charter High,820 Broadway Street,820 Broadway St.,Venice,90291-3408,CA,"1149 South Hill Street, Suite 600","1149 South Hill St., Ste. 600",Los Angeles,90015,CA,(310) 392-8751,No Data,http://greendot.org/venice,09/01/2004,No Data,Y,0648,Directly funded,54,Unified School District,66,High Schools (Public),TRAD,Traditional,HS,High School,9-12,9-12,N,N,33.997083,-118.46356999999999,Julio,Murcia,julio.murcia@animo.org,No Data,No Data,No Data,No Data,No Data,No Data,07/23/2018,106831
19647330106849,622710,10849,Active,Los Angeles,Los Angeles Unified,Animo Pat Brown,8255 Beach Street,8255 Beach St.,Los Angeles,90001-4014,CA,"1149 S. Hill Street, Suite 600","1149 S. Hill Street, Ste. 600",Los Angeles,90015,CA,(323) 585-3312,No Data,http://greendot.org/patbrown,09/05/2006,No Data,Y,0649,Directly funded,54,Unified School District,66,High Schools (Public),TRAD,Traditional,HS,High School,9-12,9-12,N,N,33.963087,-118.24216000000001,Brian,Thomas-Reed,brian.thomas-reed@animo.org,No Data,No Data,No Data,No Data,No Data,No Data,09/07/2016,106849
19647330106864,622710,10851,Active,Los Angeles,Los Angeles Unified,Alliance Gertz-Ressler Richard Merkin 6-12 Complex,2023 South Union Avenue,2023 South Union Ave.,Los Angeles,90007-1326,CA,"601 South Figueroa Street, 4th Floor","601 South Figueroa St., 4th Fl.",Los Angeles,90017,CA,(213) 745-8141,No Data,http://gertzresslerhigh.org,09/13/2004,No Data,Y,0645,Directly funded,54,Unified School District,65,K-12 Schools (Public),TRAD,Traditional,ELEMHIGH,Elementary-High Combination,6-12,6-12,N,N,34.036313,-118.28256,Stephanie,Tsai,stsai@laalliance.org,No Data,No Data,No Data,No Data,No Data,No Data,02/07/2017,106864
19647330107003,622710,10862,Active,Los Angeles,Los Angeles Unified,Northridge Academy High,9601 Zelzah Avenue,9601 Zelzah Ave.,Northridge,91325-2010,CA,9601 Zelzah Avenue,9601 Zelzah Ave.,Northridge,91325-2010,CA,(818) 700-2222,No Data,www.lausd.net/Northridge_Academy_HS,09/09/2004,No Data,N,No Data,No Data,54,Unified School District,66,High Schools (Public),TRAD,Traditional,HS,High School,9-12,9-12,C,N,34.24499,-118.52333,Nidia,Castro,ncalles@lausd.net,No Data,No Data,No Data,No Data,No Data,No Data,10/30/2017,107003
19647330107011,622710,10863,Active,Los Angeles,Los Angeles Unified,International Studies Learning Center at Legacy High School Complex,5225 Tweedy Boulevard,5225 Tweedy Blvd.,South Gate,90280-5332,CA,5225 Tweedy Boulevard,5225 Tweedy Blvd.,South Gate,90280-5332,CA,(323) 357-7521,No Data,www.islc-lausd-ca.schoolloop.com/,09/09/2004,No Data,N,No Data,No Data,54,Unified School District,65,K-12 Schools (Public),TRAD,Traditional,ELEMHIGH,Elementary-High Combination,6-12,6-12,N,N,33.941328000000006,-118.17894,David,Manzo,david.manzo@lausd.net,No Data,No Data,No Data,No Data,No Data,No Data,10/30/2017,107011
19647330107755,622710,10864,Active,Los Angeles,Los Angeles Unified,Port of Los Angeles High,250 West Fifth Street,250 West Fifth St.,San Pedro,90731-3304,CA,250 West Fifth Street,250 West Fifth St.,San Pedro,90731-3304,CA,(310) 832-9201,No Data,http://polahs.net,09/06/2005,No Data,Y,0542,Directly funded,54,Unified School District,66,High Schools (Public),TRAD,Traditional,HS,High School,9-12,9-12,N,N,33.740128000000006,-118.28187,George,Mora,gmora@polahs.net,No Data,No Data,No Data,No Data,No Data,No Data,07/02/2018,107755
19647330108878,622710,10865,Active,Los Angeles,Los Angeles Unified,CHAMPS - Charter HS of Arts-Multimedia & Performing,6842 Van Nuys Boulevard,6842 Van Nuys Blvd.,Van Nuys,91405-3984,CA,6842 Van Nuys Boulevard,6842 Van Nuys Blvd.,Van Nuys,91405-3984,CA,(818) 994-7614,No Data,http://champscharter.org,09/12/2005,No Data,Y,0712,Directly funded,54,Unified School District,66,High Schools (Public),TRAD,Traditional,HS,High School,9-12,9-12,N,N,34.195128000000004,-118.44752,Linda,Pierce,lpierce@champscharter.org,No Data,No Data,No Data,No Data,No Data,No Data,07/26/2017,108878
19647330108894,622710,10867,Active,Los Angeles,Los Angeles Unified,Alliance Judy Ivie Burton Technology Academy High,10101 South Broadway,10101 South Broadway,Los Angeles,90003-4534,CA,"601 South Figueroa Street, 4th Floor","601 South Figueroa St., 4th Fl.",Los Angeles,90017,CA,(323) 920-6125,No Data,http://burtontechnology.org,08/29/2005,No Data,Y,0714,Directly funded,54,Unified School District,66,High Schools (Public),TRAD,Traditional,HS,High School,9-12,9-12,N,N,33.944203,-118.27848999999999,Rogelio,Sanchez,rsanchez@laalliance.org,No Data,No Data,No Data,No Data,No Data,No Data,09/22/2016,108894
19647330108936,622710,10871,Active,Los Angeles,Los Angeles Unified,Alliance Collins Family College-Ready High,2071 Saturn Avenue,2071 Saturn Ave.,Huntington Park,90255-3635,CA,"601 South Figueroa Street, 4th Floor","601 South Figueroa St., 4th Fl.",Los Angeles,90017,CA,(323) 923-1588,No Data,http://collinsfamilyjaguars.org,08/29/2005,No Data,Y,0718,Directly funded,54,Unified School District,66,High Schools (Public),TRAD,Traditional,HS,High School,9-12,9-12,N,N,33.976919,-118.23413000000001,Robert,Delfino,rdelfino@laalliance.org,No Data,No Data,No Data,No Data,No Data,No Data,09/22/2016,108936
19647330109447,622710,11626,Active,Los Angeles,Los Angeles Unified,Santee Education Complex,1921 South Maple Avenue,1921 South Maple Ave.,Los Angeles,90011-1036,CA,1921 South Maple Avenue,1921 South Maple Ave.,Los Angeles,90011-1036,CA,(213) 763-1000,No Data,www.lausd.net/Santee_Ed_Complex,07/05/2005,No Data,N,No Data,No Data,54,Unified School District,66,High Schools (Public),TRAD,Traditional,HS,High School,9-12,9-12,C,N,34.028729,-118.26211,Susana,Gutierrez,susana.gutierrez@lausd.net,No Data,No Data,No Data,No Data,No Data,No Data,10/30/2017,109447
19647330109454,622710,10888,Active,Los Angeles,Los Angeles Unified,South East High,2720 Tweedy Boulevard,2720 Tweedy Blvd.,South Gate,90280-5539,CA,2720 Tweedy Boulevard,2720 Tweedy Blvd.,South Gate,90280-5539,CA,(323) 568-3400,No Data,www.southeast-lausd-ca.schoolloop.com,09/06/2005,No Data,N,No Data,No Data,54,Unified School District,66,High Schools (Public),TRAD,Traditional,HS,High School,9-12,9-12,C,Y,33.946064,-118.2233,Jesus,Nunez,jnunez1@lausd.net,No Data,No Data,No Data,No Data,No Data,No Data,10/30/2017,109454
19647330109462,622710,10889,Active,Los Angeles,Los Angeles Unified,Maywood Academy High,6125 Pine Avenue,6125 Pine Ave.,Maywood,90270-3110,CA,6125 Pine Avenue,6125 Pine Ave.,Maywood,90270-3110,CA,(323) 838-6000,No Data,www.lausd.net/maywood_academy_hs,09/06/2005,No Data,N,No Data,No Data,54,Unified School District,66,High Schools (Public),TRAD,Traditional,HS,High School,9-12,9-12,N,N,33.983115999999995,-118.18846,Daniel,Gettinger,daniel.gettinger@lausd.net,No Data,No Data,No Data,No Data,No Data,No Data,07/26/2018,109462
19647330110304,622710,11628,Active,Los Angeles,Los Angeles Unified,Los Angeles Academy of Arts and Enterprise,1200 West Colton Street,1200 West Colton St.,Los Angeles,90026-5816,CA,PO Box 26750,PO Box 26750,Los Angeles,90026,CA,(213) 487-0600,No Data,http://laaae.org,09/30/2005,No Data,Y,0675,Directly funded,54,Unified School District,65,K-12 Schools (Public),TRAD,Traditional,ELEMHIGH,Elementary-High Combination,6-12,6-12,N,N,34.062018,-118.25455,David,Calvo,dcalvo@laaae.org,No Data,No Data,No Data,No Data,No Data,No Data,08/23/2018,110304
19647330111484,622710,11631,Active,Los Angeles,Los Angeles Unified,New Village Girls Academy,147 North Occidental Boulevard,147 North Occidental Blvd.,Los Angeles,90026-4601,CA,147 North Occidental Boulevard,147 North Occidental Blvd.,Los Angeles,90026-4601,CA,(213) 385-4015,No Data,http://newvillagegirlsacademy.org,09/11/2006,No Data,Y,0791,Directly funded,54,Unified School District,66,High Schools (Public),TRAD,Traditional,HS,High School,9-12,9-12,C,N,34.071327000000004,-118.2791,Jennifer,Quinones,j.quinones@newvillagegirlsacademy.org,No Data,No Data,No Data,No Data,No Data,No Data,08/22/2018,111484
19647330111492,622710,11632,Active,Los Angeles,Los Angeles Unified,Alliance Patti And Peter Neuwirth Leadership Academy,4610 South Main Street,4610 South Main St.,Los Angeles,90037-2736,CA,"601 South Figueroa Street, 4th Floor","601 South Figueroa St., 4th Fl.",Los Angeles,90017,CA,(213) 342-2874,No Data,http://collegeready5.org,09/04/2007,No Data,Y,0789,Directly funded,54,Unified School District,66,High Schools (Public),TRAD,Traditional,HS,High School,9-12,9-12,N,N,34.001568,-118.27383,Candice,Dagnino,cdagnino@laalliance.org,No Data,No Data,No Data,No Data,No Data,No Data,07/23/2018,111492
19647330111500,622710,11633,Active,Los Angeles,Los Angeles Unified,Alliance Dr. Olga Mohan High,644 West 17th Street,644 West 17th St.,Los Angeles,90015-3400,CA,"601 S. Figueroa Street, 4th Floor","601 S. Figueroa St., 4th Fl.",Los Angeles,90007,CA,(213) 342-2870,No Data,http://mohanhs.org,09/18/2006,No Data,Y,0790,Directly funded,54,Unified School District,66,High Schools (Public),TRAD,Traditional,HS,High School,9-12,9-12,N,N,34.036590000000004,-118.27125,Loreen,Riley,lriley@laalliance.org,No Data,No Data,No Data,No Data,No Data,No Data,09/22/2016,111500
19647330111575,622710,11635,Active,Los Angeles,Los Angeles Unified,Animo Ralph Bunche Charter High,"1655 East 27th Street, Suite B","1655 East 27th St., Ste. B",Los Angeles,90011-2202,CA,"1149 S. Hill Street, Suite 600","1149 S. Hill Street, Ste. 600",Los Angeles,90015,CA,(323) 232-9436,No Data,http://greendot.org/ralphbunche,08/28/2006,No Data,Y,0781,Directly funded,54,Unified School District,66,High Schools (Public),TRAD,Traditional,HS,High School,9-12,9-12,N,N,34.012544,-118.24451,Ryan,McDonnell,ryan.mcdonnell@animo.org,No Data,No Data,No Data,No Data,No Data,No Data,10/15/2018,111575
19647330111583,622710,11636,Active,Los Angeles,Los Angeles Unified,Animo Jackie Robinson High,3500 South Hill Street,3500 South Hill St.,Los Angeles,90007-4333,CA,1149 South Hill Street,1149 South Hill St.,Los Angeles,90015,CA,(323) 846-5800,No Data,http://greendot.org/jackierobinson,08/28/2006,No Data,Y,0793,Directly funded,54,Unified School District,66,High Schools (Public),TRAD,Traditional,HS,High School,9-12,9-12,N,N,34.018395,-118.27561000000001,Kristine,Botello,kbotello@animo.org,No Data,No Data,No Data,No Data,No Data,No Data,09/07/2016,111583
19647330111625,622710,11640,Active,Los Angeles,Los Angeles Unified,Animo Watts College Preparatory Academy,12628 Avalon Boulevard,12628 Avalon Blvd.,Los Angeles,90061-2728,CA,"1149 S. Hill Street, Suite 600","1149 S. Hill Street, Ste. 600",Los Angeles,90015,CA,(323) 756-3930,No Data,http://greendot.org/watts,09/04/2007,No Data,Y,0783,Directly funded,54,Unified School District,66,High Schools (Public),TRAD,Traditional,HS,High School,9-12,9-12,N,N,33.917952,-118.26523999999999,Esther,Deth,esther.deth@animo.org,No Data,No Data,No Data,No Data,No Data,No Data,10/29/2018,111625
19647330111641,622710,11641,Active,Los Angeles,Los Angeles Unified,Alliance Ouchi-O'Donovan 6-12 Complex,5356 South Fifth Avenue,5356 South Fifth Ave.,Los Angeles,90043-2622,CA,"601 South Figueroa Street, 4th Floor","601 South Figueroa St., 4th Fl.",Los Angeles,90017,CA,(323) 596-2290,No Data,http://ouchihs.org,09/05/2006,No Data,Y,0784,Directly funded,54,Unified School District,65,K-12 Schools (Public),TRAD,Traditional,ELEMHIGH,Elementary-High Combination,6-12,6-12,N,N,33.993484,-118.32246,Dea,Tramble,dtramble@laalliance.org,No Data,No Data,No Data,No Data,No Data,No Data,09/22/2016,111641
19647330111658,622710,11642,Active,Los Angeles,Los Angeles Unified,Alliance Marc & Eva Stern Math and Science,"5151 State University Drive, Lot 2","5151 State University Dr., Lot 2",Los Angeles,90032-4226,CA,"601 South Figueroa Street, 4th Floor","601 South Figueroa St., 4th Fl.",Los Angeles,90017,CA,(323) 987-2144,No Data,http://sternmass.org,09/05/2006,No Data,Y,0788,Directly funded,54,Unified School District,66,High Schools (Public),TRAD,Traditional,HS,High School,9-12,9-12,N,N,34.062369,-118.1716,Kirsten,Woo,kwoo@laalliance.org,No Data,No Data,No Data,No Data,No Data,No Data,09/22/2016,111658
19647330112029,622710,11650,Active,Los Angeles,Los Angeles Unified,School of Business and Tourism at Contreras Learning Complex,322 Lucas Avenue,322 Lucas Ave.,Los Angeles,90017-1406,CA,322 Lucas Avenue,322 Lucas Ave.,Los Angeles,90017-1406,CA,(213) 240-3840,No Data,www.bt-lausd-ca.schoolloop.com/,09/05/2006,No Data,N,No Data,No Data,54,Unified School District,66,High Schools (Public),TRAD,Traditional,HS,High School,9-12,9-12,C,N,34.058064,-118.2617,Dalton,Cole,dcole1@lausd.net,No Data,No Data,No Data,No Data,No Data,No Data,09/06/2018,112029
19647330112037,622710,11651,Active,Los Angeles,Los Angeles Unified,East Valley Senior High,5525 Vineland Avenue,5525 Vineland Ave.,North Hollywood,91601-2730,CA,5525 Vineland Avenue,5525 Vineland Ave.,North Hollywood,91601-2730,CA,(818) 753-4400,No Data,www.eastvalleyhs.com.,10/03/2006,No Data,N,No Data,No Data,54,Unified School District,66,High Schools (Public),TRAD,Traditional,HS,High School,9-12,9-12,C,N,34.170559999999995,-118.37036,Lourdes,De Santiago Ramirez,lxd0217@lausd.net,No Data,No Data,No Data,No Data,No Data,No Data,10/30/2017,112037
19647330112045,622710,11652,Active,Los Angeles,Los Angeles Unified,Arleta High,14200 Van Nuys Boulevard,14200 Van Nuys Blvd.,Arleta,91331-5103,CA,14200 Van Nuys Boulevard,14200 Van Nuys Blvd.,Arleta,91331-5103,CA,(818) 686-4100,No Data,www.lausd.net/arlete_hs,10/03/2006,No Data,N,No Data,No Data,54,Unified School District,66,High Schools (Public),TRAD,Traditional,HS,High School,9-12,9-12,N,N,34.250962,-118.44273000000001,Jonathan,Hayes,jhayes@lausd.net,No Data,No Data,No Data,No Data,No Data,No Data,09/19/2018,112045
19647330112052,622710,11653,Active,Los Angeles,Los Angeles Unified,Panorama High,8015 Van Nuys Boulevard,8015 Van Nuys Blvd.,Panorama City,91402-6009,CA,8015 Van Nuys Boulevard,8015 Van Nuys Blvd.,Panorama City,91402-6009,CA,(818) 909-4500,No Data,www.lausd.net/panorama_hs,10/03/2006,No Data,N,No Data,No Data,54,Unified School District,66,High Schools (Public),TRAD,Traditional,HS,High School,9-12,9-12,N,N,34.216528000000004,-118.44883,Rafael,Gaeta,rafael.gaeta@lausd.net,No Data,No Data,No Data,No Data,No Data,No Data,02/16/2018,112052
19647330112508,622710,11665,Active,Los Angeles,Los Angeles Unified,Bright Star Secondary Charter Academy,5431 West 98th Street,5431 West 98th St.,Los Angeles,90045-5715,CA,2636 South Mansfield Avenue,2636 South Mansfield Ave.,Los Angeles,90016,CA,(424) 789-8337,No Data,http://brightstarschools.org,08/28/2006,No Data,Y,0826,Directly funded,54,Unified School District,66,High Schools (Public),TRAD,Traditional,HS,High School,9-12,9-12,N,N,33.947769,-118.37574,Darryl,Garris,dgarris@brightstarschools.org,No Data,No Data,No Data,No Data,No Data,No Data,09/24/2018,112508
19647330112870,622710,11888,Active,Los Angeles,Los Angeles Unified,Contreras Learning Center-Los Angeles School of Global Studies,322 Lucas Avenue,322 Lucas Ave.,Los Angeles,90017-1406,CA,322 Lucas Avenue,322 Lucas Ave.,Los Angeles,90017-1406,CA,(213) 240-3850,No Data,http://lasgs.net,09/05/2006,No Data,N,No Data,No Data,54,Unified School District,66,High Schools (Public),TRAD,Traditional,HS,High School,9-12,9-12,N,N,34.058064,-118.2617,Christian,Quintero,cxq9613@lausd.net,No Data,No Data,No Data,No Data,No Data,No Data,09/24/2018,112870
19647330114850,622710,12114,Active,Los Angeles,Los Angeles Unified,West Adams Preparatory High,1500 West Washington Boulevard,1500 West Washington Blvd.,Los Angeles,90007-1257,CA,1500 West Washington Boulevard,1500 West Washington Blvd.,Los Angeles,90007-1257,CA,(323) 373-2500,No Data,www.lausd.net/West_Adams_Prep,09/05/2007,No Data,N,No Data,No Data,54,Unified School District,66,High Schools (Public),TRAD,Traditional,HS,High School,9-12,9-12,C,N,34.040009999999995,-118.28968,Erica,Nava,eabila@lausd.net,No Data,No Data,No Data,No Data,No Data,No Data,10/30/2017,114850
19647330117051,622710,12295,Active,Los Angeles,Los Angeles Unified,Edward R. Roybal Learning Center,1200 West Colton Street,1200 West Colton St.,Los Angeles,90026-5816,CA,1200 West Colton Street,1200 West Colton St.,Los Angeles,90026-5816,CA,(213) 580-6400,No Data,No Data,09/03/2008,No Data,N,No Data,No Data,54,Unified School District,66,High Schools (Public),TRAD,Traditional,HS,High School,9-12,9-12,N,N,34.061984,-118.25456000000001,Jared,DuPree,jared.dupree@lausd.net,No Data,No Data,No Data,No Data,No Data,No Data,08/14/2017,117051
19647330117069,622710,12234,Active,Los Angeles,Los Angeles Unified,Helen Bernstein High,1309 North Wilton Place,1309 North Wilton Pl.,Hollywood,90028-8526,CA,1309 North Wilton Place,1309 North Wilton Pl.,Hollywood,90028-8526,CA,(323) 817-6400,No Data,www.lausd.net/bernstein_hs,09/03/2008,No Data,N,No Data,No Data,54,Unified School District,66,High Schools (Public),TRAD,Traditional,HS,High School,9-12,9-12,N,N,34.095068,-118.31357,Alejandro,Ramirez,axr4321@lausd.net,No Data,No Data,No Data,No Data,No Data,No Data,08/17/2018,117069
19647330117606,622710,12342,Active,Los Angeles,Los Angeles Unified,Alliance Leichtman-Levine Family Foundation Environmental Science High,2930 Fletcher Drive,2930 Fletcher Dr.,Los Angeles,90065-1407,CA,"601 South Figueroa Street, 4th Floor","601 South Figueroa St., 4th Fl.",Los Angeles,90017,CA,(323) 739-0560,No Data,http://esathigh.org,08/31/2009,No Data,Y,0929,Directly funded,54,Unified School District,66,High Schools (Public),TRAD,Traditional,HS,High School,9-12,9-12,N,N,34.113837,-118.24691999999999,Andres,Versage,aversage@laalliance.org,No Data,No Data,No Data,No Data,No Data,No Data,09/22/2016,117606
19647330117622,622710,12360,Active,Los Angeles,Los Angeles Unified,Magnolia Science Academy 4,"11330 West Graham Place, B-9","11330 West Graham Pl., B-9",Los Angeles,90064,CA,"11330 West Graham Place, B-9","11330 West Graham Pl., B-9",Los Angeles,90064,CA,(310) 473-2464,No Data,http://msa4.magnoliapublicschools.org,09/03/2008,No Data,Y,0986,Directly funded,54,Unified School District,65,K-12 Schools (Public),TRAD,Traditional,ELEMHIGH,Elementary-High Combination,6-12,6-12,C,N,34.029816,-118.43558,Lisa,Ross,lross@magnoliapublicschools.org,No Data,No Data,No Data,No Data,No Data,No Data,11/14/2017,117622
19647330117721,622710,12314,Active,Los Angeles,Los Angeles Unified,Contreras Learning Center-Academic Leadership Community,322 Lucas Avenue,322 Lucas Ave.,Los Angeles,90017-1406,CA,322 Lucas Avenue,322 Lucas Ave.,Los Angeles,90017-1406,CA,(213) 240-3815,No Data,www.alccobras.net,09/02/2008,No Data,N,No Data,No Data,54,Unified School District,66,High Schools (Public),TRAD,Traditional,HS,High School,9-12,9-12,N,N,34.058064,-118.2617,Cynthia,Vega,cxv2851@lausd.net,No Data,No Data,No Data,No Data,No Data,No Data,07/26/2018,117721
19647330117747,622710,12270,Active,Los Angeles,Los Angeles Unified,Los Angeles High School of the Arts,701 South Catalina Street,701 South Catalina St.,Los Angeles,90005-1943,CA,701 South Catalina Street,701 South Catalina St.,Los Angeles,90005-1943,CA,(213) 480-4600,No Data,www.lahsa-lausd-ca.schoolloop.com/,09/02/2008,No Data,N,No Data,No Data,54,Unified School District,66,High Schools (Public),TRAD,Traditional,HS,High School,9-12,9-12,N,N,34.059692,-118.29547,Susan,Canjura,susan.canjura@lausd.net,No Data,No Data,No Data,No Data,No Data,No Data,10/30/2017,117747
19647330117762,622710,12370,Active,Los Angeles,Los Angeles Unified,School for the Visual Arts and Humanities,701 South Catalina Street,701 South Catalina St.,Los Angeles,90005-1943,CA,701 South Catalina Street,701 South Catalina St.,Los Angeles,90005-1943,CA,(213) 480-4700,No Data,www.svah-lausd-ca.schoolloop.com,09/03/2008,No Data,N,No Data,No Data,54,Unified School District,66,High Schools (Public),TRAD,Traditional,HS,High School,9-12,9-12,C,N,34.059692,-118.29547,Andrew,Conroy,ajc82721@lausd.net,No Data,No Data,No Data,No Data,No Data,No Data,10/30/2017,117762
19647330117911,622710,12253,Active,Los Angeles,Los Angeles Unified,New Millennium Secondary,"1301 WeStreet 182nd Street, Suite G1","1301 West. 182nd St., Ste. G1",Gardena,90248-3322,CA,"1301 WeStreet 182nd Street, Suite G1","1301 West. 182nd St., Ste. G1",Gardena,90248-3322,CA,(310) 999-6162,No Data,http://newmillenniumschool.org,09/04/2008,No Data,Y,1020,Directly funded,54,Unified School District,66,High Schools (Public),TRAD,Traditional,HS,High School,9-12,9-12,N,N,33.867246,-118.29473,Samantha,Navarro,snavarro@newmillenniumschool.org,No Data,No Data,No Data,No Data,No Data,No Data,10/11/2018,117911
19647330118588,622710,12248,Active,Los Angeles,Los Angeles Unified,Alain Leroy Locke College Preparatory Academy,325 East 111th Street,325 East 111th St.,Los Angeles,90061-3003,CA,"1149 S. Hill Street, Suite 600","1149 S. Hill Street, Ste. 600",Los Angeles,90015,CA,(323) 420-2100,No Data,http://greendot.org/locke,09/08/2008,No Data,Y,1050,Directly funded,54,Unified School District,66,High Schools (Public),TRAD,Traditional,HS,High School,9-12,9-12,N,N,33.934867,-118.26893000000001,Peggy,Gutierrez,pgutierrez@animo.org,No Data,No Data,No Data,No Data,No Data,No Data,09/06/2016,118588
19647330119651,622710,12520,Active,Los Angeles,Los Angeles Unified,Sun Valley High,9171 Telfair Avenue,9171 Telfair Ave.,Sun Valley,91352-1844,CA,9171 Telfair Avenue,9171 Telfair Ave.,Sun Valley,91352-1844,CA,(818) 394-4600,No Data,www.sunvalleyhs.org,09/09/2009,No Data,N,No Data,No Data,54,Unified School District,66,High Schools (Public),TRAD,Traditional,HS,High School,9-12,9-12,C,N,34.236128,-118.39658999999999,Tadeo,Climaco,tclimaco@lausd.net,No Data,No Data,No Data,No Data,No Data,No Data,07/26/2018,119651
19647330119685,622710,12493,Active,Los Angeles,Los Angeles Unified,New Open World Academy K-12,3201 West Eighth Street,3201 West Eighth St.,Los Angeles,90010-2171,CA,3201 West Eighth Street,3201 West Eighth St.,Los Angeles,90010-2171,CA,(213) 480-3700,No Data,www.nowacademy.net,09/09/2009,No Data,N,No Data,No Data,54,Unified School District,65,K-12 Schools (Public),TRAD,Traditional,ELEMHIGH,Elementary-High Combination,K-12,K-12,N,N,34.057779,-118.29766000000001,Charles,Smith,cds9991@lausd.net,No Data,No Data,No Data,No Data,No Data,No Data,10/30/2017,119685
19647330119693,622710,12524,Active,Los Angeles,Los Angeles Unified,UCLA Community K-12,700 South Mariposa Avenue,700 South Mariposa Ave.,Los Angeles,90005-2001,CA,700 South Mariposa Avenue,700 South Mariposa Ave.,Los Angeles,90005-2001,CA,(213) 480-3750,No Data,No Data,09/09/2009,No Data,N,No Data,No Data,54,Unified School District,65,K-12 Schools (Public),TRAD,Traditional,ELEMHIGH,Elementary-High Combination,K-12,K-12,C,N,34.059688,-118.29863999999999,Leyda,Garcia,leyda.garcia@lausd.net,No Data,No Data,No Data,No Data,No Data,No Data,12/07/2016,119693
19647330119727,622710,12439,Active,Los Angeles,Los Angeles Unified,Ramon C. Cortines School of Visual and Performing Arts,450 North Grand Avenue,450 North Grand Ave.,Los Angeles,90012-2123,CA,450 North Grand Avenue,450 North Grand Ave.,Los Angeles,90012-2123,CA,(213) 217-8600,No Data,www.central-lausd-ca.schoolloop.com,09/09/2009,No Data,N,No Data,No Data,54,Unified School District,66,High Schools (Public),TRAD,Traditional,HS,High School,9-12,9-12,N,N,34.059537,-118.24492,Kenneth,Martinez,kmart4@lausd.net,No Data,No Data,No Data,No Data,No Data,No Data,10/30/2017,119727
19647330119966,622710,12438,Active,Los Angeles,Los Angeles Unified,Felicitas and Gonzalo Mendez High,1200 Plaza Del Sol,1200 Plaza Del Sol,Los Angeles,90033-2730,CA,1200 Plaza Del Sol,1200 Plaza Del Sol,Los Angeles,90033-2730,CA,(323) 981-5400,No Data,www.mendezhs.org/,09/09/2009,No Data,N,No Data,No Data,54,Unified School District,66,High Schools (Public),TRAD,Traditional,HS,High School,9-12,9-12,N,N,34.048813,-118.22762,Mauro,Bautista,mxb2043@lausd.net,No Data,No Data,No Data,No Data,No Data,No Data,10/30/2017,119966
19647330120071,622710,12456,Active,Los Angeles,Los Angeles Unified,New Designs Charter School-Watts,12714 South Avalon Boulevard,12714 South Avalon Blvd.,Los Angeles,90061-2730,CA,12714 South Avalon Boulevard,12714 South Avalon Blvd.,Los Angeles,90061-2730,CA,(323) 418-0600,No Data,http://newdesignscharter.com,09/15/2009,No Data,Y,1120,Directly funded,54,Unified School District,65,K-12 Schools (Public),TRAD,Traditional,ELEMHIGH,Elementary-High Combination,6-12,6-12,C,N,33.917147,-118.26516000000001,Joseph,Ntung,joentung2@yahoo.com,No Data,No Data,No Data,No Data,No Data,No Data,05/17/2018,120071
19647330120360,622710,12525,Active,Los Angeles,Los Angeles Unified,Daniel Pearl Journalism & Communications Magnet,6649 Balboa Boulevard,6649 Balboa Blvd.,Lake Balboa,91406-5529,CA,6649 Balboa Boulevard,6649 Balboa Blvd.,Lake Balboa,91406-5529,CA,(818) 654-3775,No Data,www.pearlmagnet.org,09/09/2009,No Data,N,No Data,No Data,54,Unified School District,66,High Schools (Public),TRAD,Traditional,HS,High School,9-12,9-12,C,Y,34.191306,-118.50188,Deborah,Smith,debbie.smith@lausd.net,No Data,No Data,No Data,No Data,No Data,No Data,10/30/2017,120360
19647330121095,622710,12559,Active,Los Angeles,Los Angeles Unified,Ambassador-Global Leadership,701 South Catalina Street,701 South Catalina St.,Los Angeles,90005-1943,CA,701 South Catalina Street,701 South Catalina St.,Los Angeles,90005-1943,CA,(213) 480-4540,No Data,www.asgl-lausd-ca.schoolloop.com/,09/13/2010,No Data,N,No Data,No Data,54,Unified School District,65,K-12 Schools (Public),TRAD,Traditional,ELEMHIGH,Elementary-High Combination,6-12,6-12,N,N,34.059692,-118.29547,Kate,Sohn,ksohn@lausd.net,No Data,No Data,No Data,No Data,No Data,No Data,10/30/2017,121095
19647330121285,622710,12567,Active,Los Angeles,Los Angeles Unified,Alliance Cindy and Bill Simon Technology Academy High,10720 South Wilmington Avenue,10720 South Wilmington Ave.,Los Angeles,90059-1236,CA,"601 South Figueroa Street, 4th Floor","601 South Figueroa St., 4th Fl.",Los Angeles,90017,CA,(323) 744-2122,No Data,http://simontechnology.org,08/30/2010,No Data,Y,1161,Directly funded,54,Unified School District,66,High Schools (Public),TRAD,Traditional,HS,High School,9-12,9-12,N,N,33.938477,-118.23896,Christopher,Carr,ccarr@laalliance.org,No Data,No Data,No Data,No Data,No Data,No Data,09/22/2016,121285
19647330121293,622710,12572,Active,Los Angeles,Los Angeles Unified,Alliance Tennenbaum Family Technology High,2050 San Fernando Road,2050 San Fernando Rd.,Los Angeles,90065-1267,CA,601 S. Figueroa Street 4th Floor,601 S. Figueroa St. 4th Fl.,Los Angeles,90017,CA,(323) 276-5545,No Data,http://atams.org,08/15/2011,No Data,Y,1162,Directly funded,54,Unified School District,66,High Schools (Public),TRAD,Traditional,HS,High School,9-12,9-12,N,N,34.290459000000006,-118.44949,Abigail,Nunez,abnunez@laalliance.org,No Data,No Data,No Data,No Data,No Data,No Data,09/22/2016,121293
19647330122333,622710,12791,Active,Los Angeles,Los Angeles Unified,"Math, Science, & Technology Magnet Academy at Roosevelt High",456 South Mathews Street,456 South Mathews St.,Los Angeles,90033-4326,CA,456 South Mathews Street,456 South Mathews St.,Los Angeles,90033-4326,CA,(323) 780-6500,No Data,www.rooseveltlausd.org,09/13/2010,No Data,N,No Data,No Data,54,Unified School District,66,High Schools (Public),TRAD,Traditional,HS,High School,9-12,9-12,N,Y,34.039171,-118.21118999999999,Jose,Espinoza,jose.espinoza@lausd.net,No Data,No Data,No Data,No Data,No Data,No Data,10/30/2017,122333
19647330122341,622710,12787,Active,Los Angeles,Los Angeles Unified,Esteban Torres East LA Performing Arts Magnet,4211 Dozier Street,4211 Dozier St.,Los Angeles,90063-3422,CA,4211 Dozier Street,4211 Dozier St.,Los Angeles,90063-3422,CA,(323) 265-6725,No Data,www.elapaa-lausd-ca.schoolloop.com,09/13/2010,No Data,N,No Data,No Data,54,Unified School District,66,High Schools (Public),TRAD,Traditional,HS,High School,9-12,9-12,N,Y,34.041554,-118.17546999999999,Carolyn,McKnight,carolyn.mcknight@lausd.net,No Data,No Data,No Data,No Data,No Data,No Data,10/30/2017,122341
19647330122358,622710,12711,Active,Los Angeles,Los Angeles Unified,Humanitas Academy of Art and Technology at Esteban E. Torres High No. 4,4211 Dozier Street,4211 Dozier St.,Los Angeles,90063-3422,CA,4211 Dozier Street,4211 Dozier St.,Los Angeles,90063-3422,CA,(323) 265-6830,No Data,No Data,09/13/2010,No Data,N,No Data,No Data,54,Unified School District,66,High Schools (Public),TRAD,Traditional,HS,High School,9-12,9-12,N,N,34.041554,-118.17546999999999,Deborah,Lowe,dlowe1@lausd.net,No Data,No Data,No Data,No Data,No Data,No Data,06/18/2015,122358
19647330122366,622710,12720,Active,Los Angeles,Los Angeles Unified,Social Justice Leadership Academy at Esteban E. Torres High No. 5,4211 Dozier Street,4211 Dozier St.,Los Angeles,90063-3422,CA,4211 Dozier Street,4211 Dozier St.,Los Angeles,90063-3422,CA,(323) 265-6865,No Data,No Data,09/13/2010,No Data,N,No Data,No Data,54,Unified School District,66,High Schools (Public),TRAD,Traditional,HS,High School,9-12,9-12,N,N,34.041554,-118.17546999999999,Roseann,Cazares,rcazar2@lausd.net,No Data,No Data,No Data,No Data,No Data,No Data,10/20/2016,122366
19647330122374,622710,12657,Active,Los Angeles,Los Angeles Unified,East Los Angeles Renaissance Academy at Esteban E. Torres High No. 2,4211 Dozier Street,4211 Dozier St.,Los Angeles,90063-3422,CA,4211 Dozier Street,4211 Dozier St.,Los Angeles,90063-3422,CA,(323) 265-6760,No Data,No Data,09/13/2010,No Data,N,No Data,No Data,54,Unified School District,66,High Schools (Public),TRAD,Traditional,HS,High School,9-12,9-12,N,N,34.041554,-118.17546999999999,Martin,Buchman,mbuchman@lausd.net,No Data,No Data,No Data,No Data,No Data,No Data,12/12/2016,122374
19647330122382,622710,12819,Active,Los Angeles,Los Angeles Unified,Engineering and Technology Academy at Esteban E. Torres High No. 3,4211 Dozier Street,4211 Dozier St.,Los Angeles,90063-3422,CA,4211 Dozier Street,4211 Dozier St.,Los Angeles,90063-3422,CA,(323) 265-6795,No Data,No Data,09/13/2010,No Data,N,No Data,No Data,54,Unified School District,66,High Schools (Public),TRAD,Traditional,HS,High School,9-12,9-12,C,N,34.041554,-118.17546999999999,Diana,Faatai,dfaatai@lausd.net,No Data,No Data,No Data,No Data,No Data,No Data,08/14/2017,122382
19647330122721,622710,12634,Active,Los Angeles,Los Angeles Unified,Aspire Pacific Academy,2565 58th Street,2565 58th St.,Huntington Park,90255-4126,CA,"1001 22nd Avenue, Suite 100","1001 22nd Ave., Ste. 100",Oakland,94606,CA,(323) 589-2800,No Data,http://aspirepublicschools.org,08/23/2010,No Data,Y,1230,Directly funded,54,Unified School District,65,K-12 Schools (Public),TRAD,Traditional,ELEMHIGH,Elementary-High Combination,6-12,6-11,N,N,33.990184,-118.22593,John,Zapata,data-contact@aspirepublicschools.org,No Data,No Data,No Data,No Data,No Data,No Data,10/05/2018,122721
19647330123133,622710,12817,Active,Los Angeles,Los Angeles Unified,Alliance Susan and Eric Smidt Technology High,211 South Avenue 20,211 South Avenue 20,Los Angeles,90031-2508,CA,"601 South Figueroa Street, 4th Floor","601 South Figueroa Street, 4th Fl.",Los Angeles,90017,CA,(323) 352-3206,No Data,http://smidttech.org,08/06/2012,No Data,Y,1163,Directly funded,54,Unified School District,66,High Schools (Public),TRAD,Traditional,HS,High School,9-12,9-12,N,N,34.072368,-118.22022,Oscar,Romero,oromero@laalliance.org,No Data,No Data,No Data,No Data,No Data,No Data,07/23/2018,123133
19647330123141,622710,12766,Active,Los Angeles,Los Angeles Unified,Alliance Ted K. Tajima High,1552 W. Rockwood Street,1552 W. Rockwood St.,Los Angeles,90026-5520,CA,"601 South Figueroa Street, 4th Floor","601 South Figueroa St., 4th Fl.",Los Angeles,90017,CA,(213) 241-8533,No Data,http://collegeready16.org,08/15/2011,No Data,Y,1164,Directly funded,54,Unified School District,66,High Schools (Public),TRAD,Traditional,HS,High School,9-12,9-12,N,N,34.063479,-118.26153000000001,Amber,Diaz,adiaz@laalliance.org,No Data,No Data,No Data,No Data,No Data,No Data,07/23/2018,123141
19647330124362,622710,12946,Active,Los Angeles,Los Angeles Unified,Valley Academy of Arts and Sciences,10445 Balboa Boulevard,10445 Balboa Blvd.,Granada Hills,91344-7323,CA,10445 Balboa Boulevard,10445 Balboa Blvd.,Granada Hills,91344-7323,CA,(818) 832-7750,No Data,www.thevalleyacademy.net,09/07/2011,No Data,N,No Data,No Data,54,Unified School District,66,High Schools (Public),TRAD,Traditional,HS,High School,9-12,9-12,N,N,34.260352000000005,-118.50353,Kelly,Hanock,kjh0292@lausd.net,No Data,No Data,No Data,No Data,No Data,No Data,10/30/2017,124362
19647330124370,622710,12926,Active,Los Angeles,Los Angeles Unified,Cesar E. Chavez Learning Academies - Arts/Theatre/Entertain Mag,1001 Arroyo Avenue,1001 Arroyo Ave.,San Fernando,91340-1817,CA,1001 Arroyo Avenue,1001 Arroyo Ave.,San Fernando,91340-1817,CA,(818) 837-6428,No Data,www.artesmagnet.org,09/06/2011,No Data,N,No Data,No Data,54,Unified School District,66,High Schools (Public),TRAD,Traditional,HS,High School,9-12,9-12,C,Y,34.288462,-118.42073,Anne,Maschler,acm0248@lausd.net,No Data,No Data,No Data,No Data,No Data,No Data,09/19/2018,124370
19647330124388,622710,12895,Active,Los Angeles,Los Angeles Unified,Cesar E. Chavez Learning Academies-Social Justice Humanitas Academy,1001 Arroyo Avenue,1001 Arroyo Ave.,San Fernando,91340-1817,CA,1001 Arroyo Avenue,1001 Arroyo Ave.,San Fernando,91340-1817,CA,(818) 838-3915,No Data,No Data,09/07/2011,No Data,N,No Data,No Data,54,Unified School District,66,High Schools (Public),TRAD,Traditional,HS,High School,9-12,9-12,C,N,34.288462,-118.42073,Jeffrey,Austin,jeffrey.austin@lausd.net,No Data,No Data,No Data,No Data,No Data,No Data,09/19/2018,124388
19647330124396,622710,12858,Active,Los Angeles,Los Angeles Unified,Cesar E. Chavez Learning Academies-Academy of Scientific Exploration (ASE),1001 Arroyo Avenue,1001 Arroyo Ave.,San Fernando,91340-1817,CA,1001 Arroyo Avenue,1001 Arroyo Ave.,San Fernando,91340-1817,CA,(818) 838-3926,No Data,No Data,09/06/2011,No Data,N,No Data,No Data,54,Unified School District,66,High Schools (Public),TRAD,Traditional,HS,High School,9-12,9-12,N,N,34.288462,-118.42073,Dana,Neill,dana.neill@lausd.net,No Data,No Data,No Data,No Data,No Data,No Data,05/16/2017,124396
19647330124404,622710,12964,Active,Los Angeles,Los Angeles Unified,Cesar E. Chavez Learning Academies-Technology Preparatory Academy,1001 Arroyo Avenue,1001 Arroyo Ave.,San Fernando,91340-1817,CA,1001 Arroyo Avenue,1001 Arroyo Ave.,San Fernando,91340-1817,CA,(818) 838-3946,No Data,www.tpa-lausd-ca.schoolloop.com,09/07/2011,No Data,N,No Data,No Data,54,Unified School District,66,High Schools (Public),TRAD,Traditional,HS,High School,9-12,9-12,N,N,34.288462,-118.42073,Elizabeth,Beltran,elizabeth.beltran@lausd.net,No Data,No Data,No Data,No Data,No Data,No Data,10/30/2017,124404
19647330124412,622710,12916,Active,Los Angeles,Los Angeles Unified,Sonia Sotomayor Arts and Sciences Academies,2050 San Fernando Road,2050 San Fernando Rd.,Los Angeles,90065-1267,CA,2050 San Fernando Road,2050 San Fernando Rd.,Los Angeles,90065-1267,CA,(323) 276-5535,No Data,www.lariverschool.com/,09/06/2011,No Data,N,No Data,No Data,54,Unified School District,66,High Schools (Public),TRAD,Traditional,HS,High School,9-12,9-12,N,N,34.290459000000006,-118.44949,Kristine,Puich,kristine.puich@lausd.net,No Data,No Data,No Data,No Data,No Data,No Data,08/20/2018,124412
19647330124479,622710,12871,Active,Los Angeles,Los Angeles Unified,Dr. Maya Angelou Community High,300 East 53rd Street,300 East 53rd St.,Los Angeles,90011-4522,CA,300 East 53rd Street,300 East 53rd St.,Los Angeles,90011-4522,CA,(323) 846-4600,No Data,www.lausd.net/MayaAngelouCommunityHighSchool,09/07/2011,No Data,N,No Data,No Data,54,Unified School District,66,High Schools (Public),TRAD,Traditional,HS,High School,9-12,9-12,N,N,33.99422,-118.2701,Hugo,Carlos,hxc4567@lausd.net,No Data,No Data,No Data,No Data,No Data,No Data,10/30/2017,124479
19647330124487,622710,12971,Active,Los Angeles,Los Angeles Unified,Public Service Community at Diego Rivera Learning Complex,6100 South Central Avenue,6100 South Central Ave.,Los Angeles,90001-1133,CA,6100 South Central Avenue,6100 South Central Ave.,Los Angeles,90001-1133,CA,(323) 846-2128,No Data,www.publicservicehs.org,09/06/2011,No Data,N,No Data,No Data,54,Unified School District,66,High Schools (Public),TRAD,Traditional,HS,High School,9-12,9-12,C,N,33.984122,-118.25611,Dennis,Fulgoni,dgf8072@lausd.net,No Data,No Data,No Data,No Data,No Data,No Data,10/30/2017,124487
19647330124495,622710,12973,Active,Los Angeles,Los Angeles Unified,Communication and Technology at Diego Rivera Learning Complex,6100 South Central Avenue,6100 South Central Ave.,Los Angeles,90001-1133,CA,6100 South Central Avenue,6100 South Central Ave.,Los Angeles,90001-1133,CA,(323) 846-2118,No Data,www.drlc-lausd-ca.schoolloop.com,09/06/2011,No Data,N,No Data,No Data,54,Unified School District,66,High Schools (Public),TRAD,Traditional,HS,High School,9-12,9-12,N,N,33.984122,-118.25611,Cynthia,Gonzalez,cxg0844@lausd.net,No Data,No Data,No Data,No Data,No Data,No Data,10/30/2017,124495
19647330124503,622710,12937,Active,Los Angeles,Los Angeles Unified,Diego Rivera Learning Complex Green Design STEAM Academy,6100 South Central Avenue,6100 South Central Ave.,Los Angeles,90001-1133,CA,6100 South Central Avenue,6100 South Central Ave.,Los Angeles,90001-1133,CA,(323) 846-2108,No Data,www.drlc-lausd-ca.schoolloop.com,09/06/2011,No Data,N,No Data,No Data,54,Unified School District,66,High Schools (Public),TRAD,Traditional,HS,High School,9-12,9-12,N,N,33.984122,-118.25611,William,Lupejkis,wlupejki@lausd.net,No Data,No Data,No Data,No Data,No Data,No Data,10/30/2017,124503
19647330124511,622710,12885,Active,Los Angeles,Los Angeles Unified,Performing Arts Community at Diego Rivera Learning Complex,6100 South Central Avenue,6100 South Central Ave.,Los Angeles,90001-1133,CA,6100 South Central Avenue,6100 South Central Ave.,Los Angeles,90001-1133,CA,(323) 846-2136,No Data,www.drlc-lausd-ca.schoolloop.com,09/06/2011,No Data,N,No Data,No Data,54,Unified School District,66,High Schools (Public),TRAD,Traditional,HS,High School,9-12,9-12,N,N,33.984122,-118.25611,Sally,Lopez,szuni1@lausd.net,No Data,No Data,No Data,No Data,No Data,No Data,10/30/2017,124511
19647330124529,622710,12898,Active,Los Angeles,Los Angeles Unified,Rancho Dominguez Preparatory,4110 Santa Fe Avenue,4110 Santa Fe Ave.,Long Beach,90810-1439,CA,4110 Santa Fe Avenue,4110 Santa Fe Ave.,Long Beach,90810-1439,CA,(310) 847-6400,No Data,www.bit.ly/ranchodominguez,09/06/2011,No Data,N,No Data,No Data,54,Unified School District,65,K-12 Schools (Public),TRAD,Traditional,ELEMHIGH,Elementary-High Combination,6-12,6-12,C,N,33.833794,-118.21593999999999,Keri,Lew,klew@lausd.net,No Data,No Data,No Data,No Data,No Data,No Data,10/30/2017,124529
19647330124560,622710,12883,Active,Los Angeles,Los Angeles Unified,Synergy Quantum Academy,300 East 53rd Street,300 East 53rd St.,Los Angeles,90011-4522,CA,PO Box 78999,PO Box 78999,Los Angeles,90016,CA,(323) 510-4171,No Data,http://wearesynergy.org,08/15/2011,No Data,Y,1299,Directly funded,54,Unified School District,66,High Schools (Public),TRAD,Traditional,HS,High School,9-12,9-12,C,N,33.99422,-118.2701,Catherine,Belcher,cbelcher@wearesynergy.org,No Data,No Data,No Data,No Data,No Data,No Data,06/04/2018,124560
19647330124883,622710,12903,Active,Los Angeles,Los Angeles Unified,Animo College Preparatory Academy,2265 East 103rd Street,2265 East 103rd St.,Los Angeles,90002-3132,CA,"1149 South Hill Street, Suite 600","1149 South Hill St., Ste. 600",Los Angeles,90015,CA,(323) 568-4136,No Data,http://greendot.org/collegeprep,09/07/2011,No Data,Y,1342,Directly funded,54,Unified School District,66,High Schools (Public),TRAD,Traditional,HS,High School,9-12,9-12,N,N,33.944503000000005,-118.23114,Jasmia,Fowler,jasmia.fowler@greendot.org,No Data,No Data,No Data,No Data,No Data,No Data,10/23/2018,124883
19647330124891,622710,12848,Active,Los Angeles,Los Angeles Unified,Alliance Renee and Meyer Luskin Academy High,2941 West 70th Street,2941 West 70th St.,Los Angeles,90043-4420,CA,"601 South Figueroa Street, 4th Floor","601 South Figueroa Street, 4th Fl.",Los Angeles,90017,CA,(323) 905-1210,No Data,http://luskinacademy.org,08/06/2012,No Data,Y,1343,Directly funded,54,Unified School District,66,High Schools (Public),TRAD,Traditional,HS,High School,9-12,9-12,N,N,33.977090000000004,-118.32575,Andrew,Vega,avega@laalliance.org,No Data,No Data,No Data,No Data,No Data,No Data,09/11/2017,124891
19647330124933,622710,12869,Active,Los Angeles,Los Angeles Unified,PUC Early College Academy for Leaders and Scholars (ECALS),2050 San Fernando Road,2050 San Fernando Rd.,Los Angeles,90065-1267,CA,"1405 N. San Fernando Boulevard, Suite 303","1405 N. San Fernando Blvd., Ste. 303",Burbank,91504,CA,(323) 276-5525,No Data,http://pucschools.org,08/29/2011,No Data,Y,1354,Directly funded,54,Unified School District,66,High Schools (Public),TRAD,Traditional,HS,High School,9-12,9-12,C,N,34.290459000000006,-118.44949,Nancy,Villagomez,n.villagomez@pucschools.org,No Data,No Data,No Data,No Data,No Data,No Data,07/18/2018,124933
19647330125989,622710,13139,Active,Los Angeles,Los Angeles Unified,STEM Academy at Bernstein High,1309 North Wilton Place,1309 North Wilton Pl.,Hollywood,90028-8526,CA,1309 North Wilton Place,1309 North Wilton Pl.,Hollywood,90028-8526,CA,(323) 817-6461,No Data,www.stemah.org,08/13/2012,No Data,N,No Data,No Data,54,Unified School District,66,High Schools (Public),TRAD,Traditional,HS,High School,9-12,9-12,C,N,34.095061,-118.31392,Paul,Hirsch,paul.hirsch@lausd.net,No Data,No Data,No Data,No Data,No Data,No Data,10/30/2017,125989
19647330126136,622710,13084,Active,Los Angeles,Los Angeles Unified,Math and Science College Preparatory,3200 West Adams Boulevard,3200 West Adams Blvd.,Los Angeles,90018-1832,CA,3200 West Adams Boulevard,3200 West Adams Blvd.,Los Angeles,90018-1832,CA,(323) 821-1393,No Data,http://mscollegeprep.org,08/01/2013,No Data,Y,1412,Directly funded,54,Unified School District,66,High Schools (Public),TRAD,Traditional,HS,High School,9-12,9-12,N,N,34.031959,-118.31897,Lisa,Marcelino,lmarcelino@stem-prep.org,No Data,No Data,No Data,No Data,No Data,No Data,08/18/2017,126136
19647330126474,622710,13101,Active,Los Angeles,Los Angeles Unified,"Hilda L. Solis Learning Academy School of Technology, Business and Education",319 North Humphreys Avenue,319 North Humphreys Ave.,Los Angeles,90022-1422,CA,319 North Humphreys Avenue,319 North Humphreys Ave.,Los Angeles,90022-1422,CA,(323) 729-1700,No Data,www.hildasolisla.net,08/14/2012,No Data,N,No Data,No Data,54,Unified School District,66,High Schools (Public),TRAD,Traditional,HS,High School,9-12,9-12,N,N,34.039103999999995,-118.17138,Jose,Gonzalez,jgonz76@lausd.net,No Data,No Data,No Data,No Data,No Data,No Data,07/26/2018,126474
19647330126482,622710,13065,Active,Los Angeles,Los Angeles Unified,Augustus F. Hawkins High A Critical Design and Gaming,825 West 60th Street,825 West 60th St.,Los Angeles,90044-5512,CA,825 West 60th Street,825 West 60th St.,Los Angeles,90044-5512,CA,(323) 789-1282,No Data,www.hawkinshs-lausd-ca.schoolloop.com,08/14/2012,No Data,N,No Data,No Data,54,Unified School District,66,High Schools (Public),TRAD,Traditional,HS,High School,9-12,9-12,N,N,33.985535999999996,-118.288,Patricia,Hanson,patricia.hanson@lausd.net,No Data,No Data,No Data,No Data,No Data,No Data,10/30/2017,126482
19647330126490,622710,13095,Active,Los Angeles,Los Angeles Unified,Augustus F. Hawkins High B Community Health Advocates,825 West 60th Street,825 West 60th St.,Los Angeles,90044-5512,CA,825 West 60th Street,825 West 60th St.,Los Angeles,90044-5512,CA,(323) 789-1282,No Data,www.hawkinshs-lausd-ca.schoolloop.com,08/14/2012,No Data,N,No Data,No Data,54,Unified School District,66,High Schools (Public),TRAD,Traditional,HS,High School,9-12,9-12,N,N,33.985535999999996,-118.288,Glynetta,Fletcher,gdf6637@lausd.net,No Data,No Data,No Data,No Data,No Data,No Data,07/26/2018,126490
19647330126508,622710,13166,Active,Los Angeles,Los Angeles Unified,Augustus F. Hawkins High C Responsible Indigenous Social Entrepreneurship,825 West 60th Street,825 West 60th St.,Los Angeles,90044-5512,CA,825 West 60th Street,825 West 60th St.,Los Angeles,90044-5512,CA,(323) 789-1282,No Data,www.hawkinshs-lausd-ca.schoolloop.com,08/14/2012,No Data,N,No Data,No Data,54,Unified School District,66,High Schools (Public),TRAD,Traditional,HS,High School,9-12,9-12,N,N,33.985535999999996,-118.288,Pablo,Mejia,pablo.mejia@lausd.net,No Data,No Data,No Data,No Data,No Data,No Data,10/30/2017,126508
19647330126516,622710,13173,Active,Los Angeles,Los Angeles Unified,Linda Esperanza Marquez High A Huntington Park Institute of Applied Medicine,6361 Cottage Street,6361 Cottage St.,Huntington Park,90255-3521,CA,6361 Cottage Street,6361 Cottage St.,Huntington Park,90255-3521,CA,(323) 584-3800,No Data,No Data,08/14/2012,No Data,N,No Data,No Data,54,Unified School District,66,High Schools (Public),TRAD,Traditional,HS,High School,9-12,9-12,N,N,33.981804,-118.23371999999999,Jonathan,Chaikittirattana,jxc3832@lausd.net,No Data,No Data,No Data,No Data,No Data,No Data,06/30/2017,126516
19647330126524,622710,13203,Active,Los Angeles,Los Angeles Unified,Linda Esperanza Marquez High B LIBRA Academy,6361 Cottage Street,6361 Cottage St.,Huntington Park,90255-3521,CA,6361 Cottage Street,6361 Cottage St.,Huntington Park,90255-3521,CA,(323) 584-3800,No Data,No Data,08/14/2012,No Data,N,No Data,No Data,54,Unified School District,66,High Schools (Public),TRAD,Traditional,HS,High School,9-12,9-12,N,N,33.981804,-118.23371999999999,Lisa,Davis,ldavis2@lausd.net,No Data,No Data,No Data,No Data,No Data,No Data,06/18/2015,126524
19647330126532,622710,13086,Active,Los Angeles,Los Angeles Unified,Linda Esperanza Marquez High C School of Social Justice,6361 Cottage Street,6361 Cottage St.,Huntington Park,90255-3521,CA,6361 Cottage Street,6361 Cottage St.,Huntington Park,90255-3521,CA,(323) 584-3800,No Data,www.ssjmhs.marquezhs.net,08/14/2012,No Data,N,No Data,No Data,54,Unified School District,66,High Schools (Public),TRAD,Traditional,HS,High School,9-12,9-12,N,N,33.981804,-118.23371999999999,Kyle,Boswell,kbb1912@lausd.net,No Data,No Data,No Data,No Data,No Data,No Data,10/30/2017,126532
19647330126540,622710,13162,Active,Los Angeles,Los Angeles Unified,"Science, Technology, Engineering, Arts and Mathematics at Legacy High School Complex",5225 Tweedy Boulevard,5225 Tweedy Blvd.,South Gate,90280-5332,CA,5225 Tweedy Boulevard,5225 Tweedy Blvd.,South Gate,90280-5332,CA,(323) 357-7540,No Data,www.steamvapa.com,08/14/2012,No Data,N,No Data,No Data,54,Unified School District,66,High Schools (Public),TRAD,Traditional,HS,High School,9-12,9-12,N,N,33.941328000000006,-118.17894,Carla,Barrera-Ortiz,carla.barrera-ortiz@lausd.net,No Data,No Data,No Data,No Data,No Data,No Data,10/30/2017,126540
19647330126557,622710,13133,Active,Los Angeles,Los Angeles Unified,Visual and Performing Arts at Legacy High School Complex,5225 Tweedy Boulevard,5225 Tweedy Blvd.,South Gate,90280-5332,CA,5225 Tweedy Boulevard,5225 Tweedy Blvd.,South Gate,90280-5332,CA,(323) 357-7531,No Data,www.vapalegacy.com,08/14/2012,No Data,N,No Data,No Data,54,Unified School District,66,High Schools (Public),TRAD,Traditional,HS,High School,9-12,9-12,C,N,33.941328000000006,-118.17894,Edward,Trims,etrimis@lausd.net,No Data,No Data,No Data,No Data,No Data,No Data,10/30/2017,126557
19647330126573,622710,13079,Active,Los Angeles,Los Angeles Unified,Academy for Multilingual Arts and Science at Mervyn M. Dymally High,8800 South San Pedro Street,8800 South San Pedro St.,Los Angeles,90003-3541,CA,8800 South San Pedro Street,8800 South San Pedro St.,Los Angeles,90003-3541,CA,(323) 565-4600,No Data,www.dymallyhs-lausd-ca.schoolloop.com,08/14/2012,No Data,N,No Data,No Data,54,Unified School District,66,High Schools (Public),TRAD,Traditional,HS,High School,9-12,9-12,N,N,33.95715,-118.26875,Darvina,Bradley,darvina.bradley@lausd.net,No Data,No Data,No Data,No Data,No Data,No Data,07/26/2018,126573
19647330126615,622710,13040,Active,Los Angeles,Los Angeles Unified,Academies of Education and Empowerment at Carson High,22328 South Main Street,22328 South Main St.,Carson,90745-4525,CA,22328 South Main Street,22328 South Main St.,Carson,90745-4525,CA,(310) 847-1455,No Data,No Data,08/14/2012,No Data,N,No Data,No Data,54,Unified School District,66,High Schools (Public),TRAD,Traditional,HS,High School,9-12,9-12,N,N,33.823923,-118.27585,Michelle,Bryant,mwilli20@lausd.net,No Data,No Data,No Data,No Data,No Data,No Data,10/20/2016,126615
19647330126623,622710,13104,Active,Los Angeles,Los Angeles Unified,Academy of Medical Arts at Carson High,22328 South Main Street,22328 South Main St.,Carson,90745-4525,CA,22328 South Main Street,22328 South Main St.,Carson,90745-4525,CA,(310) 847-1465,No Data,www.amachs-lausd-ca.schoolloop.com,08/14/2012,No Data,N,No Data,No Data,54,Unified School District,66,High Schools (Public),TRAD,Traditional,HS,High School,9-12,9-12,C,N,33.823923,-118.27585,Juan,Jauregui,jrj9809@lausd.net,No Data,No Data,No Data,No Data,No Data,No Data,10/30/2017,126623
19647330127787,622710,13579,Active,Los Angeles,Los Angeles Unified,Humanities and Arts (HARTS) Academy of Los Angeles,24300 South Western Avenue,24300 South Western Ave.,Harbor City,90710-1742,CA,24300 South Western Avenue,24300 South Western Ave.,Harbor City,90710-1742,CA,(310) 257-4300,No Data,No Data,08/12/2013,No Data,N,No Data,No Data,54,Unified School District,66,High Schools (Public),TRAD,Traditional,HS,High School,9-12,9-12,C,N,33.804102,-118.30736999999999,Gregory,Fisher,gfisher@lausd.net,No Data,No Data,No Data,No Data,No Data,No Data,06/30/2017,127787
19647330127795,622710,13271,Active,Los Angeles,Los Angeles Unified,Contreras Learning Center-School of Social Justice,322 South Lucas Avenue,322 South Lucas Ave.,Los Angeles,90017-1406,CA,322 South Lucas Avenue,322 South Lucas Ave.,Los Angeles,90017-1406,CA,(213) 240-3800,No Data,www.socialjusticemclc.org/,08/12/2013,No Data,N,No Data,No Data,54,Unified School District,66,High Schools (Public),TRAD,Traditional,HS,High School,9-12,9-12,N,N,34.058178999999996,-118.26087,Nova.,Meza,nmeza@lausd.net,No Data,No Data,No Data,No Data,No Data,No Data,10/30/2017,127795
19647330127803,622710,13434,Active,Los Angeles,Los Angeles Unified,Early College Academy-LA Trade Tech College,400 West Washington Boulevard,400 West Washington Blvd.,Los Angeles,90015-4108,CA,400 West Washington Boulevard,400 West Washington Blvd.,Los Angeles,90015-4108,CA,(213) 763-3685,No Data,www.ecalattc.org,08/12/2013,No Data,N,No Data,No Data,54,Unified School District,66,High Schools (Public),TRAD,Traditional,HS,High School,9-12,10-12,C,N,34.033179,-118.27006000000002,Raymond,Aubele,raymond.aubele@lausd.net,No Data,No Data,No Data,No Data,No Data,No Data,08/15/2017,127803
19647330127910,622710,13537,Active,Los Angeles,Los Angeles Unified,Camino Nuevo High #2,3500 West Temple Street,3500 West Temple St.,Los Angeles,90004-3620,CA,3500 West Temple Street,3500 West Temple St.,Los Angeles,90004-3620,CA,(213) 736-5566,No Data,http://dalzelllance.caminonuevo.org,08/19/2013,No Data,Y,1540,Directly funded,54,Unified School District,66,High Schools (Public),TRAD,Traditional,HS,High School,9-12,9-12,N,N,34.076443,-118.2855,Lawrence,Boone,lawrence.boone@caminonuevo.org,No Data,No Data,No Data,No Data,No Data,No Data,07/23/2018,127910
19647330129536,622710,13775,Active,Los Angeles,Los Angeles Unified,Boyle Heights STEM High,2550 East 6th Street,2550 East 6th St.,Los Angeles,90023-1420,CA,2550 East 6th Street,2550 East 6th St.,Los Angeles,90023-1420,CA,(323) 268-1031,No Data,www.stemboyleheights-lausd-ca.schoolloop.com,08/12/2014,No Data,N,No Data,No Data,54,Unified School District,66,High Schools (Public),TRAD,Traditional,HS,High School,9-12,9-12,C,N,34.036473,-118.2123,Adriana,Trejo,adriana.trejo@lausd.net,No Data,No Data,No Data,No Data,No Data,No Data,07/14/2018,129536
19647330129585,622710,13737,Active,Los Angeles,Los Angeles Unified,NAVA College Preparatory Academy,1319 East 41st Street,1319 East 41st St.,Los Angeles,90011-3301,CA,1319 East 41st Street,1319 East 41st St.,Los Angeles,90011-3301,CA,(323) 235-6800,No Data,www.navacollegeprep.weebly.com/,08/12/2014,No Data,N,No Data,No Data,54,Unified School District,66,High Schools (Public),TRAD,Traditional,HS,High School,9-12,9-12,N,N,34.009547,-118.25116000000001,Gustavo,Barrientos,gbarrien@lausd.net,No Data,No Data,No Data,No Data,No Data,No Data,10/30/2017,129585
19647330130997,622710,13831,Active,Los Angeles,Los Angeles Unified,Sylmar Biotech Health Academy,13050 Borden Avenue,13050 Borden Ave.,Sylmar,91342-4251,CA,13050 Borden Avenue,13050 Borden Ave.,Sylmar,91342-4251,CA,(818) 833-3723,No Data,No Data,08/12/2014,No Data,N,No Data,No Data,54,Unified School District,66,High Schools (Public),TRAD,Traditional,HS,High School,9-12,9-12,N,N,34.307364,-118.44288,Maria,Herrera,meh7212@lausd.net,No Data,No Data,No Data,No Data,No Data,No Data,06/18/2015,130997
19647330132126,622710,13897,Active,Los Angeles,Los Angeles Unified,Bert Corona Charter High,12513 Gain Street,12513 Gain St.,Pacoima,91331-1628,CA,12513 Gain Street,12513 Gain St.,Pacoima,91331-1628,CA,(818) 480-6810,No Data,No Data,08/12/2015,No Data,Y,1724,Directly funded,54,Unified School District,66,High Schools (Public),TRAD,Traditional,HS,High School,9-12,9-12,N,N,34.271263,-118.40446000000001,Yolanda,Fuentes,msfuentes@coronacharter.org,No Data,No Data,No Data,No Data,No Data,No Data,08/20/2018,132126
19647330133272,622710,12812,Active,Los Angeles,Los Angeles Unified,PUC Triumph Charter Academy and PUC Triumph Charter High,13361 Glenoaks Boulevard,13361 Glenoaks Blvd.,Sylmar,91342-4265,CA,"1405 North San Fernando Boulevard, Suite 303","1405 North San Fernando Blvd., Ste. 303",Burbank,91504,CA,(818) 837-6221,No Data,http://pucschools.org,07/01/2015,No Data,Y,0797,Directly funded,54,Unified School District,65,K-12 Schools (Public),TRAD,Traditional,ELEMHIGH,Elementary-High Combination,6-12,6-12,N,N,34.31419,-118.45976,Emily,Biddle,e.biddle@pucschools.org,Jaime,Salcedo,j.salcido@pucschools.org,No Data,No Data,No Data,10/04/2018,133272
19647330133280,622710,13947,Active,Los Angeles,Los Angeles Unified,PUC Nueva Esperanza Charter Academy,1218 North Fourth Street,1218 North Fourth St.,San Fernando,91340-2314,CA,"1405 North San Fernando Boulevard, Suite 303","1405 North San Fernando Blvd., Ste. 303",Burbank,91504,CA,(818) 256-1951,No Data,http://pucschools.org,07/01/2015,No Data,Y,1092,Directly funded,54,Unified School District,65,K-12 Schools (Public),TRAD,Traditional,ELEMHIGH,Elementary-High Combination,6-12,6-11,N,N,34.287618,-118.43853999999999,Errin,Robinson,e.robinson@pucschools.org,No Data,No Data,No Data,No Data,No Data,No Data,08/02/2018,133280
19647330133603,622710,13968,Active,Los Angeles,Los Angeles Unified,"Girls Academic Leadership Academy, Dr. Michelle King School for Sci, Tech, Eng and Math",1067 West Boulevard,1067 West Blvd.,Los Angeles,90019-1839,CA,1067 West Boulevard,1067 West Blvd.,Los Angeles,90019-1839,CA,(323) 900-4533,No Data,www.galacademy.org,08/16/2016,No Data,N,No Data,No Data,54,Unified School District,65,K-12 Schools (Public),TRAD,Traditional,ELEMHIGH,Elementary-High Combination,6-12,6-10,C,N,34.055341,-118.33152,Elizabeth,Ackerman Hicks,ela9670@lausd.net,No Data,No Data,No Data,No Data,No Data,No Data,04/05/2018,133603
19647330135632,622710,14098,Active,Los Angeles,Los Angeles Unified,WISH Academy High,7400 West Manchester Avenue,7400 West Manchester Ave.,Los Angeles,90045-2322,CA,7400 West Manchester Avenue,7400 West Manchester Ave.,Los Angeles,90045-2322,CA,(310) 743-6990,No Data,www.wishcharter.org,08/16/2017,No Data,Y,1863,Directly funded,54,Unified School District,66,High Schools (Public),TRAD,Traditional,HS,High School,9-12,9,N,N,33.957763,-118.42888,Kellie,Mowll,kmowll@wishcharter.org,No Data,No Data,No Data,No Data,No Data,No Data,09/26/2018,135632
19647330135681,622710,14112,Active,Los Angeles,Los Angeles Unified,Horace Mann UCLA Community,7001 South Saint Andrews Place,7001 South Saint Andrews Pl.,Los Angeles,90047-1833,CA,7001 South Saint Andrews Place,7001 South Saint Andrews Pl.,Los Angeles,90047-1833,CA,(323) 541-1900,No Data,No Data,08/15/2017,No Data,N,No Data,No Data,54,Unified School District,65,K-12 Schools (Public),TRAD,Traditional,INTMIDJR,Intermediate/Middle/Junior High,K-12,6-9,N,N,33.976593,-118.31225,Orlando,Johnson,omj0354@lausd.net,No Data,No Data,No Data,No Data,No Data,No Data,03/14/2018,135681
19647330135715,622710,14117,Active,Los Angeles,Los Angeles Unified,Ednovate - Esperanza College Prep,319 North Humphreys Avenue,319 North Humphreys Ave.,East Los Angeles,90022-1422,CA,319 North Humphreys Avenue,319 North Humphreys Ave.,East Los Angeles,90022-1422,CA,(323) 457-0050,No Data,www.ednovate.org/esperanza,08/07/2017,No Data,Y,1842,Directly funded,54,Unified School District,66,High Schools (Public),TRAD,Traditional,HS,High School,9-12,9,N,N,34.038931,-118.17147,Rosa,Alanis,ralanis@ednovate.org,No Data,No Data,No Data,No Data,No Data,No Data,03/14/2018,135715
19647330135723,622710,14104,Active,Los Angeles,Los Angeles Unified,Ednovate - Brio College Prep,"700 Wilshire Boulevard, Suite 400","700 Wilshire Blvd., Ste. 400",Los Angeles,90017-3837,CA,"700 Wilshire Boulevard, Suite 400","700 Wilshire Blvd., Ste. 400",Los Angeles,90017-3837,CA,(323) 446-2570,No Data,www.ednovate.org/picounionwestlake,08/07/2017,No Data,Y,1843,Directly funded,54,Unified School District,66,High Schools (Public),TRAD,Traditional,HS,High School,9-12,9,N,N,34.048625,-118.25745,Karl,Wendt,kwendt@uscbrio.org,No Data,No Data,No Data,No Data,No Data,No Data,10/13/2018,135723
19647330135855,622710,14102,Active,Los Angeles,Los Angeles Unified,Maywood Center for Enriched Studies,5800 King Avenue,5800 King Ave.,Maywood,90270-2928,CA,5800 King Avenue,5800 King Ave.,Maywood,90270-2928,CA,(323) 210-1412,No Data,No Data,08/15/2017,No Data,N,No Data,No Data,54,Unified School District,65,K-12 Schools (Public),TRAD,Traditional,ELEMHIGH,Elementary-High Combination,6-12,6-11,N,Y,33.987863,-118.18326,Gabriel,Duran,gduran@lausd.net,No Data,No Data,No Data,No Data,No Data,No Data,03/14/2018,135855
19647330135996,622710,14106,Active,Los Angeles,Los Angeles Unified,Boys Academic Leadership Academy,1511 West 110th Street,1511 West 110th St.,Los Angeles,90047-4912,CA,1511 West 110th Street,1511 West 110th St.,Los Angeles,90047-4912,CA,(323) 820-6231,No Data,No Data,08/15/2017,No Data,N,No Data,No Data,54,Unified School District,65,K-12 Schools (Public),TRAD,Traditional,INTMIDJR,Intermediate/Middle/Junior High,6-12,6-7,N,N,33.936028,-118.30311999999999,Donald,Moorer,dsm0789@lausd.net,No Data,No Data,No Data,No Data,No Data,No Data,06/05/2018,135996
19647330137083,622710,No Data,Active,Los Angeles,Los Angeles Unified,University Pathways Medical Magnet Academy,11227 South San Pedro Street,11227 South San Pedro St.,Los Angeles,90061-2566,CA,11227 South San Pedro Street,11227 South San Pedro St.,Los Angeles,90061-2566,CA,(323) 241-4060,No Data,No Data,08/14/2018,No Data,N,No Data,No Data,54,Unified School District,66,High Schools (Public),TRAD,Traditional,HS,High School,9-12,No Data,N,Y,33.932721,-118.26992,Dorothy,Cotton-Kindred,dorothy.r.cotton@lausd.net,No Data,No Data,No Data,No Data,No Data,No Data,10/18/2018,137083
19647330137091,622710,No Data,Active,Los Angeles,Los Angeles Unified,University Pathways Public Service Academy,1415 Firestone Boulevard,1415 Firestone Blvd.,Los Angeles,90001-3854,CA,1415 Firestone Boulevard,1415 Firestone Blvd.,Los Angeles,90001-3854,CA,(323) 277-1800,No Data,No Data,08/14/2018,No Data,N,No Data,No Data,54,Unified School District,66,High Schools (Public),TRAD,Traditional,HS,High School,9-12,No Data,N,N,33.961125,-118.24902,Amen,Rahh,amen.rahh@lausd.net,No Data,No Data,No Data,No Data,No Data,No Data,09/14/2018,137091
19647330137521,622710,No Data,Active,Los Angeles,Los Angeles Unified,Vox Collegiate of Los Angeles,1100 West Manchester Avenue,1100 West Manchester Ave.,Los Angeles,90019-3430,CA,1353 Masselin Avenue,1353 Masselin Ave.,Los Angeles,90019,CA,(323) 902-7133,No Data,www.voxcollegiate.org,08/20/2018,No Data,Y,1917,Directly funded,54,Unified School District,65,K-12 Schools (Public),TRAD,Traditional,ELEMHIGH,Elementary-High Combination,6-10,No Data,N,N,33.959629,-118.29418000000001,TyAnthony,Davis,tdavis@voxcollegiate.org,No Data,No Data,No Data,No Data,No Data,No Data,11/06/2018,137521
19647330137562,622710,No Data,Active,Los Angeles,Los Angeles Unified,Matrix for Success Academy,1010 East 34th Street,1010 East 34th St.,Los Angeles,90011-2527,CA,1010 East 34th Street,1010 East 34th St.,Los Angeles,90011-2527,CA,(323) 897-5971,No Data,www.matrix4success.org,07/09/2018,No Data,Y,1961,Directly funded,54,Unified School District,66,High Schools (Public),TRAD,Traditional,HS,High School,9-12,No Data,N,N,34.012475,-118.25769,Rosalind,Mickels-Miller,rmiller@matrix4success.org,No Data,No Data,No Data,No Data,No Data,No Data,10/19/2018,137562
19647330137612,622710,No Data,Active,Los Angeles,Los Angeles Unified,Valley International Preparatory High,10027 Lurline Avenue,10027 Lurline Ave.,Chatsworth,91311-3153,CA,"11333 Moorpark Street, #155","11333 Moorpark St., #155",Valley Village,91602,CA,(818) 306-2136,No Data,www.viphs.org,08/15/2018,No Data,Y,1926,Directly funded,54,Unified School District,66,High Schools (Public),TRAD,Traditional,HS,High School,9-12,No Data,N,N,34.253424,-118.58606,Anne,Cochran,acochranviphs@gmail.com,Michael,Horne,mhorneviphs@gmail.com,No Data,No Data,No Data,10/10/2018,137612
19647331930650,622710,02838,Active,Los Angeles,Los Angeles Unified,Phineas Banning Senior High,1527 Lakme Avenue,1527 Lakme Ave.,Wilmington,90744-1526,CA,1527 Lakme Avenue,1527 Lakme Ave.,Wilmington,90744-1526,CA,(310) 847-3700,No Data,www.banninghs.org,07/01/1911,No Data,N,No Data,No Data,54,Unified School District,66,High Schools (Public),TRAD,Traditional,HS,High School,9-12,9-12,N,Y,33.794038,-118.2608,Rudy,Mendoza,rjm1902@lausd.net,No Data,No Data,No Data,No Data,No Data,No Data,10/30/2017,1930650
19647331930866,622710,02844,Active,Los Angeles,Los Angeles Unified,Bell Senior High,4328 Bell Avenue,4328 Bell Ave.,Bell,90201-2528,CA,4328 Bell Avenue,4328 Bell Ave.,Bell,90201-2528,CA,(323) 832-4700,No Data,www.bellhs.org,07/01/1926,No Data,N,No Data,No Data,54,Unified School District,66,High Schools (Public),TRAD,Traditional,HS,High School,9-12,9-12,N,Y,33.974658000000005,-118.19031000000001,Rafael,Balderas,rbald2@lausd.net,No Data,No Data,No Data,No Data,No Data,No Data,02/13/2018,1930866
19647331930924,622710,07751,Active,Los Angeles,Los Angeles Unified,Belmont Senior High,1575 West 2nd Street,1575 West 2nd St.,Los Angeles,90026-5701,CA,1575 West 2nd Street,1575 West 2nd St.,Los Angeles,90026-5701,CA,(213) 241-4300,No Data,www.Belmonthighschool.org,07/01/1923,No Data,N,No Data,No Data,54,Unified School District,66,High Schools (Public),TRAD,Traditional,HS,High School,9-12,9-12,N,N,34.061221999999994,-118.26301000000001,Elsa,Mendoza,elsa.mendoza@lausd.net,No Data,No Data,No Data,No Data,No Data,No Data,10/30/2017,1930924
19647331931047,622710,02857,Active,Los Angeles,Los Angeles Unified,Birmingham Community Charter High,17000 Haynes Street,17000 Haynes St.,Lake Balboa,91406-5420,CA,17000 Haynes Street,17000 Haynes St.,Lake Balboa,91406-5420,CA,(818) 758-5200,No Data,http://birminghamcharter.com,09/01/1952,No Data,Y,1119,Directly funded,54,Unified School District,66,High Schools (Public),TRAD,Traditional,HS,High School,9-12,9-12,C,N,34.188953000000005,-118.5049,Tracie,Bowdoin,t.bowdoin@birminghamcharter.com,No Data,No Data,No Data,No Data,No Data,No Data,08/22/2018,1931047
19647331931476,622710,02890,Active,Los Angeles,Los Angeles Unified,Canoga Park Senior High,6850 Topanga Canyon Boulevard,6850 Topanga Canyon Blvd.,Canoga Park,91303-2354,CA,6850 Topanga Canyon Boulevard,6850 Topanga Canyon Blvd.,Canoga Park,91303-2354,CA,(818) 673-1300,No Data,www.canogaparkhs.org,07/01/1915,No Data,N,No Data,No Data,54,Unified School District,66,High Schools (Public),TRAD,Traditional,HS,High School,9-12,9-12,C,Y,34.195572999999996,-118.60578999999998,Robert,Garcia,robert.r.garcia@lausd.net,No Data,No Data,No Data,No Data,No Data,No Data,10/30/2017,1931476
19647331931526,622710,02899,Active,Los Angeles,Los Angeles Unified,Carson Senior High,22328 South Main Street,22328 South Main St.,Carson,90745-4525,CA,22328 South Main Street,22328 South Main St.,Carson,90745-4525,CA,(310) 847-6000,No Data,www.carsonhs-lausd-ca.schoolloop.com,07/01/1963,No Data,N,No Data,No Data,54,Unified School District,66,High Schools (Public),TRAD,Traditional,HS,High School,9-12,9-12,C,N,33.823776,-118.27575,Windy,Warren,winwarren@lausd.net,No Data,No Data,No Data,No Data,No Data,No Data,10/30/2017,1931526
19647331931708,622710,02916,Active,Los Angeles,Los Angeles Unified,Chatsworth Charter High,10027 Lurline Avenue,10027 Lurline Ave.,Chatsworth,91311-3153,CA,10027 Lurline Avenue,10027 Lurline Ave.,Chatsworth,91311-3153,CA,(818) 678-3400,No Data,www.lausd.k12.ca.us/Chatsworth_HS,07/01/1963,No Data,Y,1581,Locally funded,54,Unified School District,66,High Schools (Public),TRAD,Traditional,HS,High School,9-12,9-12,N,N,34.252319,-118.58425,Timothy,Guy,tguy@lausd.net,No Data,No Data,No Data,No Data,No Data,No Data,10/30/2017,1931708
19647331931864,622710,02923,Active,Los Angeles,Los Angeles Unified,Grover Cleveland Charter High,8140 Vanalden Avenue,8140 Vanalden Ave.,Reseda,91335-1136,CA,8140 Vanalden Avenue,8140 Vanalden Ave.,Reseda,91335-1136,CA,(818) 885-2300,No Data,www.lausd.k12.ca.us/Cleveland_HS,07/01/1959,No Data,Y,1571,Locally funded,54,Unified School District,66,High Schools (Public),TRAD,Traditional,HS,High School,9-12,9-12,N,Y,34.218185999999996,-118.5491,Cindy,Duong,cindy.duong@lausd.net,No Data,No Data,No Data,No Data,No Data,No Data,10/30/2017,1931864
19647331932128,622710,02941,Active,Los Angeles,Los Angeles Unified,"Crenshaw Science, Technology, Engineering, Math and Medicine Magnet",5010 11th Avenue,5010 11th Ave.,Los Angeles,90043-4816,CA,5010 11th Avenue,5010 11th Ave.,Los Angeles,90043-4816,CA,(323) 290-7800,No Data,www.crenshawhs.org,07/01/1968,No Data,N,0175,No Data,54,Unified School District,66,High Schools (Public),TRAD,Traditional,HS,High School,9-12,9-12,N,Y,33.997541,-118.32928999999999,Peter,Benefiel,peter.benefiel@lausd.net,No Data,No Data,No Data,No Data,No Data,No Data,07/27/2018,1932128
19647331932383,622710,02965,Active,Los Angeles,Los Angeles Unified,Susan Miller Dorsey Senior High,3537 Farmdale Avenue,3537 Farmdale Ave.,Los Angeles,90016-4707,CA,3537 Farmdale Avenue,3537 Farmdale Ave.,Los Angeles,90016-4707,CA,(323) 298-8400,No Data,www.lausd.k12.ca.us/Dorsey_HS,07/01/1937,No Data,N,No Data,No Data,54,Unified School District,66,High Schools (Public),TRAD,Traditional,HS,High School,9-12,9-12,N,Y,34.022994,-118.3461,Sean,Gaston,sgaston@lausd.net,No Data,No Data,No Data,No Data,No Data,No Data,10/30/2017,1932383
19647331932540,622710,02970,Active,Los Angeles,Los Angeles Unified,Eagle Rock High,1750 Yosemite Drive,1750 Yosemite Dr.,Los Angeles,90041-2815,CA,1750 Yosemite Drive,1750 Yosemite Dr.,Los Angeles,90041-2815,CA,(323) 340-3500,No Data,www.erhs.la,07/01/1927,No Data,N,No Data,No Data,54,Unified School District,66,High Schools (Public),TRAD,Traditional,HS,High School,7-12,7-12,N,Y,34.133337,-118.20603,Mylene,Keipp,mylene.keipp@lausd.net,No Data,No Data,No Data,No Data,No Data,No Data,10/30/2017,1932540
19647331932623,622710,02977,Active,Los Angeles,Los Angeles Unified,El Camino Real Charter High,5440 Valley Circle Boulevard,5440 Valley Cir. Blvd.,Woodland Hills,91367-5949,CA,5440 Valley Circle Boulevard,5440 Valley Cir. Blvd.,Woodland Hills,91367-5949,CA,(818) 595-7500,No Data,http://ecrchs.net,07/01/1969,No Data,Y,1314,Directly funded,54,Unified School District,66,High Schools (Public),TRAD,Traditional,HS,High School,9-12,9-12,N,N,34.169284999999995,-118.64335,David,Hussey,d.hussey@ecrchs.net,No Data,No Data,No Data,No Data,No Data,No Data,09/08/2017,1932623
19647331932920,622710,02998,Active,Los Angeles,Los Angeles Unified,Fairfax Senior High,7850 Melrose Avenue,7850 Melrose Ave.,Los Angeles,90046-7210,CA,7850 Melrose Avenue,7850 Melrose Ave.,Los Angeles,90046-7210,CA,(323) 370-1200,No Data,www.lausd.k12.ca.us/Fairfax_HS,07/01/1924,No Data,N,No Data,No Data,54,Unified School District,66,High Schools (Public),TRAD,Traditional,HS,High School,9-12,9-12,N,Y,34.083740999999996,-118.36072,Kenneth,Adiekweh,kadiekwe@lausd.net,No Data,No Data,No Data,No Data,No Data,No Data,10/30/2017,1932920
19647331932987,622710,03020,Active,Los Angeles,Los Angeles Unified,John H. Francis Polytechnic,12431 Roscoe Boulevard,12431 Roscoe Blvd.,Sun Valley,91352-3723,CA,12431 Roscoe Boulevard,12431 Roscoe Blvd.,Sun Valley,91352-3723,CA,(818) 394-3600,No Data,www.lausd.k12.ca.us/Poly_HS,07/01/1956,No Data,N,No Data,No Data,54,Unified School District,66,High Schools (Public),TRAD,Traditional,HS,High School,9-12,9-12,C,Y,34.221721,-118.40408000000001,Elidia,Vazquez,evazq1@lausd.net,No Data,No Data,No Data,No Data,No Data,No Data,10/30/2017,1932987
19647331933043,622710,03021,Active,Los Angeles,Los Angeles Unified,Benjamin Franklin Senior High,820 North Avenue 54,820 North Avenue 54,Los Angeles,90042-2428,CA,820 North Avenue 54,820 North Avenue 54,Los Angeles,90042-2428,CA,(323) 550-2000,No Data,www.lausd.k12.ca.us/Franklin_HS,07/01/1916,No Data,N,No Data,No Data,54,Unified School District,65,K-12 Schools (Public),TRAD,Traditional,ELEMHIGH,Elementary-High Combination,6-12,6-12,N,N,34.115417,-118.19906,Regina,Marquez Martinez,rmarq3@lausd.net,No Data,No Data,No Data,No Data,No Data,No Data,10/30/2017,1933043
19647331933118,622710,03023,Active,Los Angeles,Los Angeles Unified,John C. Fremont Senior High,7676 South San Pedro Street,7676 South San Pedro St.,Los Angeles,90003-2348,CA,7676 South San Pedro Street,7676 South San Pedro St.,Los Angeles,90003-2348,CA,(323) 565-1200,No Data,www.lausd.k12.ca.us/Fremont_HS,07/01/1924,No Data,N,No Data,No Data,54,Unified School District,66,High Schools (Public),TRAD,Traditional,HS,High School,9-12,9-12,N,Y,33.970022,-118.26943999999999,Luis,Montoya,lmontoya@lausd.net,No Data,No Data,No Data,No Data,No Data,No Data,10/30/2017,1933118
19647331933241,622710,03034,Active,Los Angeles,Los Angeles Unified,Gardena Senior High,1301 West 182nd Street,1301 West 182nd St.,Gardena,90248-3322,CA,1301 West 182nd Street,1301 West 182nd St.,Gardena,90248-3322,CA,(310) 354-5000,No Data,www.gardenashs.org,07/01/1907,No Data,N,No Data,No Data,54,Unified School District,66,High Schools (Public),TRAD,Traditional,HS,High School,9-12,9-12,C,Y,33.866372,-118.29633000000001,Rosemarie,Martinez,rmart8@lausd.net,No Data,No Data,No Data,No Data,No Data,No Data,10/30/2017,1933241
19647331933381,622710,03037,Active,Los Angeles,Los Angeles Unified,James A. Garfield Senior High,5101 East Sixth Street,5101 East Sixth St.,Los Angeles,90022-3209,CA,5101 East Sixth Street,5101 East Sixth St.,Los Angeles,90022-3209,CA,(323) 981-5500,No Data,www.lausd.k12.ca.us/garfield_hs,07/01/1925,No Data,N,No Data,No Data,54,Unified School District,66,High Schools (Public),TRAD,Traditional,HS,High School,9-12,9-12,C,Y,34.025353,-118.15786999999999,Andres,Favela,afavel2@lausd.net,No Data,No Data,No Data,No Data,No Data,No Data,07/27/2018,1933381
19647331933746,622710,03050,Active,Los Angeles,Los Angeles Unified,Granada Hills Charter High,10535 Zelzah Avenue,10535 Zelzah Ave.,Granada Hills,91344-5902,CA,10535 Zelzah Avenue,10535 Zelzah Ave.,Granada Hills,91344-5902,CA,(818) 360-2361,No Data,http://ghchs.com,07/01/1960,No Data,Y,0572,Directly funded,54,Unified School District,66,High Schools (Public),TRAD,Traditional,HS,High School,9-12,9-12,C,N,34.261787,-118.52343,Brian,Bauer,bbauer@ghchs.com,No Data,No Data,No Data,No Data,No Data,No Data,09/08/2017,1933746
19647331933795,622710,03052,Active,Los Angeles,Los Angeles Unified,Ulysses S. Grant Senior High,13000 Oxnard Street,13000 Oxnard St.,Van Nuys,91401-4114,CA,13000 Oxnard Street,13000 Oxnard St.,Van Nuys,91401-4114,CA,(818) 756-2700,No Data,www.granths.org,07/01/1959,No Data,N,No Data,No Data,54,Unified School District,66,High Schools (Public),TRAD,Traditional,HS,High School,9-12,9-12,C,Y,34.179356,-118.4158,Pamela,Damonte,pdamonte@lausd.net,No Data,No Data,No Data,No Data,No Data,No Data,10/30/2017,1933795
19647331933852,622710,03064,Active,Los Angeles,Los Angeles Unified,Alexander Hamilton Senior High,2955 Robertson Boulevard,2955 Robertson Blvd.,Los Angeles,90034-3116,CA,2955 Robertson Boulevard,2955 Robertson Blvd.,Los Angeles,90034-3116,CA,(310) 280-1400,No Data,www.hamiltonhs-lausd-ca.schoolloop.com,07/01/1931,No Data,N,No Data,No Data,54,Unified School District,66,High Schools (Public),TRAD,Traditional,HS,High School,9-12,9-12,C,Y,34.033458,-118.38968999999999,Brenda,Pensamiento,bpensami@lausd.net,No Data,No Data,No Data,No Data,No Data,No Data,10/30/2017,1933852
19647331934033,622710,03088,Active,Los Angeles,Los Angeles Unified,Hollywood Senior High,1521 North Highland Avenue,1521 North Highland Ave.,Los Angeles,90028-7001,CA,1521 North Highland Avenue,1521 North Highland Ave.,Los Angeles,90028-7001,CA,(323) 993-1700,No Data,www.lausd.k12.ca.us/hollywood_hs,07/01/1910,No Data,N,No Data,No Data,54,Unified School District,66,High Schools (Public),TRAD,Traditional,HS,High School,9-12,9-12,N,Y,34.098357,-118.33872,Edward,Colacion,eac3110@lausd.net,No Data,No Data,No Data,No Data,No Data,No Data,02/16/2018,1934033
19647331934157,622710,03098,Active,Los Angeles,Los Angeles Unified,Huntington Park Senior High,6020 Miles Avenue,6020 Miles Ave.,Huntington Park,90255-3109,CA,6020 Miles Avenue,6020 Miles Ave.,Huntington Park,90255-3109,CA,(323) 826-2300,No Data,www.lausd.net/Huntinton_Park_HS,07/01/1909,No Data,N,No Data,No Data,54,Unified School District,66,High Schools (Public),TRAD,Traditional,HS,High School,9-12,9-12,N,N,33.986707,-118.21921,Carlos,Garibaldi,cgaribal@lausd.net,No Data,No Data,No Data,No Data,No Data,No Data,10/30/2017,1934157
19647331934371,622710,03106,Active,Los Angeles,Los Angeles Unified,Thomas Jefferson Senior High,1319 East 41st Street,1319 East 41st St.,Los Angeles,90011-3301,CA,1319 East 41st Street,1319 East 41st St.,Los Angeles,90011-3301,CA,(323) 521-1200,No Data,www.jefferson-lausd-ca.schoolloop.com,07/01/1917,No Data,N,No Data,No Data,54,Unified School District,66,High Schools (Public),TRAD,Traditional,HS,High School,9-12,9-12,C,N,34.009239,-118.25153999999999,Agustin,Gonzalez,agustin.gonzalez@lausd.net,No Data,No Data,No Data,No Data,No Data,No Data,10/30/2017,1934371
19647331934454,622710,03109,Active,Los Angeles,Los Angeles Unified,David Starr Jordan Senior High,2265 East 103rd Street,2265 East 103rd St.,Los Angeles,90002-3132,CA,2265 East 103rd Street,2265 East 103rd St.,Los Angeles,90002-3132,CA,(323) 568-4100,No Data,www.jhs-lausd-ca.schoolloop.com,07/01/1925,No Data,N,No Data,No Data,54,Unified School District,66,High Schools (Public),TRAD,Traditional,HS,High School,9-12,9-12,C,N,33.943160999999996,-118.23128999999999,Thomas,Gutierrez,tgutie1@lausd.net,No Data,No Data,No Data,No Data,No Data,No Data,10/31/2018,1934454
19647331935121,622710,03139,Active,Los Angeles,Los Angeles Unified,Abraham Lincoln Senior High,3501 North Broadway,3501 North Broadway,Los Angeles,90031-2856,CA,3501 North Broadway,3501 North Broadway,Los Angeles,90031-2856,CA,(323) 441-4600,No Data,www.lincolnhs.org,07/01/1878,No Data,N,No Data,No Data,54,Unified School District,66,High Schools (Public),TRAD,Traditional,HS,High School,9-12,9-12,C,Y,34.073873,-118.20386,Rose Anne,Ruiz,rvr8954@lausd.net,No Data,No Data,No Data,No Data,No Data,No Data,07/27/2018,1935121
19647331935352,622710,03151,Active,Los Angeles,Los Angeles Unified,Los Angeles Senior High,4650 West Olympic Boulevard,4650 West Olympic Blvd.,Los Angeles,90019-1831,CA,4650 West Olympic Boulevard,4650 West Olympic Blvd.,Los Angeles,90019-1831,CA,(323) 900-2700,No Data,www.lausd.k12.ca.us/Los_Angeles_HS,07/01/1873,No Data,N,No Data,No Data,54,Unified School District,66,High Schools (Public),TRAD,Traditional,HS,High School,9-12,9-12,C,Y,34.056695,-118.33316,Travis,Brandy,travis.brandy@lausd.net,No Data,No Data,No Data,No Data,No Data,No Data,10/30/2017,1935352
19647331935519,622710,03163,Active,Los Angeles,Los Angeles Unified,Manual Arts Senior High,4131 South Vermont Avenue,4131 South Vermont Ave.,Los Angeles,90037-1918,CA,4131 South Vermont Avenue,4131 South Vermont Ave.,Los Angeles,90037-1918,CA,(323) 846-7300,No Data,www.lausd.k12.ca.us/manual_arts_hs,07/01/1910,No Data,N,No Data,No Data,54,Unified School District,66,High Schools (Public),TRAD,Traditional,HS,High School,9-12,9-12,C,Y,34.008208,-118.2916,Erica,Thomas,emt0904@lausd.net,No Data,No Data,No Data,No Data,No Data,No Data,05/11/2018,1935519
19647331935568,622710,03171,Active,Los Angeles,Los Angeles Unified,John Marshall Senior High,3939 Tracy Street,3939 Tracy St.,Los Angeles,90027-3207,CA,3939 Tracy Street,3939 Tracy St.,Los Angeles,90027-3207,CA,(323) 671-1400,No Data,www.lausd.k12.ca.us/Marshall_HS,07/01/1931,No Data,N,No Data,No Data,54,Unified School District,66,High Schools (Public),TRAD,Traditional,HS,High School,9-12,9-12,N,Y,34.107762,-118.27756000000001,Gary,Garcia,gary.p.garcia@lausd.net,No Data,No Data,No Data,No Data,No Data,No Data,10/30/2017,1935568
19647331935865,622710,03193,Active,Los Angeles,Los Angeles Unified,James Monroe High,9229 Haskell Avenue,9229 Haskell Ave.,North Hills,91343-3114,CA,9229 Haskell Avenue,9229 Haskell Ave.,North Hills,91343-3114,CA,(818) 830-4200,No Data,www.monroehs.org,07/01/1958,No Data,N,No Data,No Data,54,Unified School District,66,High Schools (Public),TRAD,Traditional,HS,High School,9-12,9-12,N,Y,34.237885,-118.47636999999999,Christopher,Rosas,crosas1@lausd.net,No Data,No Data,No Data,No Data,No Data,No Data,10/30/2017,1935865
19647331936160,622710,03209,Active,Los Angeles,Los Angeles Unified,Nathaniel Narbonne Senior High,24300 Western Avenue,24300 Western Ave.,Harbor City,90710-1742,CA,24300 Western Avenue,24300 Western Ave.,Harbor City,90710-1742,CA,(310) 257-7100,No Data,www.narbonnehsgauchos.com,07/01/1916,No Data,N,No Data,No Data,54,Unified School District,66,High Schools (Public),TRAD,Traditional,HS,High School,9-12,9-12,N,Y,33.804075,-118.30731000000002,Gerald,Kobata,gkobata@lausd.net,No Data,No Data,No Data,No Data,No Data,No Data,10/30/2017,1936160
19647331936350,622710,03230,Active,Los Angeles,Los Angeles Unified,North Hollywood Senior High,5231 Colfax Avenue,5231 Colfax Ave.,North Hollywood,91601-3002,CA,5231 Colfax Avenue,5231 Colfax Ave.,North Hollywood,91601-3002,CA,(818) 753-6200,No Data,www.lausd.k12.ca.us/North_Hollywood_HS,07/01/1927,No Data,N,No Data,No Data,54,Unified School District,66,High Schools (Public),TRAD,Traditional,HS,High School,9-12,9-12,N,Y,34.165883,-118.38781999999999,Ricardo,Rosales,rxr0552@lausd.net,No Data,No Data,No Data,No Data,No Data,No Data,10/30/2017,1936350
19647331937226,622710,03301,Active,Los Angeles,Los Angeles Unified,Reseda Charter High,18230 Kittridge Street,18230 Kittridge St.,Reseda,91335-6121,CA,18230 Kittridge Street,18230 Kittridge St.,Reseda,91335-6121,CA,(818) 758-3600,No Data,www.resedahs.net,07/01/1955,No Data,Y,2005,Locally funded,54,Unified School District,66,High Schools (Public),TRAD,Traditional,HS,High School,9-12,9-12,N,Y,34.190181,-118.53052,Melanie,Welsh,melanie.welsh@lausd.net,No Data,No Data,No Data,No Data,No Data,No Data,09/11/2018,1937226
19647331937424,622710,03315,Active,Los Angeles,Los Angeles Unified,Theodore Roosevelt Senior High,456 South Mathews Street,456 South Mathews St.,Los Angeles,90033-4350,CA,456 South Mathews Street,456 South Mathews St.,Los Angeles,90033-4350,CA,(323) 780-6500,No Data,www.rooseveltlausd.org,07/01/2010,No Data,N,No Data,No Data,54,Unified School District,66,High Schools (Public),TRAD,Traditional,HS,High School,9-12,9-12,C,N,34.039171,-118.21118999999999,Benjamin,Gertner,ben.gertner@lausd.net,No Data,No Data,No Data,No Data,No Data,No Data,10/30/2017,1937424
19647331937622,622710,03325,Active,Los Angeles,Los Angeles Unified,San Fernando Senior High,11133 O'Melveny Avenue,11133 O'Melveny Ave.,San Fernando,91340-4426,CA,11133 O'Melveny Avenue,11133 O'Melveny Ave.,San Fernando,91340-4426,CA,(818) 898-7600,No Data,www.lausd.k12.ca.us/San_Fernando_HS,07/01/1952,No Data,N,No Data,No Data,54,Unified School District,66,High Schools (Public),TRAD,Traditional,HS,High School,9-12,9-12,N,Y,34.272472,-118.4421,Florentina,Mendoza-Werner,frm9012@lausd.net,No Data,No Data,No Data,No Data,No Data,No Data,10/30/2017,1937622
19647331937838,622710,03330,Active,Los Angeles,Los Angeles Unified,San Pedro Senior High,1001 West 15th Street,1001 West 15th St.,San Pedro,90731-3925,CA,1001 West 15th Street,1001 West 15th St.,San Pedro,90731-3925,CA,(310) 241-5800,No Data,www.lausd.k12.ca.us/San_Pedro_HS,07/01/1909,No Data,N,No Data,No Data,54,Unified School District,66,High Schools (Public),TRAD,Traditional,HS,High School,9-12,9-12,C,Y,33.73059,-118.29906000000001,Jeanette,Stevens,jls6008@lausd.net,No Data,No Data,No Data,No Data,No Data,No Data,10/30/2017,1937838
19647331938307,622710,03364,Active,Los Angeles,Los Angeles Unified,South Gate Senior High,3351 Firestone Boulevard,3351 Firestone Blvd.,South Gate,90280-2937,CA,3351 Firestone Boulevard,3351 Firestone Blvd.,South Gate,90280-2937,CA,(323) 568-5600,No Data,www.lausd.k12.ca.us/south_gate_hs,07/01/1932,No Data,N,No Data,No Data,54,Unified School District,66,High Schools (Public),TRAD,Traditional,HS,High School,9-12,9-12,N,N,33.954632000000004,-118.20975,Leo,Gonzalez,lgonza7@lausd.net,No Data,No Data,No Data,No Data,No Data,No Data,07/27/2018,1938307
19647331938554,622710,03385,Active,Los Angeles,Los Angeles Unified,Sylmar Charter High,13050 Borden Avenue,13050 Borden Ave.,Sylmar,91342-4251,CA,13050 Borden Avenue,13050 Borden Ave.,Sylmar,91342-4251,CA,(818) 833-3700,No Data,www.lausd.k12.ca.us/sylmar_hs,07/01/1961,No Data,Y,1834,Locally funded,54,Unified School District,66,High Schools (Public),TRAD,Traditional,HS,High School,9-12,9-12,C,Y,34.307294,-118.4428,Rodney,Wright,rodney.wright@lausd.net,No Data,No Data,No Data,No Data,No Data,No Data,07/26/2018,1938554
19647331938612,622710,03387,Active,Los Angeles,Los Angeles Unified,Taft Charter High,5461 Winnetka Avenue,5461 Winnetka Ave.,Woodland Hills,91364-2548,CA,5461 Winnetka Avenue,5461 Winnetka Ave.,Woodland Hills,91364-2548,CA,(818) 227-3600,No Data,www.lausd.k12.ca.us/Taft_HS,07/01/1960,No Data,Y,1580,Locally funded,54,Unified School District,66,High Schools (Public),TRAD,Traditional,HS,High School,9-12,9-12,N,N,34.16939,-118.57103000000001,Daniel,Steiner,daniel.steiner@lausd.net,No Data,No Data,No Data,No Data,No Data,No Data,10/30/2017,1938612
19647331938885,622710,03413,Active,Los Angeles,Los Angeles Unified,University High School Charter,11800 Texas Avenue,11800 Texas Ave.,Los Angeles,90025-1402,CA,11800 Texas Avenue,11800 Texas Ave.,Los Angeles,90025-1402,CA,(310) 914-3506,No Data,www.universitywildcats.org,07/01/1922,No Data,Y,2006,Locally funded,54,Unified School District,66,High Schools (Public),TRAD,Traditional,HS,High School,9-12,9-12,N,N,34.045716,-118.46133,Claudia,Middleton,cvr6481@lausd.net,No Data,No Data,No Data,No Data,No Data,No Data,12/19/2018,1938885
19647331938968,622710,03424,Active,Los Angeles,Los Angeles Unified,Van Nuys Senior High,6535 Cedros Avenue,6535 Cedros Ave.,Van Nuys,91411-1506,CA,6535 Cedros Avenue,6535 Cedros Ave.,Van Nuys,91411-1506,CA,(818) 778-6800,No Data,www.lausd.k12.ca.us/vnhs,07/01/1915,No Data,N,No Data,No Data,54,Unified School District,66,High Schools (Public),TRAD,Traditional,HS,High School,9-12,9-12,C,Y,34.189555,-118.45313999999999,Yolanda,Gardea,ygardea@lausd.net,No Data,No Data,No Data,No Data,No Data,No Data,10/30/2017,1938968
19647331939040,622710,03429,Active,Los Angeles,Los Angeles Unified,Venice Senior High,13000 Venice Boulevard,13000 Venice Blvd.,Los Angeles,90066-3512,CA,13000 Venice Boulevard,13000 Venice Blvd.,Los Angeles,90066-3512,CA,(310) 577-4200,No Data,www.venicehs-lausd-ca.schoolloop.com,07/01/1925,No Data,N,No Data,No Data,54,Unified School District,66,High Schools (Public),TRAD,Traditional,HS,High School,9-12,9-12,C,Y,33.998855999999996,-118.44283,Marcia,Haskin,marcia.haskin@lausd.net,No Data,No Data,No Data,No Data,No Data,No Data,06/04/2018,1939040
19647331939107,622710,03430,Active,Los Angeles,Los Angeles Unified,Verdugo Hills Senior High,10625 Plainview Avenue,10625 Plainview Ave.,Tujunga,91042-1723,CA,10625 Plainview Avenue,10625 Plainview Ave.,Tujunga,91042-1723,CA,(818) 951-5400,No Data,www.lausd.net/Verdugo_HS,07/01/1936,No Data,N,No Data,No Data,54,Unified School District,66,High Schools (Public),TRAD,Traditional,HS,High School,9-12,9-12,N,Y,34.261842,-118.29798000000001,Arturo,Barcenas,axb2343@lausd.net,No Data,No Data,No Data,No Data,No Data,No Data,10/30/2017,1939107
19647331939305,622710,03444,Active,Los Angeles,Los Angeles Unified,George Washington Preparatory High,10860 South Denker Avenue,10860 South Denker Ave.,Los Angeles,90047-4622,CA,10860 South Denker Avenue,10860 South Denker Ave.,Los Angeles,90047-4622,CA,(323) 418-4000,No Data,www.washingtonprephs-lausd-ca.schoolloop.com,07/01/1927,No Data,N,No Data,No Data,54,Unified School District,66,High Schools (Public),TRAD,Traditional,HS,High School,9-12,9-12,C,Y,33.937748,-118.30461000000001,Dechele,Byrd,dbyrd1@lausd.net,No Data,No Data,No Data,No Data,No Data,No Data,10/30/2017,1939305
19647331939479,622710,03455,Active,Los Angeles,Los Angeles Unified,WESM Health/Sports Medicine,7400 West Manchester Avenue,7400 West Manchester Ave.,Los Angeles,90045-2322,CA,7400 West Manchester Avenue,7400 West Manchester Ave.,Los Angeles,90045-2322,CA,(310) 338-2400,No Data,www.westchesterhs-lausd-ca.schoolloop.com,07/01/1948,No Data,N,No Data,No Data,54,Unified School District,66,High Schools (Public),TRAD,Traditional,HS,High School,9-12,9-12,C,Y,33.95967,-118.42643999999999,Janet,Mack,janet.mack@lausd.net,No Data,No Data,No Data,No Data,No Data,No Data,07/27/2018,1939479
19647331939859,622710,03466,Active,Los Angeles,Los Angeles Unified,Woodrow Wilson Senior High,4500 Multnomah Street,4500 Multnomah St.,Los Angeles,90032-3703,CA,4500 Multnomah Street,4500 Multnomah St.,Los Angeles,90032-3703,CA,(323) 276-1600,No Data,www.ibwilsonmules.com,07/01/1969,No Data,N,No Data,No Data,54,Unified School District,66,High Schools (Public),TRAD,Traditional,HS,High School,9-12,9-12,N,Y,34.070754,-118.18616000000002,Gilberto,Martinez,glm8490@lausd.net,No Data,No Data,No Data,No Data,No Data,No Data,10/30/2017,1939859
19647331939941,622710,03108,Active,Los Angeles,Los Angeles Unified,John F. Kennedy High,11254 Gothic Avenue,11254 Gothic Ave.,Granada Hills,91344-3709,CA,11254 Gothic Avenue,11254 Gothic Ave.,Granada Hills,91344-3709,CA,(818) 271-2900,No Data,www.lausd.k12.ca.us/Kennedy_HS,07/01/1971,No Data,N,No Data,No Data,54,Unified School District,66,High Schools (Public),TRAD,Traditional,HS,High School,9-12,9-12,N,Y,34.274661,-118.48845,Richard,Chavez,richard.chavez@lausd.net,No Data,No Data,No Data,No Data,No Data,No Data,10/30/2017,1939941
19647331995836,622710,04593,Active,Los Angeles,Los Angeles Unified,Palisades Charter High,15777 Bowdoin Street,15777 Bowdoin St.,Pacific Palisades,90272-3523,CA,15777 Bowdoin Street,15777 Bowdoin St.,Pacific Palisades,90272-3523,CA,(310) 230-6623,No Data,http://palihigh.org,03/23/1995,No Data,Y,0037,Directly funded,54,Unified School District,66,High Schools (Public),TRAD,Traditional,HS,High School,9-12,9-12,C,Y,34.044632,-118.5333,Pamela,Magee,pmagee@palihigh.org,No Data,No Data,No Data,No Data,No Data,No Data,12/05/2016,1995836
19647331996610,622710,10517,Active,Los Angeles,Los Angeles Unified,Los Angeles Leadership Academy,234 East Avenue 33,234 East Avenue 33,Los Angeles,90031-1937,CA,234 East Avenue 33,234 East Avenue 33,Los Angeles,90031-1937,CA,(323) 227-7719,No Data,http://laleadership.org,09/03/2002,No Data,Y,0461,Directly funded,54,Unified School District,65,K-12 Schools (Public),TRAD,Traditional,ELEMHIGH,Elementary-High Combination,6-12,6-12,C,N,34.083354,-118.21081000000001,Cynthia,Cuprill,ccuprill@laleadership.org,No Data,No Data,No Data,No Data,No Data,No Data,12/05/2016,1996610
19647336016885,622710,02983,Active,Los Angeles,Los Angeles Unified,Elizabeth Learning Center,4811 Elizabeth Street,4811 Elizabeth St.,Cudahy,90201-5205,CA,4811 Elizabeth Street,4811 Elizabeth St.,Cudahy,90201-5205,CA,(323) 271-3600,No Data,www.elizabethlc.org,07/01/1927,No Data,N,No Data,No Data,54,Unified School District,65,K-12 Schools (Public),TRAD,Traditional,ELEMHIGH,Elementary-High Combination,K-12,K-12,N,N,33.962874,-118.18248999999999,Nora,Gonzalez,ngonzale@lausd.net,No Data,No Data,No Data,No Data,No Data,No Data,10/30/2017,6016885
19647336019715,622710,03426,Active,Los Angeles,Los Angeles Unified,Vaughn Next Century Learning Center,13330 Vaughn Street,13330 Vaughn St.,San Fernando,91340-2216,CA,13330 Vaughn Street,13330 Vaughn St.,San Fernando,91340-2216,CA,(818) 896-7461,No Data,http://myvaughncharter.com,07/01/1954,No Data,Y,0016,Directly funded,54,Unified School District,65,K-12 Schools (Public),TRAD,Traditional,ELEMHIGH,Elementary-High Combination,P-12,K-12,N,N,34.279674,-118.42093999999999,Fidel,Ramirez,framirez@myvaughncharter.com,No Data,No Data,No Data,No Data,No Data,No Data,11/20/2018,6019715
19647336058002,622710,03029,Active,Los Angeles,Los Angeles Unified,Robert Fulton College Preparatory,7477 Kester Avenue,7477 Kester Ave.,Van Nuys,91405-1722,CA,7477 Kester Avenue,7477 Kester Ave.,Van Nuys,91405-1722,CA,(818) 947-2100,No Data,www.lausd.net/Fulton_College_Prep,07/01/1950,No Data,N,No Data,No Data,54,Unified School District,65,K-12 Schools (Public),TRAD,Traditional,ELEMHIGH,Elementary-High Combination,6-12,6-12,N,N,34.206434,-118.45752,Raquel,George,rgeorge@lausd.net,No Data,No Data,No Data,No Data,No Data,No Data,10/30/2017,6058002
19647336061451,622710,03017,Active,Los Angeles,Los Angeles Unified,Foshay Learning Center,3751 South Harvard Boulevard,3751 South Harvard Blvd.,Los Angeles,90018-4546,CA,3751 South Harvard Boulevard,3751 South Harvard Blvd.,Los Angeles,90018-4546,CA,(323) 373-2700,No Data,www.lausd.net/Foshay_LC,07/01/1924,No Data,N,No Data,No Data,54,Unified School District,65,K-12 Schools (Public),TRAD,Traditional,ELEMHIGH,Elementary-High Combination,K-12,K-12,C,N,34.018928,-118.30623999999999,Tracy,Triplett-Murray,tracy.triplettmurray@lausd.net,No Data,No Data,No Data,No Data,No Data,No Data,10/30/2017,6061451
19647336061600,622710,03378,Active,Los Angeles,Los Angeles Unified,Sun Valley Magnet,7330 Bakman Avenue,7330 Bakman Ave.,Sun Valley,91352-4914,CA,7330 Bakman Avenue,7330 Bakman Ave.,Sun Valley,91352-4914,CA,(818) 255-5100,No Data,No Data,07/01/1950,No Data,N,No Data,No Data,54,Unified School District,65,K-12 Schools (Public),TRAD,Traditional,ELEMHIGH,Elementary-High Combination,6-12,6-12,C,Y,34.203585,-118.37783999999999,Roberto,Lee,rlee01@lausd.net,No Data,No Data,No Data,No Data,No Data,No Data,09/08/2017,6061600
19647336116750,622710,08027,Active,Los Angeles,Los Angeles Unified,PUC Community Charter Middle and PUC Community Charter Early College High,11500 Eldridge Avenue,11500 Eldridge Ave.,Lake View Terrace,91342-6522,CA,"1405 N. San Fernando Boulevard, Suite 303","1405 N. San Fernando Blvd., Ste. 303",Burbank,91504,CA,(818) 485-0933,No Data,http://pucschools.org,09/07/1999,No Data,Y,0213,Directly funded,54,Unified School District,65,K-12 Schools (Public),TRAD,Traditional,ELEMHIGH,Elementary-High Combination,6-12,6-12,N,N,34.280097,-118.38238,Claudio,Estrada,c.estrada@pucschools.org,No Data,No Data,No Data,No Data,No Data,No Data,07/20/2018,6116750
19647740109538,623160,10903,Active,Los Angeles,Lynwood Unified,Marco Antonio Firebaugh High,5246 Martin Luther King Boulevard,5246 Martin Luther King Blvd.,Lynwood,90262-3903,CA,5246 Martin Luther King Boulevard,5246 Martin Luther King Blvd.,Lynwood,90262-3903,CA,(310) 886-5200,No Data,http://lhs.lynwood.edlioschool.com/,09/12/2005,No Data,N,No Data,No Data,54,Unified School District,66,High Schools (Public),TRAD,Traditional,HS,High School,9-12,9-12,N,N,33.919940999999994,-118.1832,Hector,Preciado,hpreciado@mylusd.org,No Data,No Data,No Data,No Data,No Data,No Data,10/06/2016,109538
19647741935436,623160,03536,Active,Los Angeles,Lynwood Unified,Lynwood High,4050 East Imperial Highway,4050 East Imperial Hwy.,Lynwood,90262-2853,CA,4050 East Imperial Highway,4050 East Imperial Hwy.,Lynwood,90262-2853,CA,(310) 603-1582,No Data,http://lhs.lynwood.edlioschool.com/,07/01/1980,No Data,N,No Data,No Data,54,Unified School District,66,High Schools (Public),TRAD,Traditional,HS,High School,9-12,9-12,N,N,33.931394,-118.19211999999999,Carlos,Zaragoza,cjzaragoza@mylusd.org,No Data,No Data,No Data,No Data,No Data,No Data,10/06/2016,1935436
19647901935923,625320,03780,Active,Los Angeles,Monrovia Unified,Monrovia High,845 West Colorado Boulevard,845 West Colorado Blvd.,Monrovia,91016-2517,CA,845 West Colorado Boulevard,845 West Colorado Blvd.,Monrovia,91016-2517,CA,(626) 471-2800,No Data,No Data,07/01/1980,No Data,N,No Data,No Data,54,Unified School District,66,High Schools (Public),TRAD,Traditional,HS,High School,9-12,9-12,N,Y,34.145754,-118.01708,Kirk,McGinnis,mcginnis@monroviaschools.net,No Data,No Data,No Data,No Data,No Data,No Data,08/18/2015,1935923
19647901996404,625320,08725,Active,Los Angeles,Monrovia Unified,Mountain Park,950 South Mountain Avenue,950 South Mountain Ave.,Monrovia,91016-3641,CA,950 South Mountain Avenue,950 South Mountain Ave.,Monrovia,91016-3641,CA,(626) 471-3014,No Data,No Data,09/05/2000,No Data,N,No Data,No Data,54,Unified School District,65,K-12 Schools (Public),TRAD,Traditional,ELEMHIGH,Elementary-High Combination,K-12,3-12,N,N,34.141373,-117.98621000000001,Flint,Fertig,ffertig@monroviaschools.net,No Data,No Data,No Data,No Data,No Data,No Data,02/13/2018,1996404
19648080124552,625470,12972,Active,Los Angeles,Montebello Unified,Applied Technology Center,1200 West Mines Avenue,1200 West Mines Ave.,Montebello,90640-5538,CA,1200 West Mines Avenue,1200 West Mines Ave.,Montebello,90640-5538,CA,(323) 248-2500,No Data,www.montebello.k12.ca.us,08/29/2011,No Data,N,No Data,No Data,54,Unified School District,66,High Schools (Public),TRAD,Traditional,HS,High School,9-12,9-12,N,N,34.004214000000005,-118.11648999999998,Leticia,Alvidrez,alvidrez_leticia@montebello.k12.ca.us,No Data,No Data,No Data,No Data,No Data,No Data,12/21/2016,124552
19648081930155,625470,03808,Active,Los Angeles,Montebello Unified,Schurr High,820 North Wilcox Avenue,820 North Wilcox Ave.,Montebello,90640-1808,CA,820 North Wilcox Avenue,820 North Wilcox Ave.,Montebello,90640-1808,CA,(323) 887-3090,No Data,www.montebello.k12.ca.us/,07/01/1980,No Data,N,No Data,No Data,54,Unified School District,66,High Schools (Public),TRAD,Traditional,HS,High School,9-12,9-12,N,N,34.030099,-118.12476000000001,Stacey,Honda,honda_stacey@montebello.k12.ca.us,No Data,No Data,No Data,No Data,No Data,No Data,10/04/2018,1930155
19648081930825,625470,03790,Active,Los Angeles,Montebello Unified,Bell Gardens High,6119 Agra Street,6119 Agra St.,Bell Gardens,90201-1705,CA,6119 Agra Street,6119 Agra St.,Bell Gardens,90201-1705,CA,(323) 826-5151,No Data,www.montebello.k12.ca.us/,07/01/1980,No Data,N,No Data,No Data,54,Unified School District,66,High Schools (Public),TRAD,Traditional,HS,High School,9-12,9-12,N,N,33.975649,-118.15427,Juan,Herrera,herrera_juan@montebello.k12.ca.us,No Data,No Data,No Data,No Data,No Data,No Data,06/18/2015,1930825
19648081935998,625470,03803,Active,Los Angeles,Montebello Unified,Montebello High,2100 West Cleveland Avenue,2100 West Cleveland Ave.,Montebello,90640-4032,CA,2100 West Cleveland Avenue,2100 West Cleveland Ave.,Montebello,90640-4032,CA,(323) 728-0121,No Data,www.montebello.k12.ca.us/,07/01/1980,No Data,N,No Data,No Data,54,Unified School District,66,High Schools (Public),TRAD,Traditional,HS,High School,9-12,9-12,N,N,34.01522,-118.12288000000001,Elena,Meltzer,meltzer_helen@montebello.k12.ca.us,No Data,No Data,No Data,No Data,No Data,No Data,07/22/2015,1935998
19648401933647,627690,04168,Active,Los Angeles,Norwalk-La Mirada Unified,John H. Glenn High,13520 Shoemaker Avenue,13520 Shoemaker Ave.,Norwalk,90650-4521,CA,13520 Shoemaker Avenue,13520 Shoemaker Ave.,Norwalk,90650-4521,CA,(562) 210-3000,No Data,www.jghs.org,07/01/1980,No Data,N,No Data,No Data,54,Unified School District,66,High Schools (Public),TRAD,Traditional,HS,High School,9-12,9-12,N,N,33.908190000000005,-118.0553,Francisco,Ramirez,framirez@nlmusd.k12.ca.us,No Data,No Data,No Data,No Data,No Data,No Data,08/17/2017,1933647
19648401934728,627690,04172,Active,Los Angeles,Norwalk-La Mirada Unified,La Mirada High,13520 Adelfa Drive,13520 Adelfa Dr.,La Mirada,90638-3103,CA,13520 Adelfa Drive,13520 Adelfa Dr.,La Mirada,90638-3103,CA,(562) 210-3315,No Data,www.lamiradahs.org,07/01/1980,No Data,N,No Data,No Data,54,Unified School District,66,High Schools (Public),TRAD,Traditional,HS,High School,9-12,9-12,N,N,33.908381,-118.0042,Lisa,Reed,lreed@nlmusd.k12.ca.us,No Data,No Data,No Data,No Data,No Data,No Data,08/18/2017,1934728
19648401936467,627690,04180,Active,Los Angeles,Norwalk-La Mirada Unified,Norwalk High,11356 East Leffingwell Road,11356 East Leffingwell Rd.,Norwalk,90650-3646,CA,11356 East Leffingwell Road,11356 East Leffingwell Rd.,Norwalk,90650-3646,CA,(562) 210-3830,No Data,www.norwalklancers.org,07/01/1980,No Data,N,No Data,No Data,54,Unified School District,66,High Schools (Public),TRAD,Traditional,HS,High School,9-12,9-12,N,N,33.908484,-118.09121,Michael,Garcia,migarcia@nlmusd.k12.ca.us,No Data,No Data,No Data,No Data,No Data,No Data,08/18/2017,1936467
19648651995588,629700,10246,Active,Los Angeles,Palos Verdes Peninsula Unified,Palos Verdes Peninsula High,27118 Silver Spur Road,27118 Silver Spur Rd.,Rolling Hills Estates,90274-2300,CA,27118 Silver Spur Road,27118 Silver Spur Rd.,Rolling Hills Estates,90274-2300,CA,(310) 377-4888,200,www.pvphs.com,09/05/1991,No Data,N,No Data,No Data,54,Unified School District,66,High Schools (Public),TRAD,Traditional,HS,High School,9-12,9-12,C,N,33.780654,-118.37375,Brent,Kuykendall,kuykendallb@pvpusd.net,No Data,No Data,No Data,No Data,No Data,No Data,10/03/2018,1995588
19648651996552,629700,10532,Active,Los Angeles,Palos Verdes Peninsula Unified,Palos Verdes High,600 Cloyden Road,600 Cloyden Rd.,Palos Verdes Estates,90274-1869,CA,600 Cloyden Road,600 Cloyden Rd.,Palos Verdes Estates,90274-1869,CA,(310) 378-8471,200,www.pvhigh.com,09/03/2002,No Data,N,No Data,No Data,54,Unified School District,66,High Schools (Public),TRAD,Traditional,HS,High School,9-12,9-12,C,N,33.781628999999995,-118.41946000000002,Allan,Tyner,tynera@pvpusd.net,No Data,No Data,No Data,No Data,No Data,No Data,10/03/2018,1996552
19648730136705,629850,No Data,Active,Los Angeles,Paramount Unified,Odyssey STEM Academy,3701 Michelson Street,3701 Michelson St.,Lakewood,90712-1402,CA,3701 Michelson Street,3701 Michelson St.,Lakewood,90712-1402,CA,(562) 602-6025,No Data,www.paramount.k12.ca.us,08/06/2018,No Data,N,No Data,No Data,54,Unified School District,66,High Schools (Public),TRAD,Traditional,HS,High School,9-12,No Data,N,N,33.857195000000004,-118.14813999999998,Keith,Nuthall,knuthall@paramount.k12.ca.us,No Data,No Data,No Data,No Data,No Data,No Data,07/24/2018,136705
19648731936749,629850,04653,Active,Los Angeles,Paramount Unified,Paramount High,14429 South Downey Avenue,14429 South Downey Ave.,Paramount,90723-4378,CA,14429 South Downey Avenue,14429 South Downey Ave.,Paramount,90723-4378,CA,(562) 602-6067,No Data,No Data,07/01/1953,No Data,N,No Data,No Data,54,Unified School District,66,High Schools (Public),TRAD,Traditional,HS,High School,9-12,9-12,N,N,33.901996000000004,-118.15158999999998,Michael,Ono,mono@paramount.k12.ca.us,No Data,No Data,No Data,No Data,No Data,No Data,08/15/2017,1936749
19648810113464,629940,12028,Active,Los Angeles,Pasadena Unified,Aveson Global Leadership Academy,575 West Altadena Drive,575 West Altadena Dr.,Altadena,91001-4203,CA,1919 East Pinecrest Drive,1919 East Pinecrest Dr.,Altadena,91001-2116,CA,(626) 797-1438,No Data,www.aveson.org,09/06/2007,No Data,Y,0847,Directly funded,54,Unified School District,65,K-12 Schools (Public),TRAD,Traditional,ELEMHIGH,Elementary-High Combination,6-12,6-12,N,N,34.198516999999995,-118.15838000000001,Kate,Bean,aveson@aveson.org,No Data,No Data,No Data,No Data,No Data,No Data,04/20/2016,113464
19648810118075,629940,12366,Active,Los Angeles,Pasadena Unified,Learning Works,90 North Daisy Avenue,90 North Daisy Ave.,Pasadena,91107-3704,CA,90 North Daisy Avenue,90 North Daisy Ave.,Pasadena,91107-3704,CA,(626) 564-2871,No Data,www.learningworkscharter.com,09/04/2008,No Data,Y,1031,Directly funded,54,Unified School District,66,High Schools (Public),TRAD,Traditional,HS,High School,7-12,7-12,N,N,34.147548,-118.09298999999999,Mikala,Rahn,mikala@publicworksinc.org,No Data,No Data,No Data,No Data,No Data,No Data,06/18/2015,118075
19648811931062,629940,04662,Active,Los Angeles,Pasadena Unified,Blair High,1201 South Marengo Avenue,1201 South Marengo Ave.,Pasadena,91106-4265,CA,1201 South Marengo Avenue,1201 South Marengo Ave.,Pasadena,91106-4265,CA,(626) 396-5820,No Data,http://blair.pusd.us,07/01/1980,No Data,N,No Data,No Data,54,Unified School District,65,K-12 Schools (Public),TRAD,Traditional,ELEMHIGH,Elementary-High Combination,6-12,6-12,N,Y,34.125528,-118.14582,David,Ibarra,ibarra.david@pusd.us,No Data,No Data,No Data,No Data,No Data,No Data,08/19/2016,1931062
19648811931674,629940,04679,Active,Los Angeles,Pasadena Unified,Marshall Fundamental,990 North Allen Avenue,990 North Allen Ave.,Pasadena,91104-4025,CA,990 North Allen Avenue,990 North Allen Ave.,Pasadena,91104-4025,CA,(626) 396-5810,No Data,http://marshall.pusd.us,07/01/1980,No Data,N,No Data,No Data,54,Unified School District,65,K-12 Schools (Public),TRAD,Traditional,ELEMHIGH,Elementary-High Combination,6-12,6-12,N,N,34.16257,-118.11303000000001,Mark,Anderson,anderson.mark@pusd.us,No Data,No Data,No Data,No Data,No Data,No Data,08/19/2016,1931674
19648811936103,629940,04681,Active,Los Angeles,Pasadena Unified,John Muir High,1905 North Lincoln Avenue,1905 North Lincoln Ave.,Pasadena,91103-1315,CA,1905 North Lincoln Avenue,1905 North Lincoln Ave.,Pasadena,91103-1315,CA,(626) 396-5600,No Data,http://muir.pusd.us,07/01/1980,No Data,N,No Data,No Data,54,Unified School District,66,High Schools (Public),TRAD,Traditional,HS,High School,9-12,9-12,N,N,34.178298,-118.15961999999999,Lawton,Gray,grayiii.lawton@pusd.us,No Data,No Data,No Data,No Data,No Data,No Data,07/27/2017,1936103
19648811936822,629940,04684,Active,Los Angeles,Pasadena Unified,Pasadena High,2925 East Sierra Madre Boulevard,2925 East Sierra Madre Blvd.,Pasadena,91107-1846,CA,2925 East Sierra Madre Boulevard,2925 East Sierra Madre Blvd.,Pasadena,91107-1846,CA,(626) 396-5880,No Data,http://phs.pusd.us,07/01/1980,No Data,N,No Data,No Data,54,Unified School District,66,High Schools (Public),TRAD,Traditional,HS,High School,9-12,9-12,N,N,34.161649,-118.09133999999999,Roberto,Hernandez,hernandez.roberto2@pusd.us,No Data,No Data,No Data,No Data,No Data,No Data,08/19/2016,1936822
19649070115170,631320,12112,Active,Los Angeles,Pomona Unified,School of Extended Educational Options,"1460 East Holt Avenue, Suite 100","1460 East Holt Ave., Ste. 100",Pomona,91767-5862,CA,"1460 East Holt Avenue, Suite 100","1460 East Holt Ave., Ste. 100",Pomona,91767-5862,CA,(909) 397-4900,33371,www.pusd.org.seeo,08/29/2007,No Data,Y,0914,Locally funded,54,Unified School District,66,High Schools (Public),TRAD,Traditional,ELEMHIGH,Elementary-High Combination,K-12,K-12,N,N,34.061799,-117.71965,Tom,Sweeney,tom.sweeney@pusd.org,No Data,No Data,No Data,No Data,No Data,No Data,09/06/2016,115170
19649071933175,631320,04841,Active,Los Angeles,Pomona Unified,Ganesha High,1151 Fairplex Drive,1151 Fairplex Dr.,Pomona,91768-1299,CA,1151 Fairplex Drive,1151 Fairplex Dr.,Pomona,91768-1299,CA,(909) 397-4400,No Data,www.pusd.org,07/01/1980,No Data,N,No Data,No Data,54,Unified School District,66,High Schools (Public),TRAD,Traditional,HS,High School,9-12,9-12,N,N,34.064682,-117.78764,Jennifer,Francev,jennifer.francev@pusd.org,No Data,No Data,No Data,No Data,No Data,No Data,06/18/2015,1933175
19649071933324,631320,04842,Active,Los Angeles,Pomona Unified,Garey High,321 West Lexington Avenue,321 West Lexington Ave.,Pomona,91766-5254,CA,321 West Lexington Avenue,321 West Lexington Ave.,Pomona,91766-5254,CA,(909) 397-4451,31051,www.pusd.org,07/01/1980,No Data,N,No Data,No Data,54,Unified School District,66,High Schools (Public),TRAD,Traditional,HS,High School,9-12,9-12,N,N,34.036945,-117.75121000000001,Marco,Sanchez,marco.sanchez@pusd.org,No Data,No Data,No Data,No Data,No Data,No Data,07/13/2017,1933324
19649071937028,631320,04858,Active,Los Angeles,Pomona Unified,Pomona High,475 Bangor Street,475 Bangor St.,Pomona,91767-2443,CA,475 Bangor Street,475 Bangor St.,Pomona,91767-2443,CA,(909) 397-4498,No Data,www.pusd.org,07/01/1980,No Data,N,No Data,No Data,54,Unified School District,66,High Schools (Public),TRAD,Traditional,HS,High School,9-12,9-12,N,N,34.084323,-117.74145,Elizabeth,Harper,elizabeth.harper@pusd.org,No Data,No Data,No Data,No Data,No Data,No Data,07/25/2018,1937028
19649071995901,631320,07136,Active,Los Angeles,Pomona Unified,Diamond Ranch High,100 Diamond Ranch Drive,100 Diamond Ranch Dr.,Pomona,91766-4723,CA,100 Diamond Ranch Drive,100 Diamond Ranch Dr.,Pomona,91766-4723,CA,(909) 397-4715,No Data,www.pusd.org,09/08/1997,No Data,N,No Data,No Data,54,Unified School District,66,High Schools (Public),TRAD,Traditional,HS,High School,9-12,9-12,N,N,34.022278,-117.77361,Suzanne,Steinseifer-Ripley,suzanne.steinseifer-ripley@pusd.org,No Data,No Data,No Data,No Data,No Data,No Data,06/18/2015,1995901
19649076061634,631320,04840,Active,Los Angeles,Pomona Unified,Fremont Academy of Engineering and Design,725 West Franklin Avenue,725 West Franklin Ave.,Pomona,91766-5168,CA,725 West Franklin Avenue,725 West Franklin Ave.,Pomona,91766-5168,CA,(909) 397-4521,No Data,www.pusd.org,07/01/1980,No Data,N,No Data,No Data,54,Unified School District,66,High Schools (Public),TRAD,Traditional,HS,High School,7-12,7-12,N,N,34.040547,-117.75668999999999,Roger,Fasting,roger.fasting@pusd.org,No Data,No Data,No Data,No Data,No Data,No Data,07/25/2018,6061634
19649076061642,631320,04855,Active,Los Angeles,Pomona Unified,Palomares Academy of Health Science,2211 North Orange Grove Avenue,2211 North Orange Grove Ave.,Pomona,91767-2319,CA,2211 North Orange Grove Avenue,2211 North Orange Grove Ave.,Pomona,91767-2319,CA,(909) 397-4539,No Data,www.pusd.org,07/01/1980,No Data,N,No Data,No Data,54,Unified School District,66,High Schools (Public),TRAD,Traditional,HS,High School,7-12,7-12,N,N,34.08328,-117.74566000000002,Camille,Ramos-Beal,camille.ramos-beal@pusd.org,No Data,No Data,No Data,No Data,No Data,No Data,06/18/2015,6061642
19649641937754,634860,05886,Active,Los Angeles,San Marino Unified,San Marino High,2701 Huntington Drive,2701 Huntington Dr.,San Marino,91108-2295,CA,2701 Huntington Drive,2701 Huntington Dr.,San Marino,91108-2295,CA,(626) 299-7020,No Data,www.sanmarinohs.org,07/01/1980,No Data,N,No Data,No Data,54,Unified School District,66,High Schools (Public),TRAD,Traditional,HS,High School,9-12,9-12,N,N,34.125111,-118.09795,Issaic,Gates,igates@smusd.us,Jorge,Munoz,jmunoz@smusd.us,Soomin,Chao,schao@smusd.us,08/16/2018,1937754
19649801938000,635700,06102,Active,Los Angeles,Santa Monica-Malibu Unified,Santa Monica High,601 Pico Boulevard,601 Pico Blvd.,Santa Monica,90405-1224,CA,601 Pico Boulevard,601 Pico Blvd.,Santa Monica,90405-1224,CA,(310) 395-3204,No Data,No Data,07/01/1980,No Data,N,No Data,No Data,54,Unified School District,66,High Schools (Public),TRAD,Traditional,HS,High School,9-12,9-12,N,N,34.011253,-118.48513,Antonino,Shelton,ashleton@smmusd.org,No Data,No Data,No Data,No Data,No Data,No Data,12/21/2016,1938000
19649801995737,635700,02173,Active,Los Angeles,Santa Monica-Malibu Unified,Malibu High,30215 Morning View Drive,30215 Morning View Dr.,Malibu,90265-3616,CA,30215 Morning View Drive,30215 Morning View Dr.,Malibu,90265-3616,CA,(310) 457-6801,No Data,No Data,07/01/1993,No Data,N,No Data,No Data,54,Unified School District,65,K-12 Schools (Public),TRAD,Traditional,ELEMHIGH,Elementary-High Combination,6-12,6-12,N,N,34.024246000000005,-118.82817,Cheri,Nye,mnye@smmusd.org,No Data,No Data,No Data,No Data,No Data,No Data,12/21/2016,1995737
19650291938455,637500,06338,Active,Los Angeles,South Pasadena Unified,South Pasadena Senior High,1401 Fremont Avenue,1401 Fremont Ave.,South Pasadena,91030-3809,CA,1401 Fremont Avenue,1401 Fremont Ave.,South Pasadena,91030-3809,CA,(626) 441-5820,No Data,No Data,07/01/1980,No Data,N,No Data,No Data,54,Unified School District,66,High Schools (Public),TRAD,Traditional,HS,High School,9-12,9-12,C,N,34.109915,-118.1532,Janet,Anderson,janderson@spusd.net,No Data,No Data,No Data,No Data,No Data,No Data,12/07/2016,1938455
19650521938679,638980,06540,Active,Los Angeles,Temple City Unified,Temple City High,9501 Lemon Avenue,9501 Lemon Ave.,Temple City,91780-1305,CA,9501 Lemon Avenue,9501 Lemon Ave.,Temple City,91780-1305,CA,(626) 548-5040,No Data,No Data,07/01/1980,No Data,N,No Data,No Data,54,Unified School District,66,High Schools (Public),TRAD,Traditional,HS,High School,9-12,9-12,N,N,34.117455,-118.06421999999999,Jennifer,Lashier,jlashier@tcusd.net,No Data,No Data,No Data,No Data,No Data,No Data,09/30/2016,1938679
19650601936277,639420,06568,Active,Los Angeles,Torrance Unified,North High,3620 West 182nd Street,3620 West 182nd St.,Torrance,90504-3935,CA,3620 West 182nd Street,3620 West 182nd St.,Torrance,90504-3935,CA,(310) 533-4412,No Data,No Data,09/08/1955,No Data,N,No Data,No Data,54,Unified School District,66,High Schools (Public),TRAD,Traditional,HS,High School,9-12,9-12,C,N,33.865534999999994,-118.3357,Karen,Botts,botts.karen@tusd.org,Portia,Rivera,rivera.portia@tusd.org,James,Sheck,sheck.chris@tusd.org,06/19/2018,1936277
19650601938356,639420,06573,Active,Los Angeles,Torrance Unified,South High,4801 Pacific Coast Highway,4801 Pacific Coast Hwy.,Torrance,90505-5544,CA,4801 Pacific Coast Highway,4801 Pacific Coast Hwy.,Torrance,90505-5544,CA,(310) 533-4352,No Data,No Data,07/01/1980,No Data,N,No Data,No Data,54,Unified School District,66,High Schools (Public),TRAD,Traditional,HS,High School,9-12,9-12,C,N,33.810786,-118.36523999999999,Scott,McDowell,mcdowell.scott@tusd.org,Jon,Kaneshiro,kaneshiro.jon@tusd.org,Michelle,Fournier,fournier.michelle@tusd.org,10/17/2018,1938356
19650601938752,639420,06576,Active,Los Angeles,Torrance Unified,Torrance High,2200 Carson Street,2200 Carson St.,Torrance,90501-3135,CA,2200 Carson Street,2200 Carson St.,Torrance,90501-3135,CA,(310) 533-4396,No Data,No Data,09/04/1917,No Data,N,No Data,No Data,54,Unified School District,66,High Schools (Public),TRAD,Traditional,HS,High School,9-12,9-12,C,N,33.831308,-118.32113999999999,Karim,Girgis,girgis.karim@tusd.org,Mark,Roulette,roulette.mark@tusd.org,Paul,Nitake,nitake.paul@tusd.org,10/16/2018,1938752
19650601939602,639420,06580,Active,Los Angeles,Torrance Unified,West High,20401 Victor Street,20401 Victor St.,Torrance,90503-2255,CA,20401 Victor Street,20401 Victor St.,Torrance,90503-2255,CA,(310) 533-4299,No Data,No Data,09/04/1962,No Data,N,No Data,No Data,54,Unified School District,66,High Schools (Public),TRAD,Traditional,HS,High School,9-12,9-12,C,N,33.846515000000004,-118.3667,Jim,Evans,evans.jim@tusd.org,Kara,Heinrich,heinrich.kara@tusd.org,Eric,Spotts,spotts.eric@tusd.org,06/19/2018,1939602
19650940122432,642000,12621,Active,Los Angeles,West Covina Unified,Edgewood High,1624 West Durness,1624 West Durness,West Covina,91790-3337,CA,1624 West Durness,1624 West Durness,West Covina,91790-3337,CA,(626) 939-0600,No Data,www.wcusd.org,08/23/2010,No Data,N,No Data,No Data,54,Unified School District,66,High Schools (Public),TRAD,Traditional,HS,High School,9-12,9-12,C,N,34.061058,-117.9523,Veronica,Maddox,rmaddox@wcusd.org,No Data,No Data,No Data,No Data,No Data,No Data,02/13/2018,122432
19650941939537,642000,06886,Active,Los Angeles,West Covina Unified,West Covina High,1609 East Cameron Avenue,1609 East Cameron Ave.,West Covina,91791-3108,CA,1609 East Cameron Avenue,1609 East Cameron Ave.,West Covina,91791-3108,CA,(626) 859-2900,No Data,No Data,07/01/1980,No Data,N,No Data,No Data,54,Unified School District,66,High Schools (Public),TRAD,Traditional,HS,High School,9-12,9-12,C,N,34.061151,-117.91378,Ryan,D'Errico,rderrico@wcusd.org,No Data,No Data,No Data,No Data,No Data,No Data,08/02/2018,1939537
19651281931302,642480,06950,Active,Los Angeles,Whittier Union High,California High,9800 South Mills Avenue,9800 South Mills Ave.,Whittier,90604-1030,CA,9800 South Mills Avenue,9800 South Mills Ave.,Whittier,90604-1030,CA,(562) 698-8121,3000,No Data,07/01/1980,No Data,N,No Data,No Data,56,High School District,66,High Schools (Public),TRAD,Traditional,HS,High School,9-12,9-12,N,N,33.943816,-118.02427,Bill,Schloss,bill.schloss@wuhsd.org,No Data,No Data,No Data,No Data,No Data,No Data,09/23/2015,1931302
19651281934868,642480,06952,Active,Los Angeles,Whittier Union High,La Serna High,15301 East Youngwood Drive,15301 East Youngwood Dr.,Whittier,90605-1345,CA,15301 East Youngwood Drive,15301 East Youngwood Dr.,Whittier,90605-1345,CA,(562) 698-8121,6000,No Data,07/01/1980,No Data,N,No Data,No Data,56,High School District,66,High Schools (Public),TRAD,Traditional,HS,High School,9-12,9-12,N,N,33.954826000000004,-117.99605,Ann,Fitzgerald,ann.fitzgerald@wuhsd.org,No Data,No Data,No Data,No Data,No Data,No Data,09/23/2015,1934868
19651281936889,642480,06953,Active,Los Angeles,Whittier Union High,Pioneer High,10800 Ben Avon,10800 Ben Avon,Whittier,90606-3010,CA,10800 Ben Avon,10800 Ben Avon,Whittier,90606-3010,CA,(562) 698-8121,5000,No Data,07/01/1980,No Data,N,No Data,No Data,56,High School District,66,High Schools (Public),TRAD,Traditional,HS,High School,9-12,9-12,N,N,33.971545,-118.07874,Lilia,Bozigian,lilia.bozigian@wuhsd.org,No Data,No Data,No Data,No Data,No Data,No Data,06/27/2016,1936889
19651281937903,642480,06954,Active,Los Angeles,Whittier Union High,Santa Fe High,10400 South Orr and Day Road,10400 South Orr and Day Rd.,Santa Fe Springs,90670-4161,CA,10400 South Orr and Day Road,10400 South Orr and Day Rd.,Santa Fe Springs,90670-4161,CA,(562) 698-8121,4000,No Data,07/01/1980,No Data,N,No Data,No Data,56,High School District,66,High Schools (Public),TRAD,Traditional,HS,High School,9-12,9-12,N,N,33.940125,-118.08998000000001,Craig,Campbell,craig.campbell@wuhsd.org,No Data,No Data,No Data,No Data,No Data,No Data,06/27/2016,1937903
19651281939701,642480,06955,Active,Los Angeles,Whittier Union High,Whittier High,12417 East Philadelphia Street,12417 East Philadelphia St.,Whittier,90601-3933,CA,12417 East Philadelphia Street,12417 East Philadelphia St.,Whittier,90601-3933,CA,(562) 698-8121,2000,No Data,07/01/1980,No Data,N,No Data,No Data,56,High School District,66,High Schools (Public),TRAD,Traditional,HS,High School,9-12,9-12,N,N,33.979818,-118.04411,Timothy,Liggett,timothy.liggett@wuhsd.org,No Data,No Data,No Data,No Data,No Data,No Data,06/27/2016,1939701
19651360102459,642510,10912,Active,Los Angeles,William S. Hart Union High,Golden Valley High,27051 Robert C. Lee Parkway,27051 Robert C. Lee Pkwy.,Santa Clarita,91321-0500,CA,27051 Robert C. Lee Parkway,27051 Robert C. Lee Pkwy.,Santa Clarita,91321-0500,CA,(661) 298-8140,No Data,www.goldenvalleyhs.org,08/16/2004,No Data,N,No Data,No Data,56,High School District,66,High Schools (Public),TRAD,Traditional,HS,High School,9-12,9-12,N,N,34.399592999999996,-118.49153999999999,Sal,Frias,sfrias@hartdistrict.org,No Data,No Data,No Data,No Data,No Data,No Data,01/14/2019,102459
19651360102475,642510,10914,Active,Los Angeles,William S. Hart Union High,West Ranch High,26255 West Valencia Boulevard,26255 West Valencia Blvd.,Valencia,91381-0664,CA,26255 West Valencia Boulevard,26255 West Valencia Blvd.,Valencia,91381-0664,CA,(661) 222-1220,No Data,www.westranchhighschool.com,08/16/2004,No Data,N,No Data,No Data,56,High School District,66,High Schools (Public),TRAD,Traditional,HS,High School,9-12,9-12,N,N,34.403527000000004,-118.59608,Mark,Crawford,mtcrawford@hartdistrict.org,No Data,No Data,No Data,No Data,No Data,No Data,08/22/2016,102475
19651360112359,642510,11675,Active,Los Angeles,William S. Hart Union High,Sequoia School,21445 Centre Pointe Parkway,21445 Centre Pointe Pkwy.,Santa Clarita,91350-2684,CA,21445 Centre Pointe Parkway,21445 Centre Pointe Pkwy.,Santa Clarita,91350-2684,CA,(661) 259-0033,304,www.sequoiasamurai.org,08/17/2006,No Data,N,0831,Locally funded,56,High School District,66,High Schools (Public),TRAD,Traditional,HS,High School,7-12,7-12,N,N,34.412596,-118.51432,Catherine,Nicholas,cnicholas@hartdistrict.org,No Data,No Data,No Data,No Data,No Data,No Data,01/14/2019,112359
19651360117234,642510,12191,Active,Los Angeles,William S. Hart Union High,Santa Clarita Valley International,"28060 Hasley Canyon Road, Suite 200","28060 Hasley Canyon Rd., Ste. 200",Castaic,91384-4577,CA,"28060 Hasley Canyon Road, Suite 200","28060 Hasley Canyon Rd., Ste. 200",Castaic,91384-4577,CA,(661) 705-4820,No Data,www.scvcharterschool.org,09/02/2008,No Data,Y,0981,Directly funded,56,High School District,65,K-12 Schools (Public),TRAD,Traditional,ELEMHIGH,Elementary-High Combination,K-12,K-12,C,N,34.45363,-118.62272,Lisa,Latimer,lisa.latimer@scvi-k12.org,Nicole,Padovich,nicole.padovich@scvi-k12.org,No Data,No Data,No Data,12/18/2017,117234
19651361931492,642510,06958,Active,Los Angeles,William S. Hart Union High,Canyon High,19300 West Nadal Street,19300 West Nadal St.,Canyon Country,91351-1253,CA,19300 West Nadal Street,19300 West Nadal St.,Canyon Country,91351-1253,CA,(661) 252-6110,No Data,www.canyonhighcowboys.org,07/01/1980,No Data,N,No Data,No Data,56,High School District,66,High Schools (Public),TRAD,Traditional,HS,High School,9-12,9-12,N,N,34.42971,-118.47243,Shellie,Holcombe,sholcombe@hartdistrict.org,No Data,No Data,No Data,No Data,No Data,No Data,02/02/2018,1931492
19651361931740,642510,06961,Active,Los Angeles,William S. Hart Union High,Saugus High,21900 Centurion Way,21900 Centurion Way,Saugus,91350-1607,CA,21900 Centurion Way,21900 Centurion Way,Saugus,91350-1607,CA,(661) 297-3900,No Data,www.sauguscenturions.com,07/01/1980,No Data,N,No Data,No Data,56,High School District,66,High Schools (Public),TRAD,Traditional,HS,High School,9-12,9-12,N,N,34.443020000000004,-118.5179,Vince,Ferry,vferry@hartdistrict.org,No Data,No Data,No Data,No Data,No Data,No Data,07/19/2017,1931740
19651361933902,642510,06959,Active,Los Angeles,William S. Hart Union High,William S. Hart High,24825 North Newhall Avenue,24825 North Newhall Ave.,Newhall,91321-1576,CA,24825 North Newhall Avenue,24825 North Newhall Ave.,Newhall,91321-1576,CA,(661) 259-7575,No Data,www.harthighschool.org,07/01/1980,No Data,N,No Data,No Data,56,High School District,66,High Schools (Public),TRAD,Traditional,HS,High School,9-12,9-12,N,N,34.384473,-118.53645,Jason,D'Autremont,jdautremont@hartdistrict.org,No Data,No Data,No Data,No Data,No Data,No Data,02/02/2018,1933902
19651361995802,642510,03264,Active,Los Angeles,William S. Hart Union High,Valencia High,27801 North Dickason Drive,27801 North Dickason Dr.,Valencia,91355-1208,CA,27801 North Dickason Drive,27801 North Dickason Dr.,Valencia,91355-1208,CA,(661) 294-1188,No Data,www.valenciavikings.com,09/01/1994,No Data,N,No Data,No Data,56,High School District,66,High Schools (Public),TRAD,Traditional,HS,High School,9-12,9-12,N,N,34.441672,-118.56199,Steve,Ford,stford@hartdistrict.org,No Data,No Data,No Data,No Data,No Data,No Data,07/18/2018,1995802
19651361996321,642510,08517,Active,Los Angeles,William S. Hart Union High,Academy of the Canyons,26455 Rockwell Canyon Road,26455 Rockwell Canyon Rd.,Santa Clarita,91355-1803,CA,26455 Rockwell Canyon Road,26455 Rockwell Canyon Rd.,Santa Clarita,91355-1803,CA,(661) 362-3056,No Data,www.academyofthecanyons.com,08/24/2000,No Data,N,No Data,No Data,56,High School District,66,High Schools (Public),TRAD,Traditional,HS,High School,9-12,9-12,N,N,34.407188,-118.56758,Pete,Getz,pgetz@hartdistrict.org,No Data,No Data,No Data,No Data,No Data,No Data,08/22/2016,1996321
19734370115725,609620,12119,Active,Los Angeles,Compton Unified,Lifeline Education Charter,225 South Santa Fe Avenue,225 South Santa Fe Ave.,Compton,90221-3240,CA,225 South Santa Fe Avenue,225 South Santa Fe Ave.,Compton,90221-3240,CA,(310) 885-1872,No Data,www.lifelinecharterschool.com,09/27/2007,No Data,Y,0963,Directly funded,54,Unified School District,65,K-12 Schools (Public),TRAD,Traditional,ELEMHIGH,Elementary-High Combination,P-12,K-12,N,N,33.894634,-118.21607,Paula,DeGroat,p.degroat@lifelineschool.com,Tinia,Cortez,tiniacortez@ymail.com,Obed,Narte,o.narte@lifelinecharterschool.com,03/12/2018,115725
19734370137984,609620,No Data,Active,Los Angeles,Compton Unified,nimo Compton Charter,13305 South San Pedro Street,13305 South San Pedro St.,Los Angeles,90061-2254,CA,1149 South Hill Street Suite 600,1149 South Hill St. Ste. 600,Los Angeles,90015,CA,(323) 565-1600,No Data,http://greendot.org,08/08/2018,No Data,Y,1990,Directly funded,54,Unified School District,65,K-12 Schools (Public),TRAD,Traditional,ELEMHIGH,Elementary-High Combination,6-12,No Data,N,N,33.911229,-118.27006000000002,Chaleese,Norman,chaleese.norman@animo.org,No Data,No Data,No Data,No Data,No Data,No Data,08/27/2018,137984
19734371931567,609620,00975,Active,Los Angeles,Compton Unified,Centennial High,2606 North Central Avenue,2606 North Central Ave.,Compton,90222-1640,CA,2606 North Central Avenue,2606 North Central Ave.,Compton,90222-1640,CA,(310) 635-2715,No Data,www.compton.k12.ca.us,07/01/1980,No Data,N,No Data,No Data,54,Unified School District,66,High Schools (Public),TRAD,Traditional,HS,High School,9-12,9-12,C,N,33.915421,-118.25428000000001,Shauna,Harris,sharris@compton.k12.ca.us,No Data,No Data,No Data,No Data,No Data,No Data,11/01/2017,1931567
19734371931963,609620,00976,Active,Los Angeles,Compton Unified,Compton High,601 South Acacia Street,601 South Acacia St.,Compton,90220-3702,CA,601 South Acacia Street,601 South Acacia St.,Compton,90220-3702,CA,(310) 635-3881,No Data,www.compton.k12.ca.us,07/01/1980,No Data,N,No Data,No Data,54,Unified School District,66,High Schools (Public),TRAD,Traditional,HS,High School,9-12,9-12,C,N,33.891121999999996,-118.22626000000001,Rigoberto,Roman,rroman@compton.k12.ca.us,No Data,No Data,No Data,No Data,No Data,No Data,02/15/2017,1931963
19734371932326,609620,00978,Active,Los Angeles,Compton Unified,Dominguez High,15301 South San Jose Avenue,15301 South San Jose Ave.,Compton,90221-3131,CA,15301 South San Jose Avenue,15301 South San Jose Ave.,Compton,90221-3131,CA,(562) 630-0142,No Data,www.compton.k12.ca.us,07/01/1980,No Data,N,No Data,No Data,54,Unified School District,66,High Schools (Public),TRAD,Traditional,HS,High School,9-12,9-12,C,N,33.89383,-118.18236999999999,Blain,Watson,bwatson@compton.k12.ca.us,No Data,No Data,No Data,No Data,No Data,No Data,11/01/2017,1932326
19734371996057,609620,07149,Active,Los Angeles,Compton Unified,Thurgood Marshall,12501 North Wilmington,12501 North Wilmington,Compton,90220,CA,12501 North Wilmington,12501 North Wilmington,Compton,90220,CA,(310) 898-6340,No Data,www.compton.k12.ca.us,09/11/1996,No Data,N,No Data,No Data,54,Unified School District,65,K-12 Schools (Public),TRAD,Traditional,HS,High School,K-12,10-12,C,N,33.919244,-118.23962,Laura,Henry,lhenry@compton.k12.ca.us,No Data,No Data,No Data,No Data,No Data,No Data,04/05/2017,1996057
19734451934801,616325,02049,Active,Los Angeles,Hacienda la Puente Unified,La Puente High,15615 East Nelson Avenue,15615 East Nelson Ave.,La Puente,91744-3910,CA,15615 East Nelson Avenue,15615 East Nelson Ave.,La Puente,91744-3910,CA,(626) 934-6700,No Data,No Data,07/01/1980,No Data,N,No Data,No Data,54,Unified School District,66,High Schools (Public),TRAD,Traditional,HS,High School,9-12,9-12,N,N,34.024827,-117.95549,Fernando,Sanchez,fsanchez@hlpusd.k12.ca.us,No Data,No Data,No Data,No Data,No Data,No Data,06/18/2015,1934801
19734451935246,616325,02053,Active,Los Angeles,Hacienda la Puente Unified,Los Altos High,15325 East Los Robles Avenue,15325 East Los Robles Ave.,Hacienda Heights,91745-2717,CA,15325 East Los Robles Avenue,15325 East Los Robles Ave.,Hacienda Heights,91745-2717,CA,(626) 934-5400,No Data,No Data,07/01/1980,No Data,N,No Data,No Data,54,Unified School District,66,High Schools (Public),TRAD,Traditional,HS,High School,9-12,9-12,N,N,34.007165,-117.97735,Jeffrey,Hess,jhess@hlpuds.k12.ca.us,No Data,No Data,No Data,No Data,No Data,No Data,03/29/2017,1935246
19734451939834,616325,02072,Active,Los Angeles,Hacienda la Puente Unified,Glen A. Wilson High,16455 Wedgeworth Drive,16455 Wedgeworth Dr.,Hacienda Heights,91745-3045,CA,16455 Wedgeworth Drive,16455 Wedgeworth Dr.,Hacienda Heights,91745-3045,CA,(626) 934-4410,No Data,No Data,07/01/1967,No Data,N,No Data,No Data,54,Unified School District,66,High Schools (Public),TRAD,Traditional,HS,High School,9-12,9-12,N,N,33.995701000000004,-117.93796,Danielle,Kenfield,dkenfield@hlpusd.k12.ca.us,No Data,No Data,No Data,No Data,No Data,No Data,08/12/2015,1939834
19734451939925,616325,02074,Active,Los Angeles,Hacienda la Puente Unified,William Workman High,16303 East Temple Avenue,16303 East Temple Ave.,City Of Industry,91744-4162,CA,16303 East Temple Avenue,16303 East Temple Ave.,City Of Industry,91744-4162,CA,(626) 933-8800,No Data,No Data,07/01/1980,No Data,N,No Data,No Data,54,Unified School District,66,High Schools (Public),TRAD,Traditional,HS,High School,9-12,9-12,N,N,34.028579,-117.93744,Anna,Corral,acorral@hlpusd.k12.ca.us,No Data,No Data,No Data,No Data,No Data,No Data,07/13/2017,1939925
19734521936228,633750,05207,Active,Los Angeles,Rowland Unified,Nogales High,401 South Nogales Street,401 South Nogales St.,La Puente,91744-6144,CA,401 South Nogales Street,401 South Nogales St.,La Puente,91744-6144,CA,(626) 965-3437,No Data,No Data,07/01/1980,No Data,N,No Data,No Data,54,Unified School District,66,High Schools (Public),TRAD,Traditional,HS,High School,9-12,9-12,N,N,34.010182,-117.88703000000001,Yousef,Nasouf,ynasouf@rowlandschools.org,No Data,No Data,No Data,No Data,No Data,No Data,08/23/2016,1936228
19734521937564,633750,05204,Active,Los Angeles,Rowland Unified,John A. Rowland High,2000 South Otterbein Street,2000 South Otterbein St.,Rowland Heights,91748-3949,CA,2000 South Otterbein Street,2000 South Otterbein St.,Rowland Heights,91748-3949,CA,(626) 965-3448,No Data,No Data,07/01/1980,No Data,N,No Data,No Data,54,Unified School District,66,High Schools (Public),TRAD,Traditional,HS,High School,9-12,9-12,N,N,33.982440000000004,-117.88431000000001,Mitch,Brunyer,rbrunyer@rowlandschools.org,No Data,No Data,No Data,No Data,No Data,No Data,08/23/2016,1937564
19734601932862,641280,07894,Active,Los Angeles,Walnut Valley Unified,Diamond Bar High,21400 Pathfinder Road,21400 Pathfinder Rd.,Diamond Bar,91765-2747,CA,21400 Pathfinder Road,21400 Pathfinder Rd.,Diamond Bar,91765-2747,CA,(909) 594-1405,No Data,www.wvusd.k12.ca.us,07/01/1980,No Data,N,No Data,No Data,54,Unified School District,66,High Schools (Public),TRAD,Traditional,HS,High School,9-12,9-12,C,N,33.984021000000006,-117.83876000000001,Reuben,Jones,rjones@wvusd.k12.ca.us,No Data,No Data,No Data,No Data,No Data,No Data,11/23/2016,1932862
19734601939149,641280,06843,Active,Los Angeles,Walnut Valley Unified,Walnut High,400 North Pierre Road,400 North Pierre Rd.,Walnut,91789-2535,CA,400 North Pierre Road,400 North Pierre Rd.,Walnut,91789-2535,CA,(909) 594-1333,No Data,www.wvusd.k12.ca.us,07/01/1980,No Data,N,No Data,No Data,54,Unified School District,66,High Schools (Public),TRAD,Traditional,HS,High School,9-12,9-12,C,N,34.021231,-117.85144,Brandon,Dade,bdade@wvusd.k12.ca.us,No Data,No Data,No Data,No Data,No Data,No Data,11/23/2016,1939149
19752911995810,634425,03273,Active,Los Angeles,San Gabriel Unified,Gabrielino High,1327 South San Gabriel Boulevard,1327 South San Gabriel Blvd.,San Gabriel,91776-3308,CA,1327 South San Gabriel Boulevard,1327 South San Gabriel Blvd.,San Gabriel,91776-3308,CA,(626) 573-2415,No Data,www.gabrielino.sgusd.k12.ca.us,09/08/1994,No Data,N,No Data,No Data,54,Unified School District,66,High Schools (Public),TRAD,Traditional,HS,High School,9-12,9-12,N,N,34.084,-118.09083999999999,Sharron,Heinrich,heinrich_s@sgusd.k12.ca.us,No Data,No Data,No Data,No Data,No Data,No Data,06/18/2015,1995810
19752911996016,634425,07165,Active,Los Angeles,San Gabriel Unified,Options for Youth San Gabriel,405 South San Gabriel Boulevard Suite A,405 South San Gabriel Blvd. Ste. A,San Gabriel,91776-1966,CA,320 North Halstead Street Suite 280,320 North Halstead St. Ste. 280,Pasadena,91107,CA,(626) 685-9300,No Data,www.ofy.org,01/02/1997,No Data,Y,0117,Directly funded,54,Unified School District,66,High Schools (Public),TRAD,Traditional,HS,High School,7-12,7-12,N,N,34.097642,-118.09127,Christian,Cutter,christiancutter@ofy.org,No Data,No Data,No Data,No Data,No Data,No Data,10/20/2017,1996016
19753090134585,600001,14062,Active,Los Angeles,Acton-Agua Dulce Unified,Pathways Academy Charter Adult Education,100 East San Marcos Boulevard Suite 350,100 East San Marcos Blvd. Ste. 350,San Marcos,92069-2989,CA,100 East San Marcos Boulevard Suite 350,100 East San Marcos Blvd. Ste. 350,San Marcos,92069-2989,CA,(760) 494-9646,No Data,www.pathwaysacademy.org,09/15/2016,No Data,Y,1828,Directly funded,54,Unified School District,66,High Schools (Public),TRAD,Traditional,HS,High School,9-12,12,C,N,33.141521999999995,-117.16245,Kurt,Madden,kmadden@cccs.education,No Data,No Data,No Data,No Data,No Data,No Data,08/14/2018,134585
19753090136648,600001,14202,Active,Los Angeles,Acton-Agua Dulce Unified,Options for Youth-Acton,"17216 Slover Avenue, Suite L-102","17216 Slover Ave., Ste. L-102",Fontana,92337-7580,CA,"320 North Halstead Street, Suite 280","320 North Halstead St., Ste. 280",Pasadena,91107,CA,(626) 921-8200,No Data,http://ofy.org/,08/25/2017,No Data,Y,1911,Directly funded,54,Unified School District,66,High Schools (Public),TRAD,Traditional,HS,High School,7-12,8-12,N,N,34.063466,-117.42968,Wendy,Gillespie,wgillespie@ofy.org,No Data,No Data,No Data,No Data,No Data,No Data,11/20/2018,136648
19753090138297,600001,No Data,Active,Los Angeles,Acton-Agua Dulce Unified,iLead Agua Dulce,11311 Frascati Street,11311 Frascati St.,Agua Dulce,91390-4840,CA,11311 Frascati Street,11311 Frascati St.,Agua Dulce,91390-4840,CA,(661) 268-6386,No Data,www.ileadaguadulce.org,07/01/2018,No Data,Y,2003,Directly funded,54,Unified School District,65,K-12 Schools (Public),TRAD,Traditional,ELEMHIGH,Elementary-High Combination,K-12,No Data,C,N,34.487679,-118.33247,Lisa,Latimer,lisa.latimer@ileadaguadulce.org,No Data,No Data,No Data,No Data,No Data,No Data,11/28/2018,138297
19753091995786,600001,03278,Active,Los Angeles,Acton-Agua Dulce Unified,Vasquez High,33630 Red Rover Mine Road,33630 Red Rover Mine Rd.,Acton,93510-1641,CA,33630 Red Rover Mine Road,33630 Red Rover Mine Rd.,Acton,93510-1641,CA,(661) 269-0451,No Data,No Data,08/31/1994,No Data,N,No Data,No Data,54,Unified School District,66,High Schools (Public),TRAD,Traditional,HS,High School,9-12,9-12,N,N,34.49362,-118.21611000000001,Dan,Andrus,dandrus@aadusd.k12.ca.us,No Data,No Data,No Data,No Data,No Data,No Data,08/17/2018,1995786
19753331935808,600025,06328,Active,Los Angeles,Manhattan Beach Unified,Mira Costa High,1401 Artesia Boulevard,1401 Artesia Blvd.,Manhattan Beach,90266-6968,CA,325 South Peck Avenue,325 South Peck Ave.,Manhattan Beach,90266,CA,(310) 318-7337,5003,No Data,07/01/1980,No Data,N,No Data,No Data,54,Unified School District,66,High Schools (Public),TRAD,Traditional,HS,High School,9-12,9-12,N,N,33.872932,-118.38948,Ben,Dale,bdale@mbusd.org,No Data,No Data,No Data,No Data,No Data,No Data,07/01/2016,1935808
19753411937143,600032,06330,Active,Los Angeles,Redondo Beach Unified,Redondo Union High,One Sea Hawk Way,One Sea Hawk Way,Redondo Beach,90277-3125,CA,1401 Inglewood Avenue,1401 Inglewood Ave.,Redondo Beach,90278-3999,CA,(310) 798-8665,4002,http://redondounion.org,07/01/1905,No Data,N,No Data,No Data,54,Unified School District,66,High Schools (Public),TRAD,Traditional,HS,High School,9-12,9-12,N,N,33.844753000000004,-118.38649,Jens,Brandt,jbrandt@rbusd.org,No Data,No Data,No Data,No Data,No Data,No Data,08/17/2017,1937143
19757131930163,600153,10929,Active,Los Angeles,Alhambra Unified,Alhambra High,101 South Second Street,101 South Second St.,Alhambra,91801-3716,CA,101 South Second Street,101 South Second St.,Alhambra,91801-3716,CA,(626) 943-6910,No Data,www.ausd.us,07/01/1980,No Data,N,No Data,No Data,54,Unified School District,66,High Schools (Public),TRAD,Traditional,HS,High School,9-12,9-12,C,N,34.095262,-118.1297,Duane,Russell,russell_duane@ausd.us,No Data,No Data,No Data,No Data,No Data,No Data,12/09/2016,1930163
19757131934553,600153,10930,Active,Los Angeles,Alhambra Unified,Mark Keppel High,501 East Hellman Avenue,501 East Hellman Ave.,Alhambra,91801-5716,CA,501 East Hellman Avenue,501 East Hellman Ave.,Alhambra,91801-5716,CA,(626) 943-6710,No Data,www.ausd.us,07/01/1980,No Data,N,No Data,No Data,54,Unified School District,66,High Schools (Public),TRAD,Traditional,HS,High School,9-12,9-12,C,N,34.069864,-118.11535,Jeannie,Gutierrez,gutierrez_jeannie@ausd.us,No Data,No Data,No Data,No Data,No Data,No Data,05/29/2018,1934553
19757131937697,600153,10931,Active,Los Angeles,Alhambra Unified,San Gabriel High,801 Ramona Street,801 Ramona St.,San Gabriel,91776-2342,CA,801 Ramona Street,801 Ramona St.,San Gabriel,91776-2342,CA,(626) 943-6810,No Data,www.ausd.us,07/01/1980,No Data,N,No Data,No Data,54,Unified School District,66,High Schools (Public),TRAD,Traditional,HS,High School,9-12,9-12,C,N,34.091924,-118.10802,Debbie,Stone,stone_debbie@ausd.us,No Data,No Data,No Data,No Data,No Data,No Data,12/09/2016,1937697
19768690119016,601428,12208,Active,Los Angeles,Wiseburn Unified,Da Vinci Science,201 N. Douglas Street,201 N. Douglas St.,El Segundo,90245-4637,CA,201 N. Douglas Street,201 N. Douglas St.,El Segundo,90245-4637,CA,(310) 725-5800,No Data,www.davincischools.org,08/18/2009,No Data,Y,1060,Directly funded,54,Unified School District,66,High Schools (Public),TRAD,Traditional,HS,High School,9-12,9-12,N,N,33.917908000000004,-118.38408000000001,Steve,Wallis,swallis@davincischools.org,No Data,No Data,No Data,No Data,No Data,No Data,07/01/2017,119016
19768690119636,601428,12410,Active,Los Angeles,Wiseburn Unified,Da Vinci Design,12501 Isis Avenue,12501 Isis Ave.,Hawthorne,90250-4149,CA,12501 Isis Avenue,12501 Isis Ave.,Hawthorne,90250-4149,CA,(310) 725-5800,No Data,www.davincischools.org,08/18/2009,No Data,Y,1081,Directly funded,54,Unified School District,66,High Schools (Public),TRAD,Traditional,HS,High School,9-12,9-12,N,N,33.919064,-118.37438,Kate,Parsons,kparsons@davincischools.org,No Data,No Data,No Data,No Data,No Data,No Data,01/17/2017,119636
19768690131128,601428,13832,Active,Los Angeles,Wiseburn Unified,Da Vinci Communications High,12495 Isis Avenue,12495 Isis Ave.,Hawthorne,90250-4147,CA,12495 Isis Avenue,12495 Isis Ave.,Hawthorne,90250-4147,CA,(310) 725-5800,4,www.davincischools.org,08/12/2014,No Data,Y,1689,Directly funded,54,Unified School District,66,High Schools (Public),TRAD,Traditional,HS,High School,9-12,9-12,N,N,33.919128,-118.37438,Scott,Weatherford,sweatherford@davincischools.org,No Data,No Data,No Data,No Data,No Data,No Data,08/16/2017,131128
